// static/data/bagheshahri/dadgostari2/dadgostari2_2.geojson
{
  "type": "FeatureCollection",
  "name": "2_2",
  "crs": {
    "type": "name",
    "properties": { "name": "urn:ogc:def:crs:OGC:1.3:CRS84" }
  },
  "features": [
    {
      "type": "Feature",
      "properties": {
        "fid": 4.0,
        "handle": "4941",
        "block": "-1",
        "etype": "18",
        "space": "0",
        "layer": "land",
        "olinetype": "bylayer",
        "linetype": null,
        "color": "0,0,0,223",
        "ocolor": "256",
        "color24": "-1",
        "transparen": "0",
        "lweight": "-1",
        "linewidth": 0.0,
        "ltscale": 1.0,
        "visible": "1",
        "width": 0.0,
        "thickness": 0.0,
        "ext": "(3:0,0,0.1)"
      },
      "geometry": {
        "type": "MultiLineString",
        "coordinates": [
          [
            [52.429473110602139, 29.828838170440157],
            [52.429416427212267, 29.82861516121076],
            [52.429393681444914, 29.828519554198962],
            [52.429350128329979, 29.828387236584426],
            [52.429278818145718, 29.82824230385911]
          ]
        ]
      }
    },
    {
      "type": "Feature",
      "properties": {
        "fid": 5.0,
        "handle": "6106",
        "block": "-1",
        "etype": "18",
        "space": "0",
        "layer": "land",
        "olinetype": "continuous",
        "linetype": null,
        "color": "0,0,0,223",
        "ocolor": "256",
        "color24": "-1",
        "transparen": "0",
        "lweight": "30",
        "linewidth": 0.3,
        "ltscale": 1.0,
        "visible": "1",
        "width": 0.0,
        "thickness": 0.0,
        "ext": "(3:0,0,0.1)"
      },
      "geometry": {
        "type": "MultiLineString",
        "coordinates": [
          [
            [52.428177927965336, 29.825969156155686],
            [52.426966854986887, 29.826526415591918],
            [52.426735039513574, 29.82614338559539],
            [52.426743684137321, 29.826119003994929],
            [52.427823588744076, 29.82562210126995],
            [52.427765634464308, 29.825526344189484],
            [52.426685730559527, 29.826023246422977],
            [52.42665776809239, 29.826015708821682],
            [52.426416296200635, 29.825616718555196],
            [52.426424940862901, 29.825592336972665],
            [52.427731075706156, 29.824991337029054]
          ]
        ]
      }
    },
    {
      "type": "Feature",
      "properties": {
        "fid": 6.0,
        "handle": "6183",
        "block": "-1",
        "etype": "18",
        "space": "0",
        "layer": "land",
        "olinetype": "continuous",
        "linetype": null,
        "color": "0,0,0,223",
        "ocolor": "256",
        "color24": "-1",
        "transparen": "0",
        "lweight": "30",
        "linewidth": 0.3,
        "ltscale": 1.0,
        "visible": "1",
        "width": 0.0,
        "thickness": 0.0,
        "ext": "(3:0,0,0.1)"
      },
      "geometry": {
        "type": "MultiLineString",
        "coordinates": [
          [
            [52.42927891617088, 29.828242503088539],
            [52.425928073308199, 29.830122479009418],
            [52.425902752954684, 29.830164185305332],
            [52.425916093596094, 29.830467193347804],
            [52.426851169023472, 29.830062749736097],
            [52.428279512912333, 29.829468943996357],
            [52.429473207410609, 29.828838472234299]
          ]
        ]
      }
    },
    {
      "type": "Feature",
      "properties": {
        "fid": 7.0,
        "handle": "10487",
        "block": "-1",
        "etype": "18",
        "space": "0",
        "layer": "land",
        "olinetype": "bylayer",
        "linetype": null,
        "color": "0,0,0,223",
        "ocolor": "256",
        "color24": "-1",
        "transparen": "0",
        "lweight": "-1",
        "linewidth": 0.0,
        "ltscale": 1.0,
        "visible": "1",
        "width": 0.0,
        "thickness": 0.0,
        "ext": "(3:0,0,0.1)"
      },
      "geometry": {
        "type": "MultiLineString",
        "coordinates": [
          [
            [52.427126701799125, 29.823942932406467],
            [52.426985580401301, 29.82394085492928],
            [52.42675502906291, 29.823961694429627],
            [52.426553477488326, 29.823995304677275],
            [52.426306708334224, 29.823993430295694],
            [52.426060914639002, 29.824003555701278],
            [52.425808890041495, 29.824016589779177],
            [52.425643564742799, 29.82401594563451],
            [52.425445023495136, 29.82400496574402],
            [52.425204649535047, 29.824027842123659],
            [52.425021885972001, 29.824060071770958],
            [52.424861674009556, 29.824078244414313]
          ]
        ]
      }
    },
    {
      "type": "Feature",
      "properties": {
        "fid": 8.0,
        "handle": "10489",
        "block": "-1",
        "etype": "18",
        "space": "0",
        "layer": "land",
        "olinetype": "bylayer",
        "linetype": null,
        "color": "0,0,0,223",
        "ocolor": "256",
        "color24": "-1",
        "transparen": "0",
        "lweight": "-1",
        "linewidth": 0.0,
        "ltscale": 1.0,
        "visible": "1",
        "width": 0.0,
        "thickness": 0.0,
        "ext": "(3:0,0,0.1)"
      },
      "geometry": {
        "type": "MultiLineString",
        "coordinates": [
          [
            [52.427653045948475, 29.824864480982963],
            [52.427625837023172, 29.824821068741475],
            [52.427540702410255, 29.82468274252491],
            [52.427438440195694, 29.824509393130139],
            [52.4273579050015, 29.82435964471728],
            [52.427286085342715, 29.824235002919774],
            [52.427224881048552, 29.82413180152648],
            [52.427178549320473, 29.824042672482676]
          ]
        ]
      }
    },
    {
      "type": "Feature",
      "properties": {
        "fid": 9.0,
        "handle": "10490",
        "block": "-1",
        "etype": "18",
        "space": "0",
        "layer": "land",
        "olinetype": "bylayer",
        "linetype": null,
        "color": "0,0,0,223",
        "ocolor": "256",
        "color24": "-1",
        "transparen": "0",
        "lweight": "-1",
        "linewidth": 0.0,
        "ltscale": 1.0,
        "visible": "1",
        "width": 0.0,
        "thickness": 0.0,
        "ext": "(3:0,0,0.1)"
      },
      "geometry": {
        "type": "MultiLineString",
        "coordinates": [
          [
            [52.428381750135735, 29.826327546852461],
            [52.428368455867236, 29.826301129064881],
            [52.428277057958312, 29.826147782936054],
            [52.428204036528847, 29.826033282419466],
            [52.428155168925016, 29.825913256711289],
            [52.428115668343878, 29.82578877140622],
            [52.428047163304107, 29.825631624240525],
            [52.42799229210226, 29.825508879445106],
            [52.427947342781081, 29.82539860710369],
            [52.427894370651259, 29.825271428235677],
            [52.427831954888134, 29.825155360607425],
            [52.42775489352865, 29.825030560482276],
            [52.427731244846854, 29.82499217269708]
          ]
        ]
      }
    },
    {
      "type": "Feature",
      "properties": {
        "fid": 10.0,
        "handle": "10491",
        "block": "-1",
        "etype": "18",
        "space": "0",
        "layer": "land",
        "olinetype": "bylayer",
        "linetype": null,
        "color": "0,0,0,223",
        "ocolor": "256",
        "color24": "-1",
        "transparen": "0",
        "lweight": "-1",
        "linewidth": 0.0,
        "ltscale": 1.0,
        "visible": "1",
        "width": 0.0,
        "thickness": 0.0,
        "ext": "(3:0,0,0.1)"
      },
      "geometry": {
        "type": "MultiLineString",
        "coordinates": [
          [
            [52.428861545121137, 29.827235122932322],
            [52.428786435184556, 29.82708620485888],
            [52.428711036950681, 29.826942112464252],
            [52.428631591978949, 29.826795471513098],
            [52.428614312790039, 29.826763010021121]
          ]
        ]
      }
    },
    {
      "type": "Feature",
      "properties": {
        "fid": 11.0,
        "handle": "10492",
        "block": "-1",
        "etype": "18",
        "space": "0",
        "layer": "land",
        "olinetype": "bylayer",
        "linetype": null,
        "color": "0,0,0,223",
        "ocolor": "256",
        "color24": "-1",
        "transparen": "0",
        "lweight": "-1",
        "linewidth": 0.0,
        "ltscale": 1.0,
        "visible": "1",
        "width": 0.0,
        "thickness": 0.0,
        "ext": "(3:0,0,0.1)"
      },
      "geometry": {
        "type": "MultiLineString",
        "coordinates": [
          [
            [52.429225855793845, 29.828016867118706],
            [52.429190675632135, 29.827945903779057],
            [52.429157687094374, 29.827848668728755],
            [52.42911221796065, 29.82773037007124],
            [52.42893648286924, 29.827382550993466],
            [52.428912472864219, 29.827335308546122]
          ]
        ]
      }
    },
    {
      "type": "Feature",
      "properties": {
        "fid": 12.0,
        "handle": "12186",
        "block": "-1",
        "etype": "18",
        "space": "0",
        "layer": "land",
        "olinetype": "continuous",
        "linetype": null,
        "color": "0,0,0,223",
        "ocolor": "256",
        "color24": "-1",
        "transparen": "0",
        "lweight": "30",
        "linewidth": 0.3,
        "ltscale": 1.0,
        "visible": "1",
        "width": 0.0,
        "thickness": 0.0,
        "ext": "(3:0,0,0.1)"
      },
      "geometry": {
        "type": "MultiLineString",
        "coordinates": [
          [
            [52.425514474854516, 29.827072253878853],
            [52.425275382498974, 29.826162081651191],
            [52.42527491499218, 29.826158767292316],
            [52.425274670140041, 29.826155429091628],
            [52.425274649040141, 29.826152081989672],
            [52.4252748517847, 29.826148740967252],
            [52.425275277468238, 29.826145420977806],
            [52.425275924184454, 29.826142136879749],
            [52.425276789037518, 29.826138903373245],
            [52.425277868158439, 29.826135734930173],
            [52.425279156717799, 29.826132645730464],
            [52.425280648947584, 29.826129649601167],
            [52.425282338168465, 29.826126759952782],
            [52.425284216820721, 29.826123989717413],
            [52.425286276496983, 29.826121351295111],
            [52.425288507976795, 29.826118856492936],
            [52.425290901273904, 29.826116516478574],
            [52.425293445674463, 29.826114341723947],
            [52.425296129795235, 29.826112341964286],
            [52.425298941618159, 29.82611052614811],
            [52.425301868559089, 29.826108902402225],
            [52.425304897520029, 29.826107477996619],
            [52.425308014942701, 29.826106259303884],
            [52.426241905751354, 29.825676556471493],
            [52.426269868095538, 29.825684094165364],
            [52.426752813054719, 29.826482074725394],
            [52.426744168405783, 29.826506456326111],
            [52.425514471136786, 29.827072265489146]
          ]
        ]
      }
    },
    {
      "type": "Feature",
      "properties": {
        "fid": 13.0,
        "handle": "12190",
        "block": "-1",
        "etype": "18",
        "space": "0",
        "layer": "land",
        "olinetype": "continuous",
        "linetype": null,
        "color": "0,0,0,223",
        "ocolor": "256",
        "color24": "-1",
        "transparen": "0",
        "lweight": "30",
        "linewidth": 0.3,
        "ltscale": 1.0,
        "visible": "1",
        "width": 0.0,
        "thickness": 0.0,
        "ext": "(3:0,0,0.1)"
      },
      "geometry": {
        "type": "MultiLineString",
        "coordinates": [
          [
            [52.428912459553032, 29.827335282354817],
            [52.425931351164259, 29.829007830238044],
            [52.42590603107319, 29.829049536532075],
            [52.42592901919658, 29.829839971010948],
            [52.425955913435018, 29.829852383694295],
            [52.429226380522074, 29.828017498472839]
          ]
        ]
      }
    },
    {
      "type": "Feature",
      "properties": {
        "fid": 14.0,
        "handle": "12195",
        "block": "-1",
        "etype": "18",
        "space": "0",
        "layer": "land",
        "olinetype": "continuous",
        "linetype": null,
        "color": "0,0,0,223",
        "ocolor": "256",
        "color24": "-1",
        "transparen": "0",
        "lweight": "30",
        "linewidth": 0.3,
        "ltscale": 1.0,
        "visible": "1",
        "width": 0.0,
        "thickness": 0.0,
        "ext": "(3:0,0,0.1)"
      },
      "geometry": {
        "type": "MultiLineString",
        "coordinates": [
          [
            [52.425916490195569, 29.828283847149009],
            [52.425913274274841, 29.828285428546302],
            [52.425910172222203, 29.828287223051589],
            [52.425907198145062, 29.828289222506097],
            [52.425904365554736, 29.828291417821671],
            [52.425901687332946, 29.828293799017953],
            [52.425899175654187, 29.828296355271956],
            [52.425896841932619, 29.828299074962157],
            [52.425894696780226, 29.828301945726704],
            [52.42589274994679, 29.828304954514348],
            [52.425891010281696, 29.828308087649926],
            [52.425889485692089, 29.828311330888933],
            [52.425888183111958, 29.828314669489369],
            [52.425887108460294, 29.828318088274496],
            [52.425886266622904, 29.828321571702869],
            [52.425885661423663, 29.828325103940657],
            [52.425885295618478, 29.828328668930304],
            [52.425885170867076, 29.82833225046766],
            [52.425900772916094, 29.828868734509452],
            [52.425927666885876, 29.828881147209014],
            [52.427108333762817, 29.828218748991251],
            [52.427118172030497, 29.828181048125632],
            [52.426869134135742, 29.827828136361934],
            [52.426826425636953, 29.827819267175961],
            [52.426514724893799, 29.827986488131671],
            [52.425916490195554, 29.82828384714902]
          ]
        ]
      }
    },
    {
      "type": "Feature",
      "properties": {
        "fid": 15.0,
        "handle": "12199",
        "block": "-1",
        "etype": "18",
        "space": "0",
        "layer": "land",
        "olinetype": "continuous",
        "linetype": null,
        "color": "0,0,0,223",
        "ocolor": "256",
        "color24": "-1",
        "transparen": "0",
        "lweight": "30",
        "linewidth": 0.3,
        "ltscale": 1.0,
        "visible": "1",
        "width": 0.0,
        "thickness": 0.0,
        "ext": "(3:0,0,0.1)"
      },
      "geometry": {
        "type": "MultiLineString",
        "coordinates": [
          [
            [52.426438118449887, 29.828594767146814],
            [52.426140235320212, 29.828172632734436]
          ]
        ]
      }
    },
    {
      "type": "Feature",
      "properties": {
        "fid": 16.0,
        "handle": "12202",
        "block": "-1",
        "etype": "18",
        "space": "0",
        "layer": "land",
        "olinetype": "continuous",
        "linetype": null,
        "color": "0,0,0,223",
        "ocolor": "256",
        "color24": "-1",
        "transparen": "0",
        "lweight": "30",
        "linewidth": 0.3,
        "ltscale": 1.0,
        "visible": "1",
        "width": 0.0,
        "thickness": 0.0,
        "ext": "(3:0,0,0.1)"
      },
      "geometry": {
        "type": "MultiLineString",
        "coordinates": [
          [
            [52.428613655993111, 29.826762579605855],
            [52.427704643488745, 29.827337064807772],
            [52.42767197207943, 29.8273575296366],
            [52.427639090390045, 29.827377654860808],
            [52.427606001951055, 29.827397438321892],
            [52.427572710312226, 29.82741687789439],
            [52.427539219047873, 29.82743597149101],
            [52.427505531755038, 29.827454717064455],
            [52.427471652048936, 29.827473112600519],
            [52.427002693707294, 29.827724702464383],
            [52.426992521801274, 29.827761941048273],
            [52.427240027793133, 29.8281126813729],
            [52.427282402814171, 29.828121088144648],
            [52.428861553293373, 29.827235092296146]
          ]
        ]
      }
    },
    {
      "type": "Feature",
      "properties": {
        "fid": 17.0,
        "handle": "12211",
        "block": "-1",
        "etype": "18",
        "space": "0",
        "layer": "land",
        "olinetype": "continuous",
        "linetype": null,
        "color": "0,0,0,223",
        "ocolor": "256",
        "color24": "-1",
        "transparen": "0",
        "lweight": "30",
        "linewidth": 0.3,
        "ltscale": 1.0,
        "visible": "1",
        "width": 0.0,
        "thickness": 0.0,
        "ext": "(3:0,0,0.1)"
      },
      "geometry": {
        "type": "MultiLineString",
        "coordinates": [
          [
            [52.427178158720345, 29.824041921078528],
            [52.426404175007917, 29.824398060374637],
            [52.426395530430788, 29.824422441956866],
            [52.426868810998826, 29.825204462784853],
            [52.426896773251286, 29.825212000349296],
            [52.42765245737283, 29.824864280468201]
          ]
        ]
      }
    },
    {
      "type": "Feature",
      "properties": {
        "fid": 18.0,
        "handle": "12212",
        "block": "-1",
        "etype": "18",
        "space": "0",
        "layer": "land",
        "olinetype": "continuous",
        "linetype": null,
        "color": "0,0,0,223",
        "ocolor": "256",
        "color24": "-1",
        "transparen": "0",
        "lweight": "30",
        "linewidth": 0.3,
        "ltscale": 1.0,
        "visible": "1",
        "width": 0.0,
        "thickness": 0.0,
        "ext": "(3:0,0,0.1)"
      },
      "geometry": {
        "type": "MultiLineString",
        "coordinates": [
          [
            [52.42506085534599, 29.825057726431272],
            [52.425216452105616, 29.825904305890184],
            [52.425217843665031, 29.825908582426568],
            [52.425219532847755, 29.825912750383868],
            [52.42522151127195, 29.825916789077379],
            [52.425223769118013, 29.825920678465078],
            [52.425226295181339, 29.825924399244283],
            [52.425229076929092, 29.825927932952251],
            [52.425232100553323, 29.825931262050286],
            [52.425235351051008, 29.825934370020146],
            [52.425238812289528, 29.825937241435891],
            [52.425242467092168, 29.825939862049378],
            [52.425246297323604, 29.825942218854831],
            [52.425250283975394, 29.825944300156149],
            [52.425254407262393, 29.82594609562511],
            [52.425258646722789, 29.825947596351394],
            [52.42526298131633, 29.82594879488806],
            [52.425267389535286, 29.825949685287011],
            [52.425271849502671, 29.825950263129013],
            [52.425276339083204, 29.825950525546428],
            [52.425280835999722, 29.825950471237771],
            [52.425285317933223, 29.825950100472252],
            [52.425289762644745, 29.825949415089777],
            [52.425294148075402, 29.825948418491858],
            [52.425298452460616, 29.825947115622984],
            [52.425302654440692, 29.825945512949151],
            [52.425306733163374, 29.825943618426052],
            [52.426732042658408, 29.825287798469688],
            [52.426740687218242, 29.825263416868793],
            [52.426267407330371, 29.824481395564618],
            [52.426239445325223, 29.824473857857829],
            [52.42509318418665, 29.825001281141766],
            [52.425089809196002, 29.825002777431141],
            [52.425086547770704, 29.825004507329609],
            [52.425083416057525, 29.825006462272537],
            [52.425080429553411, 29.825008632580644],
            [52.425077603045786, 29.825011007512327],
            [52.425074950528135, 29.825013575309637],
            [52.425072485128105, 29.825016323263295],
            [52.425070219052934, 29.825019237768171],
            [52.425068163516691, 29.825022304397859],
            [52.425066328698442, 29.825025507971073],
            [52.425064723678581, 29.825028832628956],
            [52.425063356404273, 29.825032261915108],
            [52.425062233643978, 29.825035778851994],
            [52.425061360952888, 29.825039366030975],
            [52.425060742652924, 29.825043005694166],
            [52.425060381805444, 29.825046679824478],
            [52.425060280195837, 29.825050370232489],
            [52.425060438326987, 29.825054058651435],
            [52.425060855417854, 29.825057726822301]
          ]
        ]
      }
    },
    {
      "type": "Feature",
      "properties": {
        "fid": 19.0,
        "handle": "12215",
        "block": "-1",
        "etype": "18",
        "space": "0",
        "layer": "land",
        "olinetype": "continuous",
        "linetype": null,
        "color": "0,0,0,223",
        "ocolor": "256",
        "color24": "-1",
        "transparen": "0",
        "lweight": "30",
        "linewidth": 0.3,
        "ltscale": 1.0,
        "visible": "1",
        "width": 0.0,
        "thickness": 0.0,
        "ext": "(3:0,0,0.1)"
      },
      "geometry": {
        "type": "MultiLineString",
        "coordinates": [
          [
            [52.427126803421224, 29.823943127899081],
            [52.425109643465852, 29.82487128505198],
            [52.425105564771059, 29.82487317956102],
            [52.425101362821422, 29.824874782218576],
            [52.425097058465319, 29.824876085071988],
            [52.425092673065585, 29.824877081655355],
            [52.425088228386805, 29.824877767023278],
            [52.425083746484226, 29.824878137774245],
            [52.425079249600451, 29.824878192068351],
            [52.425074760052659, 29.824877929636383],
            [52.425070300121654, 29.824877351780739],
            [52.425065891939077, 29.824876461368145],
            [52.425061557381916, 29.824875262819656],
            [52.42505731795972, 29.824873762080639],
            [52.425053194714557, 29.824871966599854],
            [52.425049208106422, 29.824869885288532],
            [52.425045377918643, 29.824867528473984],
            [52.425041723159659, 29.824864907853222],
            [52.425038261970251, 29.82486203643111],
            [52.425035011521679, 29.824858928458521],
            [52.42503198794838, 29.824855599357758],
            [52.425029206253377, 29.824852065650699],
            [52.425026680244621, 29.824848344874223],
            [52.425024422453127, 29.82484445549289],
            [52.425022444087134, 29.824840416807564],
            [52.425020754961281, 29.824836248862905],
            [52.425019363461885, 29.82483197234086],
            [52.424880444246249, 29.824076115340088]
          ]
        ]
      }
    },
    {
      "type": "Feature",
      "properties": {
        "fid": 20.0,
        "handle": "12227",
        "block": "-1",
        "etype": "18",
        "space": "0",
        "layer": "land",
        "olinetype": "continuous",
        "linetype": null,
        "color": "0,0,0,223",
        "ocolor": "256",
        "color24": "-1",
        "transparen": "0",
        "lweight": "30",
        "linewidth": 0.3,
        "ltscale": 1.0,
        "visible": "1",
        "width": 0.0,
        "thickness": 0.0,
        "ext": "(3:0,0,0.1)"
      },
      "geometry": {
        "type": "MultiLineString",
        "coordinates": [
          [
            [52.427982476709445, 29.825486243688491],
            [52.427794611590002, 29.825574222733508]
          ]
        ]
      }
    },
    {
      "type": "Feature",
      "properties": {
        "fid": 21.0,
        "handle": "12228",
        "block": "-1",
        "etype": "18",
        "space": "0",
        "layer": "land",
        "olinetype": "continuous",
        "linetype": null,
        "color": "0,0,0,223",
        "ocolor": "256",
        "color24": "-1",
        "transparen": "0",
        "lweight": "30",
        "linewidth": 0.3,
        "ltscale": 1.0,
        "visible": "1",
        "width": 0.0,
        "thickness": 0.0,
        "ext": "(3:0,0,0.1)"
      },
      "geometry": {
        "type": "MultiLineString",
        "coordinates": [
          [
            [52.425519224972554, 29.827090362625405],
            [52.425698266311599, 29.827771940695087],
            [52.425699919171734, 29.827776052574883],
            [52.425701849912386, 29.827780041527621],
            [52.425704049457629, 29.827783888801601],
            [52.425706507465286, 29.827787576307852],
            [52.425709212380745, 29.827791086712747],
            [52.425712151485634, 29.827794403511685],
            [52.425715310966545, 29.8277975111132],
            [52.425718675967794, 29.827800394908078],
            [52.425722230671447, 29.82780304133848],
            [52.42572595836463, 29.827805437962521],
            [52.4257298415232, 29.827807573514288],
            [52.425733861891779, 29.827809437953871],
            [52.425738000571066, 29.827811022516467],
            [52.425742238105151, 29.827812319752407],
            [52.425746554568825, 29.827813323563529],
            [52.425750929673079, 29.827814029229554],
            [52.425755342848781, 29.827814433435375],
            [52.425759773350357, 29.827814534279238],
            [52.425764200346741, 29.827814331286387],
            [52.425768603026874, 29.827813825412701],
            [52.425772960694296, 29.827813019035599],
            [52.425777252861728, 29.827811915945855],
            [52.425781459347874, 29.827810521328974],
            [52.425785560385179, 29.827808841742446],
            [52.425789536687432, 29.827806885081056],
            [52.426240409719895, 29.827582773767745],
            [52.427080603667434, 29.827132025027577],
            [52.427083615138827, 29.827130513172168],
            [52.427086518954596, 29.827128803638956],
            [52.427089302162123, 29.827126904055145],
            [52.427091952338735, 29.827124822895708],
            [52.427094457660125, 29.827122569448871],
            [52.427096806946786, 29.827120153769098],
            [52.42709898971588, 29.827117586634809],
            [52.427100996228539, 29.827114879502911],
            [52.427102817529878, 29.827112044451493],
            [52.427104445494471, 29.827109094130716],
            [52.427105872857275, 29.827106041706426],
            [52.427107093250008, 29.827102900798305],
            [52.427108101226615, 29.827099685422578],
            [52.427108892286917, 29.827096409925613],
            [52.427109462905712, 29.827093088923899],
            [52.427109810532777, 29.827089737235834],
            [52.427109933620152, 29.827086369817149],
            [52.427109831614864, 29.827083001693605],
            [52.427109504975299, 29.827079647895513],
            [52.427108955158467, 29.827076323385878],
            [52.427108184616365, 29.827073043001288],
            [52.427107196788704, 29.827069821378242],
            [52.427105996081949, 29.827066672891746],
            [52.427104587855638, 29.827063611592283],
            [52.42710297839087, 29.82706065113905],
            [52.426830084979059, 29.826609751418914],
            [52.426802122337129, 29.826602213854574],
            [52.425722201980193, 29.827099108669472],
            [52.425673907614573, 29.827019310321646],
            [52.425519252957216, 29.827090469158801]
          ]
        ]
      }
    },
    {
      "type": "Feature",
      "properties": {
        "fid": 22.0,
        "handle": "12232",
        "block": "-1",
        "etype": "18",
        "space": "0",
        "layer": "land",
        "olinetype": "continuous",
        "linetype": null,
        "color": "0,0,0,223",
        "ocolor": "256",
        "color24": "-1",
        "transparen": "0",
        "lweight": "30",
        "linewidth": 0.3,
        "ltscale": 1.0,
        "visible": "1",
        "width": 0.0,
        "thickness": 0.0,
        "ext": "(3:0,0,0.1)"
      },
      "geometry": {
        "type": "MultiLineString",
        "coordinates": [
          [
            [52.42696685498688, 29.826526415591911],
            [52.427238434063682, 29.826975142778629],
            [52.427241061431239, 29.826978698211253],
            [52.427243916981624, 29.826982073117058],
            [52.427246988345352, 29.826985252878327],
            [52.427250262220689, 29.826988223720942],
            [52.427253724425093, 29.826990972775999],
            [52.427257359960997, 29.826993488135482],
            [52.42726115308141, 29.826995758905465],
            [52.427265087355401, 29.826997775247943],
            [52.427269145744496, 29.826999528430857],
            [52.427273310664525, 29.827001010858108],
            [52.427277564078388, 29.827002216110483],
            [52.427281887559722, 29.827003138965662],
            [52.427286262383852, 29.827003775426416],
            [52.427290669596907, 29.827004122736977],
            [52.427295090112231, 29.82700417939213],
            [52.427299504779505, 29.827003945146313],
            [52.427303894475692, 29.827003421014521],
            [52.427308240190534, 29.827002609266852],
            [52.427312523095672, 29.827001513420324],
            [52.427316724641052, 29.82700013821977],
            [52.427320826625746, 29.826998489623755],
            [52.427324811284969, 29.82699657477254],
            [52.427328661355546, 29.826994401961418],
            [52.427337222739936, 29.826989220841181],
            [52.427345767573399, 29.826984012468071],
            [52.427354295767138, 29.826978776894062],
            [52.427362807235106, 29.826973514173002],
            [52.427371301889991, 29.82696822435673],
            [52.427379779645037, 29.82696290750054],
            [52.427388240418445, 29.826957563658912],
            [52.428381881263412, 29.826327426745994]
          ]
        ]
      }
    },
    {
      "type": "Feature",
      "properties": {
        "fid": 23.0,
        "handle": "12255",
        "block": "-1",
        "etype": "18",
        "space": "0",
        "layer": "land",
        "olinetype": "bylayer",
        "linetype": null,
        "color": "0,0,0,255",
        "ocolor": "7",
        "color24": "-1",
        "transparen": "0",
        "lweight": "0",
        "linewidth": 0.0,
        "ltscale": 1.0,
        "visible": "1",
        "width": 0.0,
        "thickness": 0.0,
        "ext": "(3:0,0,0.1)"
      },
      "geometry": {
        "type": "MultiLineString",
        "coordinates": [
          [
            [52.42650404632888, 29.824872406470359],
            [52.425141981797651, 29.825499125751083]
          ]
        ]
      }
    },
    {
      "type": "Feature",
      "properties": {
        "fid": 24.0,
        "handle": "12256",
        "block": "-1",
        "etype": "18",
        "space": "0",
        "layer": "land",
        "olinetype": "bylayer",
        "linetype": null,
        "color": "0,0,0,255",
        "ocolor": "7",
        "color24": "-1",
        "transparen": "0",
        "lweight": "0",
        "linewidth": 0.0,
        "ltscale": 1.0,
        "visible": "1",
        "width": 0.0,
        "thickness": 0.0,
        "ext": "(3:0,0,0.1)"
      },
      "geometry": {
        "type": "MultiLineString",
        "coordinates": [
          [
            [52.427409582675409, 29.82445573506077],
            [52.426632169769377, 29.824813452624507]
          ]
        ]
      }
    },
    {
      "type": "Feature",
      "properties": {
        "fid": 25.0,
        "handle": "12257",
        "block": "-1",
        "etype": "18",
        "space": "0",
        "layer": "land",
        "olinetype": "bylayer",
        "linetype": null,
        "color": "0,0,0,255",
        "ocolor": "7",
        "color24": "-1",
        "transparen": "0",
        "lweight": "0",
        "linewidth": 0.0,
        "ltscale": 1.0,
        "visible": "1",
        "width": 0.0,
        "thickness": 0.0,
        "ext": "(3:0,0,0.1)"
      },
      "geometry": {
        "type": "MultiLineString",
        "coordinates": [
          [
            [52.426511339590668, 29.826083084709524],
            [52.425385267454843, 29.826601213961158]
          ]
        ]
      }
    },
    {
      "type": "Feature",
      "properties": {
        "fid": 26.0,
        "handle": "12258",
        "block": "-1",
        "etype": "18",
        "space": "0",
        "layer": "land",
        "olinetype": "bylayer",
        "linetype": null,
        "color": "0,0,0,255",
        "ocolor": "7",
        "color24": "-1",
        "transparen": "0",
        "lweight": "0",
        "linewidth": 0.0,
        "ltscale": 1.0,
        "visible": "1",
        "width": 0.0,
        "thickness": 0.0,
        "ext": "(3:0,0,0.1)"
      },
      "geometry": {
        "type": "MultiLineString",
        "coordinates": [
          [
            [52.428834619868084, 29.828237302234882],
            [52.42838665044205, 29.827630295829078]
          ]
        ]
      }
    },
    {
      "type": "Feature",
      "properties": {
        "fid": 27.0,
        "handle": "12259",
        "block": "-1",
        "etype": "18",
        "space": "0",
        "layer": "land",
        "olinetype": "bylayer",
        "linetype": null,
        "color": "0,0,0,255",
        "ocolor": "7",
        "color24": "-1",
        "transparen": "0",
        "lweight": "0",
        "linewidth": 0.0,
        "ltscale": 1.0,
        "visible": "1",
        "width": 0.0,
        "thickness": 0.0,
        "ext": "(3:0,0,0.1)"
      },
      "geometry": {
        "type": "MultiLineString",
        "coordinates": [
          [
            [52.42644150060439, 29.829579955763485],
            [52.425993538952142, 29.828972941078781]
          ]
        ]
      }
    },
    {
      "type": "Feature",
      "properties": {
        "fid": 28.0,
        "handle": "12260",
        "block": "-1",
        "etype": "18",
        "space": "0",
        "layer": "land",
        "olinetype": "bylayer",
        "linetype": null,
        "color": "0,0,0,255",
        "ocolor": "7",
        "color24": "-1",
        "transparen": "0",
        "lweight": "0",
        "linewidth": 0.0,
        "ltscale": 1.0,
        "visible": "1",
        "width": 0.0,
        "thickness": 0.0,
        "ext": "(3:0,0,0.1)"
      },
      "geometry": {
        "type": "MultiLineString",
        "coordinates": [
          [
            [52.426659059591977, 29.829457898067613],
            [52.426211097232915, 29.828850884135523]
          ]
        ]
      }
    },
    {
      "type": "Feature",
      "properties": {
        "fid": 29.0,
        "handle": "12261",
        "block": "-1",
        "etype": "18",
        "space": "0",
        "layer": "land",
        "olinetype": "bylayer",
        "linetype": null,
        "color": "0,0,0,255",
        "ocolor": "7",
        "color24": "-1",
        "transparen": "0",
        "lweight": "0",
        "linewidth": 0.0,
        "ltscale": 1.0,
        "visible": "1",
        "width": 0.0,
        "thickness": 0.0,
        "ext": "(3:0,0,0.1)"
      },
      "geometry": {
        "type": "MultiLineString",
        "coordinates": [
          [
            [52.426876618041383, 29.829335840028559],
            [52.426428654975531, 29.828728826849112]
          ]
        ]
      }
    },
    {
      "type": "Feature",
      "properties": {
        "fid": 30.0,
        "handle": "12262",
        "block": "-1",
        "etype": "18",
        "space": "0",
        "layer": "land",
        "olinetype": "bylayer",
        "linetype": null,
        "color": "0,0,0,255",
        "ocolor": "7",
        "color24": "-1",
        "transparen": "0",
        "lweight": "0",
        "linewidth": 0.0,
        "ltscale": 1.0,
        "visible": "1",
        "width": 0.0,
        "thickness": 0.0,
        "ext": "(3:0,0,0.1)"
      },
      "geometry": {
        "type": "MultiLineString",
        "coordinates": [
          [
            [52.427094175952604, 29.829213781646338],
            [52.426646212179982, 29.828606769219494]
          ]
        ]
      }
    },
    {
      "type": "Feature",
      "properties": {
        "fid": 31.0,
        "handle": "12263",
        "block": "-1",
        "etype": "18",
        "space": "0",
        "layer": "land",
        "olinetype": "bylayer",
        "linetype": null,
        "color": "0,0,0,255",
        "ocolor": "7",
        "color24": "-1",
        "transparen": "0",
        "lweight": "0",
        "linewidth": 0.0,
        "ltscale": 1.0,
        "visible": "1",
        "width": 0.0,
        "thickness": 0.0,
        "ext": "(3:0,0,0.1)"
      },
      "geometry": {
        "type": "MultiLineString",
        "coordinates": [
          [
            [52.427311733325652, 29.829091722920936],
            [52.426863768846282, 29.82848471124673]
          ]
        ]
      }
    },
    {
      "type": "Feature",
      "properties": {
        "fid": 32.0,
        "handle": "12264",
        "block": "-1",
        "etype": "18",
        "space": "0",
        "layer": "land",
        "olinetype": "bylayer",
        "linetype": null,
        "color": "0,0,0,255",
        "ocolor": "7",
        "color24": "-1",
        "transparen": "0",
        "lweight": "0",
        "linewidth": 0.0,
        "ltscale": 1.0,
        "visible": "1",
        "width": 0.0,
        "thickness": 0.0,
        "ext": "(3:0,0,0.1)"
      },
      "geometry": {
        "type": "MultiLineString",
        "coordinates": [
          [
            [52.427529290160521, 29.82896966385238],
            [52.427081324974424, 29.828362652930792]
          ]
        ]
      }
    },
    {
      "type": "Feature",
      "properties": {
        "fid": 33.0,
        "handle": "12265",
        "block": "-1",
        "etype": "18",
        "space": "0",
        "layer": "land",
        "olinetype": "bylayer",
        "linetype": null,
        "color": "0,0,0,255",
        "ocolor": "7",
        "color24": "-1",
        "transparen": "0",
        "lweight": "0",
        "linewidth": 0.0,
        "ltscale": 1.0,
        "visible": "1",
        "width": 0.0,
        "thickness": 0.0,
        "ext": "(3:0,0,0.1)"
      },
      "geometry": {
        "type": "MultiLineString",
        "coordinates": [
          [
            [52.427746846457211, 29.828847604440668],
            [52.427298880564408, 29.828240594271691]
          ]
        ]
      }
    },
    {
      "type": "Feature",
      "properties": {
        "fid": 34.0,
        "handle": "12266",
        "block": "-1",
        "etype": "18",
        "space": "0",
        "layer": "land",
        "olinetype": "bylayer",
        "linetype": null,
        "color": "0,0,0,255",
        "ocolor": "7",
        "color24": "-1",
        "transparen": "0",
        "lweight": "0",
        "linewidth": 0.0,
        "ltscale": 1.0,
        "visible": "1",
        "width": 0.0,
        "thickness": 0.0,
        "ext": "(3:0,0,0.1)"
      },
      "geometry": {
        "type": "MultiLineString",
        "coordinates": [
          [
            [52.427964402215729, 29.828725544685781],
            [52.427516435616248, 29.82811853526945]
          ]
        ]
      }
    },
    {
      "type": "Feature",
      "properties": {
        "fid": 35.0,
        "handle": "12267",
        "block": "-1",
        "etype": "18",
        "space": "0",
        "layer": "land",
        "olinetype": "bylayer",
        "linetype": null,
        "color": "0,0,0,255",
        "ocolor": "7",
        "color24": "-1",
        "transparen": "0",
        "lweight": "0",
        "linewidth": 0.0,
        "ltscale": 1.0,
        "visible": "1",
        "width": 0.0,
        "thickness": 0.0,
        "ext": "(3:0,0,0.1)"
      },
      "geometry": {
        "type": "MultiLineString",
        "coordinates": [
          [
            [52.428181957436074, 29.828603484587767],
            [52.427733990129916, 29.827996475924067]
          ]
        ]
      }
    },
    {
      "type": "Feature",
      "properties": {
        "fid": 36.0,
        "handle": "12268",
        "block": "-1",
        "etype": "18",
        "space": "0",
        "layer": "land",
        "olinetype": "bylayer",
        "linetype": null,
        "color": "0,0,0,255",
        "ocolor": "7",
        "color24": "-1",
        "transparen": "0",
        "lweight": "0",
        "linewidth": 0.0,
        "ltscale": 1.0,
        "visible": "1",
        "width": 0.0,
        "thickness": 0.0,
        "ext": "(3:0,0,0.1)"
      },
      "geometry": {
        "type": "MultiLineString",
        "coordinates": [
          [
            [52.428399512118254, 29.828481424146609],
            [52.427951544105447, 29.827874416235531]
          ]
        ]
      }
    },
    {
      "type": "Feature",
      "properties": {
        "fid": 37.0,
        "handle": "12269",
        "block": "-1",
        "etype": "18",
        "space": "0",
        "layer": "land",
        "olinetype": "bylayer",
        "linetype": null,
        "color": "0,0,0,255",
        "ocolor": "7",
        "color24": "-1",
        "transparen": "0",
        "lweight": "0",
        "linewidth": 0.0,
        "ltscale": 1.0,
        "visible": "1",
        "width": 0.0,
        "thickness": 0.0,
        "ext": "(3:0,0,0.1)"
      },
      "geometry": {
        "type": "MultiLineString",
        "coordinates": [
          [
            [52.428617066262255, 29.828359363362317],
            [52.428169097542821, 29.827752356203856]
          ]
        ]
      }
    },
    {
      "type": "Feature",
      "properties": {
        "fid": 38.0,
        "handle": "12270",
        "block": "-1",
        "etype": "18",
        "space": "0",
        "layer": "land",
        "olinetype": "bylayer",
        "linetype": null,
        "color": "0,0,0,255",
        "ocolor": "7",
        "color24": "-1",
        "transparen": "0",
        "lweight": "0",
        "linewidth": 0.0,
        "ltscale": 1.0,
        "visible": "1",
        "width": 0.0,
        "thickness": 0.0,
        "ext": "(3:0,0,0.1)"
      },
      "geometry": {
        "type": "MultiLineString",
        "coordinates": [
          [
            [52.426220267589315, 29.830335621329191],
            [52.426023474238214, 29.830068956846031]
          ]
        ]
      }
    },
    {
      "type": "Feature",
      "properties": {
        "fid": 39.0,
        "handle": "12271",
        "block": "-1",
        "etype": "18",
        "space": "0",
        "layer": "land",
        "olinetype": "bylayer",
        "linetype": null,
        "color": "0,0,0,255",
        "ocolor": "7",
        "color24": "-1",
        "transparen": "0",
        "lweight": "0",
        "linewidth": 0.0,
        "ltscale": 1.0,
        "visible": "1",
        "width": 0.0,
        "thickness": 0.0,
        "ext": "(3:0,0,0.1)"
      },
      "geometry": {
        "type": "MultiLineString",
        "coordinates": [
          [
            [52.426434814063974, 29.830242828190752],
            [52.426223629972995, 29.829956664372563]
          ]
        ]
      }
    },
    {
      "type": "Feature",
      "properties": {
        "fid": 40.0,
        "handle": "12272",
        "block": "-1",
        "etype": "18",
        "space": "0",
        "layer": "land",
        "olinetype": "bylayer",
        "linetype": null,
        "color": "0,0,0,255",
        "ocolor": "7",
        "color24": "-1",
        "transparen": "0",
        "lweight": "0",
        "linewidth": 0.0,
        "ltscale": 1.0,
        "visible": "1",
        "width": 0.0,
        "thickness": 0.0,
        "ext": "(3:0,0,0.1)"
      },
      "geometry": {
        "type": "MultiLineString",
        "coordinates": [
          [
            [52.426630703967078, 29.830158103726738],
            [52.426406380463455, 29.829854136208326]
          ]
        ]
      }
    },
    {
      "type": "Feature",
      "properties": {
        "fid": 41.0,
        "handle": "12273",
        "block": "-1",
        "etype": "18",
        "space": "0",
        "layer": "land",
        "olinetype": "bylayer",
        "linetype": null,
        "color": "0,0,0,255",
        "ocolor": "7",
        "color24": "-1",
        "transparen": "0",
        "lweight": "0",
        "linewidth": 0.0,
        "ltscale": 1.0,
        "visible": "1",
        "width": 0.0,
        "thickness": 0.0,
        "ext": "(3:0,0,0.1)"
      },
      "geometry": {
        "type": "MultiLineString",
        "coordinates": [
          [
            [52.426911109157018, 29.830037831256295],
            [52.426667451933945, 29.829707666982216]
          ]
        ]
      }
    },
    {
      "type": "Feature",
      "properties": {
        "fid": 42.0,
        "handle": "12274",
        "block": "-1",
        "etype": "18",
        "space": "0",
        "layer": "land",
        "olinetype": "bylayer",
        "linetype": null,
        "color": "0,0,0,255",
        "ocolor": "7",
        "color24": "-1",
        "transparen": "0",
        "lweight": "0",
        "linewidth": 0.0,
        "ltscale": 1.0,
        "visible": "1",
        "width": 0.0,
        "thickness": 0.0,
        "ext": "(3:0,0,0.1)"
      },
      "geometry": {
        "type": "MultiLineString",
        "coordinates": [
          [
            [52.427146521811508, 29.829939964471723],
            [52.426885010900669, 29.829585608916286]
          ]
        ]
      }
    },
    {
      "type": "Feature",
      "properties": {
        "fid": 43.0,
        "handle": "12275",
        "block": "-1",
        "etype": "18",
        "space": "0",
        "layer": "land",
        "olinetype": "bylayer",
        "linetype": null,
        "color": "0,0,0,255",
        "ocolor": "7",
        "color24": "-1",
        "transparen": "0",
        "lweight": "0",
        "linewidth": 0.0,
        "ltscale": 1.0,
        "visible": "1",
        "width": 0.0,
        "thickness": 0.0,
        "ext": "(3:0,0,0.1)"
      },
      "geometry": {
        "type": "MultiLineString",
        "coordinates": [
          [
            [52.427334851594459, 29.829861670751782],
            [52.427059057686563, 29.829487962216447]
          ]
        ]
      }
    },
    {
      "type": "Feature",
      "properties": {
        "fid": 44.0,
        "handle": "12276",
        "block": "-1",
        "etype": "18",
        "space": "0",
        "layer": "land",
        "olinetype": "bylayer",
        "linetype": null,
        "color": "0,0,0,255",
        "ocolor": "7",
        "color24": "-1",
        "transparen": "0",
        "lweight": "0",
        "linewidth": 0.0,
        "ltscale": 1.0,
        "visible": "1",
        "width": 0.0,
        "thickness": 0.0,
        "ext": "(3:0,0,0.1)"
      },
      "geometry": {
        "type": "MultiLineString",
        "coordinates": [
          [
            [52.427523181074619, 29.829783376772028],
            [52.427233104128014, 29.829390315296987]
          ]
        ]
      }
    },
    {
      "type": "Feature",
      "properties": {
        "fid": 45.0,
        "handle": "12277",
        "block": "-1",
        "etype": "18",
        "space": "0",
        "layer": "land",
        "olinetype": "bylayer",
        "linetype": null,
        "color": "0,0,0,255",
        "ocolor": "7",
        "color24": "-1",
        "transparen": "0",
        "lweight": "0",
        "linewidth": 0.0,
        "ltscale": 1.0,
        "visible": "1",
        "width": 0.0,
        "thickness": 0.0,
        "ext": "(3:0,0,0.1)"
      },
      "geometry": {
        "type": "MultiLineString",
        "coordinates": [
          [
            [52.427711510251996, 29.829705082532467],
            [52.427407150225029, 29.829292668157887]
          ]
        ]
      }
    },
    {
      "type": "Feature",
      "properties": {
        "fid": 46.0,
        "handle": "12278",
        "block": "-1",
        "etype": "18",
        "space": "0",
        "layer": "land",
        "olinetype": "bylayer",
        "linetype": null,
        "color": "0,0,0,255",
        "ocolor": "7",
        "color24": "-1",
        "transparen": "0",
        "lweight": "0",
        "linewidth": 0.0,
        "ltscale": 1.0,
        "visible": "1",
        "width": 0.0,
        "thickness": 0.0,
        "ext": "(3:0,0,0.1)"
      },
      "geometry": {
        "type": "MultiLineString",
        "coordinates": [
          [
            [52.427909255562348, 29.829622873301325],
            [52.427589898256201, 29.829190138425467]
          ]
        ]
      }
    },
    {
      "type": "Feature",
      "properties": {
        "fid": 47.0,
        "handle": "12279",
        "block": "-1",
        "etype": "18",
        "space": "0",
        "layer": "land",
        "olinetype": "bylayer",
        "linetype": null,
        "color": "0,0,0,255",
        "ocolor": "7",
        "color24": "-1",
        "transparen": "0",
        "lweight": "0",
        "linewidth": 0.0,
        "ltscale": 1.0,
        "visible": "1",
        "width": 0.0,
        "thickness": 0.0,
        "ext": "(3:0,0,0.1)"
      },
      "geometry": {
        "type": "MultiLineString",
        "coordinates": [
          [
            [52.428107000538887, 29.829540663783732],
            [52.427772645907616, 29.829087608450905]
          ]
        ]
      }
    },
    {
      "type": "Feature",
      "properties": {
        "fid": 48.0,
        "handle": "12280",
        "block": "-1",
        "etype": "18",
        "space": "0",
        "layer": "land",
        "olinetype": "bylayer",
        "linetype": null,
        "color": "0,0,0,255",
        "ocolor": "7",
        "color24": "-1",
        "transparen": "0",
        "lweight": "0",
        "linewidth": 0.0,
        "ltscale": 1.0,
        "visible": "1",
        "width": 0.0,
        "thickness": 0.0,
        "ext": "(3:0,0,0.1)"
      },
      "geometry": {
        "type": "MultiLineString",
        "coordinates": [
          [
            [52.428303238843739, 29.829456412887669],
            [52.427955393179296, 29.828985078234219]
          ]
        ]
      }
    },
    {
      "type": "Feature",
      "properties": {
        "fid": 49.0,
        "handle": "12281",
        "block": "-1",
        "etype": "18",
        "space": "0",
        "layer": "land",
        "olinetype": "bylayer",
        "linetype": null,
        "color": "0,0,0,255",
        "ocolor": "7",
        "color24": "-1",
        "transparen": "0",
        "lweight": "0",
        "linewidth": 0.0,
        "ltscale": 1.0,
        "visible": "1",
        "width": 0.0,
        "thickness": 0.0,
        "ext": "(3:0,0,0.1)"
      },
      "geometry": {
        "type": "MultiLineString",
        "coordinates": [
          [
            [52.42849803224626, 29.829353530358564],
            [52.428146842294716, 29.828877665366576]
          ]
        ]
      }
    },
    {
      "type": "Feature",
      "properties": {
        "fid": 50.0,
        "handle": "12282",
        "block": "-1",
        "etype": "18",
        "space": "0",
        "layer": "land",
        "olinetype": "bylayer",
        "linetype": null,
        "color": "0,0,0,255",
        "ocolor": "7",
        "color24": "-1",
        "transparen": "0",
        "lweight": "0",
        "linewidth": 0.0,
        "ltscale": 1.0,
        "visible": "1",
        "width": 0.0,
        "thickness": 0.0,
        "ext": "(3:0,0,0.1)"
      },
      "geometry": {
        "type": "MultiLineString",
        "coordinates": [
          [
            [52.42869282524159, 29.829250647553714],
            [52.428338290993374, 29.828770252233195]
          ]
        ]
      }
    },
    {
      "type": "Feature",
      "properties": {
        "fid": 51.0,
        "handle": "12283",
        "block": "-1",
        "etype": "18",
        "space": "0",
        "layer": "land",
        "olinetype": "bylayer",
        "linetype": null,
        "color": "0,0,0,255",
        "ocolor": "7",
        "color24": "-1",
        "transparen": "0",
        "lweight": "0",
        "linewidth": 0.0,
        "ltscale": 1.0,
        "visible": "1",
        "width": 0.0,
        "thickness": 0.0,
        "ext": "(3:0,0,0.1)"
      },
      "geometry": {
        "type": "MultiLineString",
        "coordinates": [
          [
            [52.428896472028612, 29.829143087962958],
            [52.428538441459992, 29.828657956400512]
          ]
        ]
      }
    },
    {
      "type": "Feature",
      "properties": {
        "fid": 52.0,
        "handle": "12284",
        "block": "-1",
        "etype": "18",
        "space": "0",
        "layer": "land",
        "olinetype": "bylayer",
        "linetype": null,
        "color": "0,0,0,255",
        "ocolor": "7",
        "color24": "-1",
        "transparen": "0",
        "lweight": "0",
        "linewidth": 0.0,
        "ltscale": 1.0,
        "visible": "1",
        "width": 0.0,
        "thickness": 0.0,
        "ext": "(3:0,0,0.1)"
      },
      "geometry": {
        "type": "MultiLineString",
        "coordinates": [
          [
            [52.429100118370592, 29.82903552807085],
            [52.428738591471095, 29.82854566027742]
          ]
        ]
      }
    },
    {
      "type": "Feature",
      "properties": {
        "fid": 53.0,
        "handle": "12285",
        "block": "-1",
        "etype": "18",
        "space": "0",
        "layer": "land",
        "olinetype": "bylayer",
        "linetype": null,
        "color": "0,0,0,255",
        "ocolor": "7",
        "color24": "-1",
        "transparen": "0",
        "lweight": "0",
        "linewidth": 0.0,
        "ltscale": 1.0,
        "visible": "1",
        "width": 0.0,
        "thickness": 0.0,
        "ext": "(3:0,0,0.1)"
      },
      "geometry": {
        "type": "MultiLineString",
        "coordinates": [
          [
            [52.429303764267523, 29.828927967877384],
            [52.428938741026684, 29.828433363863898]
          ]
        ]
      }
    },
    {
      "type": "Feature",
      "properties": {
        "fid": 54.0,
        "handle": "12286",
        "block": "-1",
        "etype": "18",
        "space": "0",
        "layer": "land",
        "olinetype": "bylayer",
        "linetype": null,
        "color": "0,0,0,255",
        "ocolor": "7",
        "color24": "-1",
        "transparen": "0",
        "lweight": "0",
        "linewidth": 0.0,
        "ltscale": 1.0,
        "visible": "1",
        "width": 0.0,
        "thickness": 0.0,
        "ext": "(3:0,0,0.1)"
      },
      "geometry": {
        "type": "MultiLineString",
        "coordinates": [
          [
            [52.429052172935748, 29.828115240764316],
            [52.428604202803129, 29.827508235111139]
          ]
        ]
      }
    },
    {
      "type": "Feature",
      "properties": {
        "fid": 55.0,
        "handle": "12287",
        "block": "-1",
        "etype": "18",
        "space": "0",
        "layer": "land",
        "olinetype": "bylayer",
        "linetype": null,
        "color": "0,0,0,255",
        "ocolor": "7",
        "color24": "-1",
        "transparen": "0",
        "lweight": "0",
        "linewidth": 0.0,
        "ltscale": 1.0,
        "visible": "1",
        "width": 0.0,
        "thickness": 0.0,
        "ext": "(3:0,0,0.1)"
      },
      "geometry": {
        "type": "MultiLineString",
        "coordinates": [
          [
            [52.425917525055901, 29.829444753784976],
            [52.42908119184937, 29.827669785419953]
          ]
        ]
      }
    },
    {
      "type": "Feature",
      "properties": {
        "fid": 56.0,
        "handle": "12288",
        "block": "-1",
        "etype": "18",
        "space": "0",
        "layer": "land",
        "olinetype": "bylayer",
        "linetype": null,
        "color": "0,0,0,255",
        "ocolor": "7",
        "color24": "-1",
        "transparen": "0",
        "lweight": "0",
        "linewidth": 0.0,
        "ltscale": 1.0,
        "visible": "1",
        "width": 0.0,
        "thickness": 0.0,
        "ext": "(3:0,0,0.1)"
      },
      "geometry": {
        "type": "MultiLineString",
        "coordinates": [
          [
            [52.426612199459591, 29.828497101181174],
            [52.426320134024749, 29.82808321210824]
          ]
        ]
      }
    },
    {
      "type": "Feature",
      "properties": {
        "fid": 57.0,
        "handle": "12289",
        "block": "-1",
        "etype": "18",
        "space": "0",
        "layer": "land",
        "olinetype": "bylayer",
        "linetype": null,
        "color": "0,0,0,255",
        "ocolor": "7",
        "color24": "-1",
        "transparen": "0",
        "lweight": "0",
        "linewidth": 0.0,
        "ltscale": 1.0,
        "visible": "1",
        "width": 0.0,
        "thickness": 0.0,
        "ext": "(3:0,0,0.1)"
      },
      "geometry": {
        "type": "MultiLineString",
        "coordinates": [
          [
            [52.426786280124738, 29.82839943499582],
            [52.426500032401627, 29.827993791246371]
          ]
        ]
      }
    },
    {
      "type": "Feature",
      "properties": {
        "fid": 58.0,
        "handle": "12290",
        "block": "-1",
        "etype": "18",
        "space": "0",
        "layer": "land",
        "olinetype": "bylayer",
        "linetype": null,
        "color": "0,0,0,255",
        "ocolor": "7",
        "color24": "-1",
        "transparen": "0",
        "lweight": "0",
        "linewidth": 0.0,
        "ltscale": 1.0,
        "visible": "1",
        "width": 0.0,
        "thickness": 0.0,
        "ext": "(3:0,0,0.1)"
      },
      "geometry": {
        "type": "MultiLineString",
        "coordinates": [
          [
            [52.426960360445321, 29.828301768590755],
            [52.426676597511054, 29.827899647003363]
          ]
        ]
      }
    },
    {
      "type": "Feature",
      "properties": {
        "fid": 59.0,
        "handle": "12291",
        "block": "-1",
        "etype": "18",
        "space": "0",
        "layer": "land",
        "olinetype": "bylayer",
        "linetype": null,
        "color": "0,0,0,255",
        "ocolor": "7",
        "color24": "-1",
        "transparen": "0",
        "lweight": "0",
        "linewidth": 0.0,
        "ltscale": 1.0,
        "visible": "1",
        "width": 0.0,
        "thickness": 0.0,
        "ext": "(3:0,0,0.1)"
      },
      "geometry": {
        "type": "MultiLineString",
        "coordinates": [
          [
            [52.428648921674259, 29.827354393060133],
            [52.428348633954734, 29.826928863577464]
          ]
        ]
      }
    },
    {
      "type": "Feature",
      "properties": {
        "fid": 60.0,
        "handle": "12292",
        "block": "-1",
        "etype": "18",
        "space": "0",
        "layer": "land",
        "olinetype": "bylayer",
        "linetype": null,
        "color": "0,0,0,255",
        "ocolor": "7",
        "color24": "-1",
        "transparen": "0",
        "lweight": "0",
        "linewidth": 0.0,
        "ltscale": 1.0,
        "visible": "1",
        "width": 0.0,
        "thickness": 0.0,
        "ext": "(3:0,0,0.1)"
      },
      "geometry": {
        "type": "MultiLineString",
        "coordinates": [
          [
            [52.428474844695863, 29.827452061596279],
            [52.428180736508779, 29.827035288038502]
          ]
        ]
      }
    },
    {
      "type": "Feature",
      "properties": {
        "fid": 61.0,
        "handle": "12293",
        "block": "-1",
        "etype": "18",
        "space": "0",
        "layer": "land",
        "olinetype": "bylayer",
        "linetype": null,
        "color": "0,0,0,255",
        "ocolor": "7",
        "color24": "-1",
        "transparen": "0",
        "lweight": "0",
        "linewidth": 0.0,
        "ltscale": 1.0,
        "visible": "1",
        "width": 0.0,
        "thickness": 0.0,
        "ext": "(3:0,0,0.1)"
      },
      "geometry": {
        "type": "MultiLineString",
        "coordinates": [
          [
            [52.428300767372903, 29.827549729912739],
            [52.428012838702472, 29.827141712296132]
          ]
        ]
      }
    },
    {
      "type": "Feature",
      "properties": {
        "fid": 62.0,
        "handle": "12294",
        "block": "-1",
        "etype": "18",
        "space": "0",
        "layer": "land",
        "olinetype": "bylayer",
        "linetype": null,
        "color": "0,0,0,255",
        "ocolor": "7",
        "color24": "-1",
        "transparen": "0",
        "lweight": "0",
        "linewidth": 0.0,
        "ltscale": 1.0,
        "visible": "1",
        "width": 0.0,
        "thickness": 0.0,
        "ext": "(3:0,0,0.1)"
      },
      "geometry": {
        "type": "MultiLineString",
        "coordinates": [
          [
            [52.428126689705401, 29.827647398009514],
            [52.427844940535827, 29.827248136350402]
          ]
        ]
      }
    },
    {
      "type": "Feature",
      "properties": {
        "fid": 63.0,
        "handle": "12295",
        "block": "-1",
        "etype": "18",
        "space": "0",
        "layer": "land",
        "olinetype": "bylayer",
        "linetype": null,
        "color": "0,0,0,255",
        "ocolor": "7",
        "color24": "-1",
        "transparen": "0",
        "lweight": "0",
        "linewidth": 0.0,
        "ltscale": 1.0,
        "visible": "1",
        "width": 0.0,
        "thickness": 0.0,
        "ext": "(3:0,0,0.1)"
      },
      "geometry": {
        "type": "MultiLineString",
        "coordinates": [
          [
            [52.42795261169335, 29.827745065886582],
            [52.427676958054626, 29.827354441230462]
          ]
        ]
      }
    },
    {
      "type": "Feature",
      "properties": {
        "fid": 64.0,
        "handle": "12296",
        "block": "-1",
        "etype": "18",
        "space": "0",
        "layer": "land",
        "olinetype": "bylayer",
        "linetype": null,
        "color": "0,0,0,255",
        "ocolor": "7",
        "color24": "-1",
        "transparen": "0",
        "lweight": "0",
        "linewidth": 0.0,
        "ltscale": 1.0,
        "visible": "1",
        "width": 0.0,
        "thickness": 0.0,
        "ext": "(3:0,0,0.1)"
      },
      "geometry": {
        "type": "MultiLineString",
        "coordinates": [
          [
            [52.427778533336735, 29.827842733543964],
            [52.427505599953179, 29.827455962842794]
          ]
        ]
      }
    },
    {
      "type": "Feature",
      "properties": {
        "fid": 65.0,
        "handle": "12297",
        "block": "-1",
        "etype": "18",
        "space": "0",
        "layer": "land",
        "olinetype": "bylayer",
        "linetype": null,
        "color": "0,0,0,255",
        "ocolor": "7",
        "color24": "-1",
        "transparen": "0",
        "lweight": "0",
        "linewidth": 0.0,
        "ltscale": 1.0,
        "visible": "1",
        "width": 0.0,
        "thickness": 0.0,
        "ext": "(3:0,0,0.1)"
      },
      "geometry": {
        "type": "MultiLineString",
        "coordinates": [
          [
            [52.427604454635556, 29.827940400981642],
            [52.427329332846554, 29.827550528198191]
          ]
        ]
      }
    },
    {
      "type": "Feature",
      "properties": {
        "fid": 66.0,
        "handle": "12298",
        "block": "-1",
        "etype": "18",
        "space": "0",
        "layer": "land",
        "olinetype": "bylayer",
        "linetype": null,
        "color": "0,0,0,255",
        "ocolor": "7",
        "color24": "-1",
        "transparen": "0",
        "lweight": "0",
        "linewidth": 0.0,
        "ltscale": 1.0,
        "visible": "1",
        "width": 0.0,
        "thickness": 0.0,
        "ext": "(3:0,0,0.1)"
      },
      "geometry": {
        "type": "MultiLineString",
        "coordinates": [
          [
            [52.427430375589836, 29.828038068199628],
            [52.427153065401512, 29.827645093327941]
          ]
        ]
      }
    },
    {
      "type": "Feature",
      "properties": {
        "fid": 67.0,
        "handle": "12299",
        "block": "-1",
        "etype": "18",
        "space": "0",
        "layer": "land",
        "olinetype": "bylayer",
        "linetype": null,
        "color": "0,0,0,255",
        "ocolor": "7",
        "color24": "-1",
        "transparen": "0",
        "lweight": "0",
        "linewidth": 0.0,
        "ltscale": 1.0,
        "visible": "1",
        "width": 0.0,
        "thickness": 0.0,
        "ext": "(3:0,0,0.1)"
      },
      "geometry": {
        "type": "MultiLineString",
        "coordinates": [
          [
            [52.427823588744069, 29.82562210126995],
            [52.428065066130564, 29.826021088777647]
          ]
        ]
      }
    },
    {
      "type": "Feature",
      "properties": {
        "fid": 68.0,
        "handle": "12300",
        "block": "-1",
        "etype": "18",
        "space": "0",
        "layer": "land",
        "olinetype": "bylayer",
        "linetype": null,
        "color": "0,0,0,255",
        "ocolor": "7",
        "color24": "-1",
        "transparen": "0",
        "lweight": "0",
        "linewidth": 0.0,
        "ltscale": 1.0,
        "visible": "1",
        "width": 0.0,
        "thickness": 0.0,
        "ext": "(3:0,0,0.1)"
      },
      "geometry": {
        "type": "MultiLineString",
        "coordinates": [
          [
            [52.427504841608766, 29.825095436950825],
            [52.427765634464308, 29.825526344189484]
          ]
        ]
      }
    },
    {
      "type": "Feature",
      "properties": {
        "fid": 69.0,
        "handle": "12301",
        "block": "-1",
        "etype": "18",
        "space": "0",
        "layer": "land",
        "olinetype": "bylayer",
        "linetype": null,
        "color": "0,0,0,255",
        "ocolor": "7",
        "color24": "-1",
        "transparen": "0",
        "lweight": "0",
        "linewidth": 0.0,
        "ltscale": 1.0,
        "visible": "1",
        "width": 0.0,
        "thickness": 0.0,
        "ext": "(3:0,0,0.1)"
      },
      "geometry": {
        "type": "MultiLineString",
        "coordinates": [
          [
            [52.427640554836792, 29.825706322670055],
            [52.427882031727549, 29.826105310524827],
            [52.428117914373615, 29.826495051460075]
          ]
        ]
      }
    },
    {
      "type": "Feature",
      "properties": {
        "fid": 70.0,
        "handle": "12302",
        "block": "-1",
        "etype": "18",
        "space": "0",
        "layer": "land",
        "olinetype": "bylayer",
        "linetype": null,
        "color": "0,0,0,255",
        "ocolor": "7",
        "color24": "-1",
        "transparen": "0",
        "lweight": "0",
        "linewidth": 0.0,
        "ltscale": 1.0,
        "visible": "1",
        "width": 0.0,
        "thickness": 0.0,
        "ext": "(3:0,0,0.1)"
      },
      "geometry": {
        "type": "MultiLineString",
        "coordinates": [
          [
            [52.427321808355842, 29.825179657892747],
            [52.42758260067599, 29.825610565506285]
          ]
        ]
      }
    },
    {
      "type": "Feature",
      "properties": {
        "fid": 71.0,
        "handle": "12303",
        "block": "-1",
        "etype": "18",
        "space": "0",
        "layer": "land",
        "olinetype": "bylayer",
        "linetype": null,
        "color": "0,0,0,255",
        "ocolor": "7",
        "color24": "-1",
        "transparen": "0",
        "lweight": "0",
        "linewidth": 0.0,
        "ltscale": 1.0,
        "visible": "1",
        "width": 0.0,
        "thickness": 0.0,
        "ext": "(3:0,0,0.1)"
      },
      "geometry": {
        "type": "MultiLineString",
        "coordinates": [
          [
            [52.427457520614482, 29.825790543825562],
            [52.427698997009493, 29.826189532027453],
            [52.427948788232619, 29.826602254728858]
          ]
        ]
      }
    },
    {
      "type": "Feature",
      "properties": {
        "fid": 72.0,
        "handle": "12304",
        "block": "-1",
        "etype": "18",
        "space": "0",
        "layer": "land",
        "olinetype": "bylayer",
        "linetype": null,
        "color": "0,0,0,255",
        "ocolor": "7",
        "color24": "-1",
        "transparen": "0",
        "lweight": "0",
        "linewidth": 0.0,
        "ltscale": 1.0,
        "visible": "1",
        "width": 0.0,
        "thickness": 0.0,
        "ext": "(3:0,0,0.1)"
      },
      "geometry": {
        "type": "MultiLineString",
        "coordinates": [
          [
            [52.427138774787906, 29.825263878590107],
            [52.42739956657266, 29.825694786578481]
          ]
        ]
      }
    },
    {
      "type": "Feature",
      "properties": {
        "fid": 73.0,
        "handle": "12305",
        "block": "-1",
        "etype": "18",
        "space": "0",
        "layer": "land",
        "olinetype": "bylayer",
        "linetype": null,
        "color": "0,0,0,255",
        "ocolor": "7",
        "color24": "-1",
        "transparen": "0",
        "lweight": "0",
        "linewidth": 0.0,
        "ltscale": 1.0,
        "visible": "1",
        "width": 0.0,
        "thickness": 0.0,
        "ext": "(3:0,0,0.1)"
      },
      "geometry": {
        "type": "MultiLineString",
        "coordinates": [
          [
            [52.427274486077138, 29.825874764736472],
            [52.427515961976404, 29.826273753285463],
            [52.427779661725999, 29.826709457791253]
          ]
        ]
      }
    },
    {
      "type": "Feature",
      "properties": {
        "fid": 74.0,
        "handle": "12306",
        "block": "-1",
        "etype": "18",
        "space": "0",
        "layer": "land",
        "olinetype": "bylayer",
        "linetype": null,
        "color": "0,0,0,255",
        "ocolor": "7",
        "color24": "-1",
        "transparen": "0",
        "lweight": "0",
        "linewidth": 0.0,
        "ltscale": 1.0,
        "visible": "1",
        "width": 0.0,
        "thickness": 0.0,
        "ext": "(3:0,0,0.1)"
      },
      "geometry": {
        "type": "MultiLineString",
        "coordinates": [
          [
            [52.426955740904944, 29.825348099042877],
            [52.42721653215429, 29.825779007406108]
          ]
        ]
      }
    },
    {
      "type": "Feature",
      "properties": {
        "fid": 75.0,
        "handle": "12307",
        "block": "-1",
        "etype": "18",
        "space": "0",
        "layer": "land",
        "olinetype": "bylayer",
        "linetype": null,
        "color": "0,0,0,255",
        "ocolor": "7",
        "color24": "-1",
        "transparen": "0",
        "lweight": "0",
        "linewidth": 0.0,
        "ltscale": 1.0,
        "visible": "1",
        "width": 0.0,
        "thickness": 0.0,
        "ext": "(3:0,0,0.1)"
      },
      "geometry": {
        "type": "MultiLineString",
        "coordinates": [
          [
            [52.427091451224761, 29.825958985402803],
            [52.427332926628267, 29.826357974298876],
            [52.427610534853756, 29.826816660647314]
          ]
        ]
      }
    },
    {
      "type": "Feature",
      "properties": {
        "fid": 76.0,
        "handle": "12308",
        "block": "-1",
        "etype": "18",
        "space": "0",
        "layer": "land",
        "olinetype": "bylayer",
        "linetype": null,
        "color": "0,0,0,255",
        "ocolor": "7",
        "color24": "-1",
        "transparen": "0",
        "lweight": "0",
        "linewidth": 0.0,
        "ltscale": 1.0,
        "visible": "1",
        "width": 0.0,
        "thickness": 0.0,
        "ext": "(3:0,0,0.1)"
      },
      "geometry": {
        "type": "MultiLineString",
        "coordinates": [
          [
            [52.426772706706956, 29.825432319251018],
            [52.427033497420894, 29.825863227989124]
          ]
        ]
      }
    },
    {
      "type": "Feature",
      "properties": {
        "fid": 77.0,
        "handle": "12309",
        "block": "-1",
        "etype": "18",
        "space": "0",
        "layer": "land",
        "olinetype": "bylayer",
        "linetype": null,
        "color": "0,0,0,255",
        "ocolor": "7",
        "color24": "-1",
        "transparen": "0",
        "lweight": "0",
        "linewidth": 0.0,
        "ltscale": 1.0,
        "visible": "1",
        "width": 0.0,
        "thickness": 0.0,
        "ext": "(3:0,0,0.1)"
      },
      "geometry": {
        "type": "MultiLineString",
        "coordinates": [
          [
            [52.426908416057351, 29.826043205824526],
            [52.427149890965097, 29.826442195067699],
            [52.427441407615866, 29.826923863296983]
          ]
        ]
      }
    },
    {
      "type": "Feature",
      "properties": {
        "fid": 78.0,
        "handle": "12310",
        "block": "-1",
        "etype": "18",
        "space": "0",
        "layer": "land",
        "olinetype": "bylayer",
        "linetype": null,
        "color": "0,0,0,255",
        "ocolor": "7",
        "color24": "-1",
        "transparen": "0",
        "lweight": "0",
        "linewidth": 0.0,
        "ltscale": 1.0,
        "visible": "1",
        "width": 0.0,
        "thickness": 0.0,
        "ext": "(3:0,0,0.1)"
      },
      "geometry": {
        "type": "MultiLineString",
        "coordinates": [
          [
            [52.426589672193948, 29.8255165392146],
            [52.426850462372464, 29.82594744832754]
          ]
        ]
      }
    },
    {
      "type": "Feature",
      "properties": {
        "fid": 79.0,
        "handle": "12311",
        "block": "-1",
        "etype": "18",
        "space": "0",
        "layer": "land",
        "olinetype": "bylayer",
        "linetype": null,
        "color": "0,0,0,255",
        "ocolor": "7",
        "color24": "-1",
        "transparen": "0",
        "lweight": "0",
        "linewidth": 0.0,
        "ltscale": 1.0,
        "visible": "1",
        "width": 0.0,
        "thickness": 0.0,
        "ext": "(3:0,0,0.1)"
      },
      "geometry": {
        "type": "MultiLineString",
        "coordinates": [
          [
            [52.426077173881623, 29.825752353811293],
            [52.426579435607934, 29.82658225431566]
          ]
        ]
      }
    },
    {
      "type": "Feature",
      "properties": {
        "fid": 80.0,
        "handle": "12312",
        "block": "-1",
        "etype": "18",
        "space": "0",
        "layer": "land",
        "olinetype": "bylayer",
        "linetype": null,
        "color": "0,0,0,255",
        "ocolor": "7",
        "color24": "-1",
        "transparen": "0",
        "lweight": "0",
        "linewidth": 0.0,
        "ltscale": 1.0,
        "visible": "1",
        "width": 0.0,
        "thickness": 0.0,
        "ext": "(3:0,0,0.1)"
      },
      "geometry": {
        "type": "MultiLineString",
        "coordinates": [
          [
            [52.425894138171543, 29.825836572845372],
            [52.426396398866601, 29.826666474071668]
          ]
        ]
      }
    },
    {
      "type": "Feature",
      "properties": {
        "fid": 81.0,
        "handle": "12313",
        "block": "-1",
        "etype": "18",
        "space": "0",
        "layer": "land",
        "olinetype": "bylayer",
        "linetype": null,
        "color": "0,0,0,255",
        "ocolor": "7",
        "color24": "-1",
        "transparen": "0",
        "lweight": "0",
        "linewidth": 0.0,
        "ltscale": 1.0,
        "visible": "1",
        "width": 0.0,
        "thickness": 0.0,
        "ext": "(3:0,0,0.1)"
      },
      "geometry": {
        "type": "MultiLineString",
        "coordinates": [
          [
            [52.425711102146444, 29.825920791634832],
            [52.426213361810227, 29.826750693583065]
          ]
        ]
      }
    },
    {
      "type": "Feature",
      "properties": {
        "fid": 82.0,
        "handle": "12314",
        "block": "-1",
        "etype": "18",
        "space": "0",
        "layer": "land",
        "olinetype": "bylayer",
        "linetype": null,
        "color": "0,0,0,255",
        "ocolor": "7",
        "color24": "-1",
        "transparen": "0",
        "lweight": "0",
        "linewidth": 0.0,
        "ltscale": 1.0,
        "visible": "1",
        "width": 0.0,
        "thickness": 0.0,
        "ext": "(3:0,0,0.1)"
      },
      "geometry": {
        "type": "MultiLineString",
        "coordinates": [
          [
            [52.426934968916463, 29.824153822692228],
            [52.427427570092604, 29.824967760613603]
          ]
        ]
      }
    },
    {
      "type": "Feature",
      "properties": {
        "fid": 83.0,
        "handle": "12315",
        "block": "-1",
        "etype": "18",
        "space": "0",
        "layer": "land",
        "olinetype": "bylayer",
        "linetype": null,
        "color": "0,0,0,255",
        "ocolor": "7",
        "color24": "-1",
        "transparen": "0",
        "lweight": "0",
        "linewidth": 0.0,
        "ltscale": 1.0,
        "visible": "1",
        "width": 0.0,
        "thickness": 0.0,
        "ext": "(3:0,0,0.1)"
      },
      "geometry": {
        "type": "MultiLineString",
        "coordinates": [
          [
            [52.426751936833455, 29.824238042815072],
            [52.427244536998309, 29.825051981444471]
          ]
        ]
      }
    },
    {
      "type": "Feature",
      "properties": {
        "fid": 84.0,
        "handle": "12316",
        "block": "-1",
        "etype": "18",
        "space": "0",
        "layer": "land",
        "olinetype": "bylayer",
        "linetype": null,
        "color": "0,0,0,255",
        "ocolor": "7",
        "color24": "-1",
        "transparen": "0",
        "lweight": "0",
        "linewidth": 0.0,
        "ltscale": 1.0,
        "visible": "1",
        "width": 0.0,
        "thickness": 0.0,
        "ext": "(3:0,0,0.1)"
      },
      "geometry": {
        "type": "MultiLineString",
        "coordinates": [
          [
            [52.426568904435442, 29.824322262693325],
            [52.427061503589009, 29.825136202030748]
          ]
        ]
      }
    },
    {
      "type": "Feature",
      "properties": {
        "fid": 85.0,
        "handle": "12317",
        "block": "-1",
        "etype": "18",
        "space": "0",
        "layer": "land",
        "olinetype": "bylayer",
        "linetype": null,
        "color": "0,0,0,255",
        "ocolor": "7",
        "color24": "-1",
        "transparen": "0",
        "lweight": "0",
        "linewidth": 0.0,
        "ltscale": 1.0,
        "visible": "1",
        "width": 0.0,
        "thickness": 0.0,
        "ext": "(3:0,0,0.1)"
      },
      "geometry": {
        "type": "MultiLineString",
        "coordinates": [
          [
            [52.426074715387365, 29.824549655142885],
            [52.426567311810359, 29.825363596391977]
          ]
        ]
      }
    },
    {
      "type": "Feature",
      "properties": {
        "fid": 86.0,
        "handle": "12318",
        "block": "-1",
        "etype": "18",
        "space": "0",
        "layer": "land",
        "olinetype": "bylayer",
        "linetype": null,
        "color": "0,0,0,255",
        "ocolor": "7",
        "color24": "-1",
        "transparen": "0",
        "lweight": "0",
        "linewidth": 0.0,
        "ltscale": 1.0,
        "visible": "1",
        "width": 0.0,
        "thickness": 0.0,
        "ext": "(3:0,0,0.1)"
      },
      "geometry": {
        "type": "MultiLineString",
        "coordinates": [
          [
            [52.425891681823856, 29.824633874116138],
            [52.426384277235485, 29.825447816073254]
          ]
        ]
      }
    },
    {
      "type": "Feature",
      "properties": {
        "fid": 87.0,
        "handle": "12319",
        "block": "-1",
        "etype": "18",
        "space": "0",
        "layer": "land",
        "olinetype": "bylayer",
        "linetype": null,
        "color": "0,0,0,255",
        "ocolor": "7",
        "color24": "-1",
        "transparen": "0",
        "lweight": "0",
        "linewidth": 0.0,
        "ltscale": 1.0,
        "visible": "1",
        "width": 0.0,
        "thickness": 0.0,
        "ext": "(3:0,0,0.1)"
      },
      "geometry": {
        "type": "MultiLineString",
        "coordinates": [
          [
            [52.425708647945335, 29.824718092844826],
            [52.426201242345591, 29.825532035509934]
          ]
        ]
      }
    },
    {
      "type": "Feature",
      "properties": {
        "fid": 88.0,
        "handle": "12320",
        "block": "-1",
        "etype": "18",
        "space": "0",
        "layer": "land",
        "olinetype": "bylayer",
        "linetype": null,
        "color": "0,0,0,255",
        "ocolor": "7",
        "color24": "-1",
        "transparen": "0",
        "lweight": "0",
        "linewidth": 0.0,
        "ltscale": 1.0,
        "visible": "1",
        "width": 0.0,
        "thickness": 0.0,
        "ext": "(3:0,0,0.1)"
      },
      "geometry": {
        "type": "MultiLineString",
        "coordinates": [
          [
            [52.425525613751816, 29.824802311328888],
            [52.426018207140679, 29.825616254702009]
          ]
        ]
      }
    },
    {
      "type": "Feature",
      "properties": {
        "fid": 89.0,
        "handle": "12321",
        "block": "-1",
        "etype": "18",
        "space": "0",
        "layer": "land",
        "olinetype": "bylayer",
        "linetype": null,
        "color": "0,0,0,255",
        "ocolor": "7",
        "color24": "-1",
        "transparen": "0",
        "lweight": "0",
        "linewidth": 0.0,
        "ltscale": 1.0,
        "visible": "1",
        "width": 0.0,
        "thickness": 0.0,
        "ext": "(3:0,0,0.1)"
      },
      "geometry": {
        "type": "MultiLineString",
        "coordinates": [
          [
            [52.424888130780971, 29.824135599331566],
            [52.425284627737547, 29.824790771296652]
          ]
        ]
      }
    },
    {
      "type": "Feature",
      "properties": {
        "fid": 90.0,
        "handle": "12322",
        "block": "-1",
        "etype": "18",
        "space": "0",
        "layer": "land",
        "olinetype": "bylayer",
        "linetype": null,
        "color": "0,0,0,255",
        "ocolor": "7",
        "color24": "-1",
        "transparen": "0",
        "lweight": "0",
        "linewidth": 0.0,
        "ltscale": 1.0,
        "visible": "1",
        "width": 0.0,
        "thickness": 0.0,
        "ext": "(3:0,0,0.1)"
      },
      "geometry": {
        "type": "MultiLineString",
        "coordinates": [
          [
            [52.42632317198553, 29.823993555362826],
            [52.426474345638901, 29.824243348909349]
          ]
        ]
      }
    },
    {
      "type": "Feature",
      "properties": {
        "fid": 91.0,
        "handle": "12323",
        "block": "-1",
        "etype": "18",
        "space": "0",
        "layer": "land",
        "olinetype": "bylayer",
        "linetype": null,
        "color": "0,0,0,255",
        "ocolor": "7",
        "color24": "-1",
        "transparen": "0",
        "lweight": "0",
        "linewidth": 0.0,
        "ltscale": 1.0,
        "visible": "1",
        "width": 0.0,
        "thickness": 0.0,
        "ext": "(3:0,0,0.1)"
      },
      "geometry": {
        "type": "MultiLineString",
        "coordinates": [
          [
            [52.425980732254203, 29.824007702584847],
            [52.426199796535215, 29.824369678069814]
          ]
        ]
      }
    },
    {
      "type": "Feature",
      "properties": {
        "fid": 92.0,
        "handle": "12324",
        "block": "-1",
        "etype": "18",
        "space": "0",
        "layer": "land",
        "olinetype": "bylayer",
        "linetype": null,
        "color": "0,0,0,255",
        "ocolor": "7",
        "color24": "-1",
        "transparen": "0",
        "lweight": "0",
        "linewidth": 0.0,
        "ltscale": 1.0,
        "visible": "1",
        "width": 0.0,
        "thickness": 0.0,
        "ext": "(3:0,0,0.1)"
      },
      "geometry": {
        "type": "MultiLineString",
        "coordinates": [
          [
            [52.425751975741591, 29.824016368051598],
            [52.426016763405684, 29.824453897204389]
          ]
        ]
      }
    },
    {
      "type": "Feature",
      "properties": {
        "fid": 93.0,
        "handle": "12325",
        "block": "-1",
        "etype": "18",
        "space": "0",
        "layer": "land",
        "olinetype": "bylayer",
        "linetype": null,
        "color": "0,0,0,255",
        "ocolor": "7",
        "color24": "-1",
        "transparen": "0",
        "lweight": "0",
        "linewidth": 0.0,
        "ltscale": 1.0,
        "visible": "1",
        "width": 0.0,
        "thickness": 0.0,
        "ext": "(3:0,0,0.1)"
      },
      "geometry": {
        "type": "MultiLineString",
        "coordinates": [
          [
            [52.425513361937398, 29.824008745086502],
            [52.425833729961141, 29.824538116094345]
          ]
        ]
      }
    },
    {
      "type": "Feature",
      "properties": {
        "fid": 94.0,
        "handle": "12326",
        "block": "-1",
        "etype": "18",
        "space": "0",
        "layer": "land",
        "olinetype": "bylayer",
        "linetype": null,
        "color": "0,0,0,255",
        "ocolor": "7",
        "color24": "-1",
        "transparen": "0",
        "lweight": "0",
        "linewidth": 0.0,
        "ltscale": 1.0,
        "visible": "1",
        "width": 0.0,
        "thickness": 0.0,
        "ext": "(3:0,0,0.1)"
      },
      "geometry": {
        "type": "MultiLineString",
        "coordinates": [
          [
            [52.425286220752305, 29.824020079044359],
            [52.425650696201608, 29.824622334739711]
          ]
        ]
      }
    },
    {
      "type": "Feature",
      "properties": {
        "fid": 95.0,
        "handle": "12327",
        "block": "-1",
        "etype": "18",
        "space": "0",
        "layer": "land",
        "olinetype": "bylayer",
        "linetype": null,
        "color": "0,0,0,255",
        "ocolor": "7",
        "color24": "-1",
        "transparen": "0",
        "lweight": "0",
        "linewidth": 0.0,
        "ltscale": 1.0,
        "visible": "1",
        "width": 0.0,
        "thickness": 0.0,
        "ext": "(3:0,0,0.1)"
      },
      "geometry": {
        "type": "MultiLineString",
        "coordinates": [
          [
            [52.425071164356389, 29.824051381745271],
            [52.425467662127076, 29.824706553140484]
          ]
        ]
      }
    },
    {
      "type": "Feature",
      "properties": {
        "fid": 96.0,
        "handle": "12328",
        "block": "-1",
        "etype": "18",
        "space": "0",
        "layer": "land",
        "olinetype": "bylayer",
        "linetype": null,
        "color": "0,0,0,255",
        "ocolor": "7",
        "color24": "-1",
        "transparen": "0",
        "lweight": "0",
        "linewidth": 0.0,
        "ltscale": 1.0,
        "visible": "1",
        "width": 0.0,
        "thickness": 0.0,
        "ext": "(3:0,0,0.1)"
      },
      "geometry": {
        "type": "MultiLineString",
        "coordinates": [
          [
            [52.425342579243292, 29.824886529568349],
            [52.425835171620754, 29.825700473649498]
          ]
        ]
      }
    },
    {
      "type": "Feature",
      "properties": {
        "fid": 97.0,
        "handle": "12329",
        "block": "-1",
        "etype": "18",
        "space": "0",
        "layer": "land",
        "olinetype": "bylayer",
        "linetype": null,
        "color": "0,0,0,255",
        "ocolor": "7",
        "color24": "-1",
        "transparen": "0",
        "lweight": "0",
        "linewidth": 0.0,
        "ltscale": 1.0,
        "visible": "1",
        "width": 0.0,
        "thickness": 0.0,
        "ext": "(3:0,0,0.1)"
      },
      "geometry": {
        "type": "MultiLineString",
        "coordinates": [
          [
            [52.42522280343438, 29.825461938336797],
            [52.425469099635848, 29.825868910810616]
          ]
        ]
      }
    },
    {
      "type": "Feature",
      "properties": {
        "fid": 98.0,
        "handle": "12330",
        "block": "-1",
        "etype": "18",
        "space": "0",
        "layer": "land",
        "olinetype": "bylayer",
        "linetype": null,
        "color": "0,0,0,255",
        "ocolor": "7",
        "color24": "-1",
        "transparen": "0",
        "lweight": "0",
        "linewidth": 0.0,
        "ltscale": 1.0,
        "visible": "1",
        "width": 0.0,
        "thickness": 0.0,
        "ext": "(3:0,0,0.1)"
      },
      "geometry": {
        "type": "MultiLineString",
        "coordinates": [
          [
            [52.42515954441977, 29.824970747563206],
            [52.425652135785811, 29.825784692352357]
          ]
        ]
      }
    },
    {
      "type": "Feature",
      "properties": {
        "fid": 99.0,
        "handle": "12331",
        "block": "-1",
        "etype": "18",
        "space": "0",
        "layer": "land",
        "olinetype": "bylayer",
        "linetype": null,
        "color": "0,0,0,255",
        "ocolor": "7",
        "color24": "-1",
        "transparen": "0",
        "lweight": "0",
        "linewidth": 0.0,
        "ltscale": 1.0,
        "visible": "1",
        "width": 0.0,
        "thickness": 0.0,
        "ext": "(3:0,0,0.1)"
      },
      "geometry": {
        "type": "MultiLineString",
        "coordinates": [
          [
            [52.425528065806326, 29.826005010179689],
            [52.426030324438827, 29.826834912849844]
          ]
        ]
      }
    },
    {
      "type": "Feature",
      "properties": {
        "fid": 100.0,
        "handle": "12332",
        "block": "-1",
        "etype": "18",
        "space": "0",
        "layer": "land",
        "olinetype": "bylayer",
        "linetype": null,
        "color": "0,0,0,255",
        "ocolor": "7",
        "color24": "-1",
        "transparen": "0",
        "lweight": "0",
        "linewidth": 0.0,
        "ltscale": 1.0,
        "visible": "1",
        "width": 0.0,
        "thickness": 0.0,
        "ext": "(3:0,0,0.1)"
      },
      "geometry": {
        "type": "MultiLineString",
        "coordinates": [
          [
            [52.425345029151181, 29.826089228479919],
            [52.425847286752386, 29.826919131872007]
          ]
        ]
      }
    },
    {
      "type": "Feature",
      "properties": {
        "fid": 101.0,
        "handle": "12338",
        "block": "-1",
        "etype": "18",
        "space": "0",
        "layer": "land",
        "olinetype": "bylayer",
        "linetype": null,
        "color": "0,0,0,255",
        "ocolor": "7",
        "color24": "-1",
        "transparen": "0",
        "lweight": "0",
        "linewidth": 0.0,
        "ltscale": 1.0,
        "visible": "1",
        "width": 0.0,
        "thickness": 0.0,
        "ext": "(3:0,0,0.1)"
      },
      "geometry": {
        "type": "MultiLineString",
        "coordinates": [
          [
            [52.426637389432194, 29.8266780119191],
            [52.426953451626595, 29.827200240374236]
          ]
        ]
      }
    },
    {
      "type": "Feature",
      "properties": {
        "fid": 102.0,
        "handle": "12339",
        "block": "-1",
        "etype": "18",
        "space": "0",
        "layer": "land",
        "olinetype": "bylayer",
        "linetype": null,
        "color": "0,0,0,255",
        "ocolor": "7",
        "color24": "-1",
        "transparen": "0",
        "lweight": "0",
        "linewidth": 0.0,
        "ltscale": 1.0,
        "visible": "1",
        "width": 0.0,
        "thickness": 0.0,
        "ext": "(3:0,0,0.1)"
      },
      "geometry": {
        "type": "MultiLineString",
        "coordinates": [
          [
            [52.426454352571881, 29.826762231758405],
            [52.426776799644848, 29.827295011416645]
          ]
        ]
      }
    },
    {
      "type": "Feature",
      "properties": {
        "fid": 103.0,
        "handle": "12340",
        "block": "-1",
        "etype": "18",
        "space": "0",
        "layer": "land",
        "olinetype": "bylayer",
        "linetype": null,
        "color": "0,0,0,255",
        "ocolor": "7",
        "color24": "-1",
        "transparen": "0",
        "lweight": "0",
        "linewidth": 0.0,
        "ltscale": 1.0,
        "visible": "1",
        "width": 0.0,
        "thickness": 0.0,
        "ext": "(3:0,0,0.1)"
      },
      "geometry": {
        "type": "MultiLineString",
        "coordinates": [
          [
            [52.426271315396505, 29.826846451353099],
            [52.426600147323207, 29.827389782232444]
          ]
        ]
      }
    },
    {
      "type": "Feature",
      "properties": {
        "fid": 104.0,
        "handle": "12341",
        "block": "-1",
        "etype": "18",
        "space": "0",
        "layer": "land",
        "olinetype": "bylayer",
        "linetype": null,
        "color": "0,0,0,255",
        "ocolor": "7",
        "color24": "-1",
        "transparen": "0",
        "lweight": "0",
        "linewidth": 0.0,
        "ltscale": 1.0,
        "visible": "1",
        "width": 0.0,
        "thickness": 0.0,
        "ext": "(3:0,0,0.1)"
      },
      "geometry": {
        "type": "MultiLineString",
        "coordinates": [
          [
            [52.426088277906111, 29.826930670703177],
            [52.42642349466167, 29.827484552821595]
          ]
        ]
      }
    },
    {
      "type": "Feature",
      "properties": {
        "fid": 105.0,
        "handle": "12342",
        "block": "-1",
        "etype": "18",
        "space": "0",
        "layer": "land",
        "olinetype": "bylayer",
        "linetype": null,
        "color": "0,0,0,255",
        "ocolor": "7",
        "color24": "-1",
        "transparen": "0",
        "lweight": "0",
        "linewidth": 0.0,
        "ltscale": 1.0,
        "visible": "1",
        "width": 0.0,
        "thickness": 0.0,
        "ext": "(3:0,0,0.1)"
      },
      "geometry": {
        "type": "MultiLineString",
        "coordinates": [
          [
            [52.425905240100668, 29.827014889808638],
            [52.426246841660245, 29.827579323184114]
          ]
        ]
      }
    },
    {
      "type": "Feature",
      "properties": {
        "fid": 106.0,
        "handle": "12343",
        "block": "-1",
        "etype": "18",
        "space": "0",
        "layer": "land",
        "olinetype": "bylayer",
        "linetype": null,
        "color": "0,0,0,255",
        "ocolor": "7",
        "color24": "-1",
        "transparen": "0",
        "lweight": "0",
        "linewidth": 0.0,
        "ltscale": 1.0,
        "visible": "1",
        "width": 0.0,
        "thickness": 0.0,
        "ext": "(3:0,0,0.1)"
      },
      "geometry": {
        "type": "MultiLineString",
        "coordinates": [
          [
            [52.425722201980193, 29.827099108669472],
            [52.426066752377011, 29.827668416084215]
          ]
        ]
      }
    }
  ]
}
