{"type":"FeatureCollection","name":"_4","crs":{"type":"name","properties":{"name":"urn:ogc:def:crs:OGC:1.3:CRS84"}},"features":[{"type":"Feature","properties":{"fid":3.0,"handle":"5532","block":"-1","etype":"25","space":"0","layer":"masahat","olinetype":"bylayer","linetype":null,"color":"0,0,255,255","ocolor":"5","color24":"-1","transparen":"0","lweight":"-1","linewidth":0.0,"ltscale":1.0,"visible":"1","thickness":0.0,"ext":"(3:0,0,1)","height":1.3,"text":"00/022","angle":334.26374,"widthscale":1.0,"oblique":0.0,"style":"Standard","textgen":"0","alignh":"2","alignv":"0","interlin":-1.0,"Name":"220/00"},"geometry":{"type":"Point","coordinates":[52.43355810287278,29.830960905076459]}},{"type":"Feature","properties":{"fid":4.0,"handle":"5533","block":"-1","etype":"25","space":"0","layer":"masahat","olinetype":"bylayer","linetype":null,"color":"0,0,255,255","ocolor":"5","color24":"-1","transparen":"0","lweight":"-1","linewidth":0.0,"ltscale":1.0,"visible":"1","thickness":0.0,"ext":"(3:0,0,1)","height":1.3,"text":"00/022","angle":334.26374,"widthscale":1.0,"oblique":0.0,"style":"Standard","textgen":"0","alignh":"2","alignv":"0","interlin":-1.0,"Name":"220/00"},"geometry":{"type":"Point","coordinates":[52.433530692594687,29.830700359715461]}},{"type":"Feature","properties":{"fid":5.0,"handle":"5535","block":"-1","etype":"25","space":"0","layer":"masahat","olinetype":"bylayer","linetype":null,"color":"0,0,255,255","ocolor":"5","color24":"-1","transparen":"0","lweight":"-1","linewidth":0.0,"ltscale":1.0,"visible":"1","thickness":0.0,"ext":"(3:0,0,1)","height":1.3,"text":"05/522","angle":334.26374,"widthscale":1.0,"oblique":0.0,"style":"Standard","textgen":"0","alignh":"2","alignv":"0","interlin":-1.0,"Name":"225/50"},"geometry":{"type":"Point","coordinates":[52.433538858662466,29.83040281908778]}},{"type":"Feature","properties":{"fid":6.0,"handle":"5536","block":"-1","etype":"25","space":"0","layer":"masahat","olinetype":"bylayer","linetype":null,"color":"0,0,255,255","ocolor":"5","color24":"-1","transparen":"0","lweight":"-1","linewidth":0.0,"ltscale":1.0,"visible":"1","thickness":0.0,"ext":"(3:0,0,1)","height":1.3,"text":"00/132","angle":334.26374,"widthscale":1.0,"oblique":0.0,"style":"Standard","textgen":"0","alignh":"2","alignv":"0","interlin":-1.0,"Name":"231/00"},"geometry":{"type":"Point","coordinates":[52.433495926234436,29.830155358016491]}},{"type":"Feature","properties":{"fid":158.0,"handle":"6433","block":"-1","etype":"25","space":"0","layer":"masahat","olinetype":"bylayer","linetype":null,"color":"0,0,255,255","ocolor":"5","color24":"-1","transparen":"0","lweight":"-1","linewidth":0.0,"ltscale":1.0,"visible":"1","thickness":0.0,"ext":"(3:0,0,1)","height":1.3,"text":"69/841","angle":99.9769,"widthscale":1.0,"oblique":0.0,"style":"Standard","textgen":"0","alignh":"2","alignv":"0","interlin":-1.0,"Name":"148/96"},"geometry":{"type":"Point","coordinates":[52.432116425953112,29.833563229792112]}},{"type":"Feature","properties":{"fid":159.0,"handle":"6434","block":"-1","etype":"25","space":"0","layer":"masahat","olinetype":"bylayer","linetype":null,"color":"0,0,255,255","ocolor":"5","color24":"-1","transparen":"0","lweight":"-1","linewidth":0.0,"ltscale":1.0,"visible":"1","thickness":0.0,"ext":"(3:0,0,1)","height":1.3,"text":"87/771","angle":105.58315,"widthscale":1.0,"oblique":0.0,"style":"Standard","textgen":"0","alignh":"2","alignv":"0","interlin":-1.0,"Name":"177/78"},"geometry":{"type":"Point","coordinates":[52.432111792880619,29.833467346271647]}},{"type":"Feature","properties":{"fid":160.0,"handle":"6435","block":"-1","etype":"25","space":"0","layer":"masahat","olinetype":"bylayer","linetype":null,"color":"0,0,255,255","ocolor":"5","color24":"-1","transparen":"0","lweight":"-1","linewidth":0.0,"ltscale":1.0,"visible":"1","thickness":0.0,"ext":"(3:0,0,1)","height":1.3,"text":"53/891","angle":107.59601,"widthscale":1.0,"oblique":0.0,"style":"Standard","textgen":"0","alignh":"2","alignv":"0","interlin":-1.0,"Name":"198/35"},"geometry":{"type":"Point","coordinates":[52.432107159785566,29.833371462709668]}},{"type":"Feature","properties":{"fid":161.0,"handle":"6436","block":"-1","etype":"25","space":"0","layer":"masahat","olinetype":"bylayer","linetype":null,"color":"0,0,255,255","ocolor":"5","color24":"-1","transparen":"0","lweight":"-1","linewidth":0.0,"ltscale":1.0,"visible":"1","thickness":0.0,"ext":"(3:0,0,1)","height":1.3,"text":"47/562","angle":98.7822,"widthscale":1.0,"oblique":0.0,"style":"Standard","textgen":"0","alignh":"2","alignv":"0","interlin":-1.0,"Name":"265/74"},"geometry":{"type":"Point","coordinates":[52.43218151429511,29.833281596707838]}},{"type":"Feature","properties":{"fid":162.0,"handle":"6437","block":"-1","etype":"25","space":"0","layer":"masahat","olinetype":"bylayer","linetype":null,"color":"0,0,255,255","ocolor":"5","color24":"-1","transparen":"0","lweight":"-1","linewidth":0.0,"ltscale":1.0,"visible":"1","thickness":0.0,"ext":"(3:0,0,1)","height":1.3,"text":"24/912","angle":42.95733,"widthscale":1.0,"oblique":0.0,"style":"Standard","textgen":"0","alignh":"2","alignv":"0","interlin":-1.0,"Name":"219/42"},"geometry":{"type":"Point","coordinates":[52.432080965058532,29.833060811408856]}},{"type":"Feature","properties":{"fid":163.0,"handle":"6438","block":"-1","etype":"25","space":"0","layer":"masahat","olinetype":"bylayer","linetype":null,"color":"0,0,255,255","ocolor":"5","color24":"-1","transparen":"0","lweight":"-1","linewidth":0.0,"ltscale":1.0,"visible":"1","thickness":0.0,"ext":"(3:0,0,1)","height":1.3,"text":"31/781","angle":35.77321,"widthscale":1.0,"oblique":0.0,"style":"Standard","textgen":"0","alignh":"2","alignv":"0","interlin":-1.0,"Name":"187/13"},"geometry":{"type":"Point","coordinates":[52.432013936660852,29.832987115388104]}},{"type":"Feature","properties":{"fid":164.0,"handle":"6439","block":"-1","etype":"25","space":"0","layer":"masahat","olinetype":"bylayer","linetype":null,"color":"0,0,255,255","ocolor":"5","color24":"-1","transparen":"0","lweight":"-1","linewidth":0.0,"ltscale":1.0,"visible":"1","thickness":0.0,"ext":"(3:0,0,1)","height":1.3,"text":"40/991","angle":29.68639,"widthscale":1.0,"oblique":0.0,"style":"Standard","textgen":"0","alignh":"2","alignv":"0","interlin":-1.0,"Name":"199/04"},"geometry":{"type":"Point","coordinates":[52.431925803609268,29.832945994922234]}},{"type":"Feature","properties":{"fid":165.0,"handle":"6440","block":"-1","etype":"25","space":"0","layer":"masahat","olinetype":"bylayer","linetype":null,"color":"0,0,255,255","ocolor":"5","color24":"-1","transparen":"0","lweight":"-1","linewidth":0.0,"ltscale":1.0,"visible":"1","thickness":0.0,"ext":"(3:0,0,1)","height":1.3,"text":"78/702","angle":31.41639,"widthscale":1.0,"oblique":0.0,"style":"Standard","textgen":"0","alignh":"2","alignv":"0","interlin":-1.0,"Name":"207/87"},"geometry":{"type":"Point","coordinates":[52.431832300810385,29.832920654667937]}},{"type":"Feature","properties":{"fid":166.0,"handle":"6441","block":"-1","etype":"25","space":"0","layer":"masahat","olinetype":"bylayer","linetype":null,"color":"0,0,255,255","ocolor":"5","color24":"-1","transparen":"0","lweight":"-1","linewidth":0.0,"ltscale":1.0,"visible":"1","thickness":0.0,"ext":"(3:0,0,1)","height":1.3,"text":"98/192","angle":69.39941,"widthscale":1.0,"oblique":0.0,"style":"Standard","textgen":"0","alignh":"2","alignv":"0","interlin":-1.0,"Name":"291/89"},"geometry":{"type":"Point","coordinates":[52.43216517691409,29.833152747842529]}},{"type":"Feature","properties":{"fid":167.0,"handle":"6442","block":"-1","etype":"25","space":"0","layer":"masahat","olinetype":"bylayer","linetype":null,"color":"0,0,255,255","ocolor":"5","color24":"-1","transparen":"0","lweight":"-1","linewidth":0.0,"ltscale":1.0,"visible":"1","thickness":0.0,"ext":"(3:0,0,1)","height":1.3,"text":"15/381","angle":32.31929,"widthscale":1.0,"oblique":0.0,"style":"Standard","textgen":"0","alignh":"2","alignv":"0","interlin":-1.0,"Name":"183/51"},"geometry":{"type":"Point","coordinates":[52.431704072879093,29.832839284598275]}},{"type":"Feature","properties":{"fid":168.0,"handle":"6443","block":"-1","etype":"25","space":"0","layer":"masahat","olinetype":"bylayer","linetype":null,"color":"0,0,255,255","ocolor":"5","color24":"-1","transparen":"0","lweight":"-1","linewidth":0.0,"ltscale":1.0,"visible":"1","thickness":0.0,"ext":"(3:0,0,1)","height":1.3,"text":"17/802","angle":9.2883,"widthscale":1.0,"oblique":0.0,"style":"Standard","textgen":"0","alignh":"2","alignv":"0","interlin":-1.0,"Name":"208/71"},"geometry":{"type":"Point","coordinates":[52.431603149001674,29.832812386681802]}},{"type":"Feature","properties":{"fid":169.0,"handle":"6444","block":"-1","etype":"25","space":"0","layer":"masahat","olinetype":"bylayer","linetype":null,"color":"0,0,255,255","ocolor":"5","color24":"-1","transparen":"0","lweight":"-1","linewidth":0.0,"ltscale":1.0,"visible":"1","thickness":0.0,"ext":"(3:0,0,1)","height":1.3,"text":"61/672","angle":326.01789,"widthscale":1.0,"oblique":0.0,"style":"Standard","textgen":"0","alignh":"2","alignv":"0","interlin":-1.0,"Name":"276/16"},"geometry":{"type":"Point","coordinates":[52.431481328229054,29.83283807364813]}},{"type":"Feature","properties":{"fid":170.0,"handle":"6445","block":"-1","etype":"25","space":"0","layer":"masahat","olinetype":"bylayer","linetype":null,"color":"0,0,255,255","ocolor":"5","color24":"-1","transparen":"0","lweight":"-1","linewidth":0.0,"ltscale":1.0,"visible":"1","thickness":0.0,"ext":"(3:0,0,1)","height":1.3,"text":"16/503","angle":289.84217,"widthscale":1.0,"oblique":0.0,"style":"Standard","textgen":"0","alignh":"2","alignv":"0","interlin":-1.0,"Name":"305/61"},"geometry":{"type":"Point","coordinates":[52.431433302555483,29.832972174834666]}},{"type":"Feature","properties":{"fid":171.0,"handle":"6446","block":"-1","etype":"25","space":"0","layer":"masahat","olinetype":"bylayer","linetype":null,"color":"0,0,255,255","ocolor":"5","color24":"-1","transparen":"0","lweight":"-1","linewidth":0.0,"ltscale":1.0,"visible":"1","thickness":0.0,"ext":"(3:0,0,1)","height":1.3,"text":"56/222","angle":251.52437,"widthscale":1.0,"oblique":0.0,"style":"Standard","textgen":"0","alignh":"2","alignv":"0","interlin":-1.0,"Name":"222/65"},"geometry":{"type":"Point","coordinates":[52.431425424804651,29.833204061529859]}},{"type":"Feature","properties":{"fid":172.0,"handle":"6447","block":"-1","etype":"25","space":"0","layer":"masahat","olinetype":"bylayer","linetype":null,"color":"0,0,255,255","ocolor":"5","color24":"-1","transparen":"0","lweight":"-1","linewidth":0.0,"ltscale":1.0,"visible":"1","thickness":0.0,"ext":"(3:0,0,1)","height":1.3,"text":"71/422","angle":243.81615,"widthscale":1.0,"oblique":0.0,"style":"Standard","textgen":"0","alignh":"2","alignv":"0","interlin":-1.0,"Name":"224/17"},"geometry":{"type":"Point","coordinates":[52.431469372856839,29.833300623063277]}},{"type":"Feature","properties":{"fid":173.0,"handle":"6448","block":"-1","etype":"25","space":"0","layer":"masahat","olinetype":"bylayer","linetype":null,"color":"0,0,255,255","ocolor":"5","color24":"-1","transparen":"0","lweight":"-1","linewidth":0.0,"ltscale":1.0,"visible":"1","thickness":0.0,"ext":"(3:0,0,1)","height":1.3,"text":"52/122","angle":241.47463,"widthscale":1.0,"oblique":0.0,"style":"Standard","textgen":"0","alignh":"2","alignv":"0","interlin":-1.0,"Name":"221/25"},"geometry":{"type":"Point","coordinates":[52.431521257691898,29.833393278716592]}},{"type":"Feature","properties":{"fid":174.0,"handle":"6449","block":"-1","etype":"25","space":"0","layer":"masahat","olinetype":"bylayer","linetype":null,"color":"0,0,255,255","ocolor":"5","color24":"-1","transparen":"0","lweight":"-1","linewidth":0.0,"ltscale":1.0,"visible":"1","thickness":0.0,"ext":"(3:0,0,1)","height":1.3,"text":"82/432","angle":239.55925,"widthscale":1.0,"oblique":0.0,"style":"Standard","textgen":"0","alignh":"2","alignv":"0","interlin":-1.0,"Name":"234/28"},"geometry":{"type":"Point","coordinates":[52.431570601748867,29.833478417732895]}},{"type":"Feature","properties":{"fid":175.0,"handle":"6450","block":"-1","etype":"25","space":"0","layer":"masahat","olinetype":"bylayer","linetype":null,"color":"0,0,255,255","ocolor":"5","color24":"-1","transparen":"0","lweight":"-1","linewidth":0.0,"ltscale":1.0,"visible":"1","thickness":0.0,"ext":"(3:0,0,1)","height":1.3,"text":"19/922","angle":236.93586,"widthscale":1.0,"oblique":0.0,"style":"Standard","textgen":"0","alignh":"2","alignv":"0","interlin":-1.0,"Name":"229/91"},"geometry":{"type":"Point","coordinates":[52.431626198895643,29.833566189504406]}},{"type":"Feature","properties":{"fid":176.0,"handle":"6451","block":"-1","etype":"25","space":"0","layer":"masahat","olinetype":"bylayer","linetype":null,"color":"0,0,255,255","ocolor":"5","color24":"-1","transparen":"0","lweight":"-1","linewidth":0.0,"ltscale":1.0,"visible":"1","thickness":0.0,"ext":"(3:0,0,1)","height":1.3,"text":"14/922","angle":233.87679,"widthscale":1.0,"oblique":0.0,"style":"Standard","textgen":"0","alignh":"2","alignv":"0","interlin":-1.0,"Name":"229/41"},"geometry":{"type":"Point","coordinates":[52.431750011394385,29.833616418079362]}},{"type":"Feature","properties":{"fid":177.0,"handle":"6452","block":"-1","etype":"25","space":"0","layer":"masahat","olinetype":"bylayer","linetype":null,"color":"0,0,255,255","ocolor":"5","color24":"-1","transparen":"0","lweight":"-1","linewidth":0.0,"ltscale":1.0,"visible":"1","thickness":0.0,"ext":"(3:0,0,1)","height":1.3,"text":"21/422","angle":231.65755,"widthscale":1.0,"oblique":0.0,"style":"Standard","textgen":"0","alignh":"2","alignv":"0","interlin":-1.0,"Name":"224/12"},"geometry":{"type":"Point","coordinates":[52.431803021470621,29.833690743429688]}},{"type":"Feature","properties":{"fid":178.0,"handle":"6453","block":"-1","etype":"25","space":"0","layer":"masahat","olinetype":"bylayer","linetype":null,"color":"0,0,255,255","ocolor":"5","color24":"-1","transparen":"0","lweight":"-1","linewidth":0.0,"ltscale":1.0,"visible":"1","thickness":0.0,"ext":"(3:0,0,1)","height":1.3,"text":"43/222","angle":231.65755,"widthscale":1.0,"oblique":0.0,"style":"Standard","textgen":"0","alignh":"2","alignv":"0","interlin":-1.0,"Name":"222/34"},"geometry":{"type":"Point","coordinates":[52.431857097622938,29.83377586569236]}},{"type":"Feature","properties":{"fid":179.0,"handle":"6454","block":"-1","etype":"25","space":"0","layer":"masahat","olinetype":"bylayer","linetype":null,"color":"0,0,255,255","ocolor":"5","color24":"-1","transparen":"0","lweight":"-1","linewidth":0.0,"ltscale":1.0,"visible":"1","thickness":0.0,"ext":"(3:0,0,1)","height":1.3,"text":"43/222","angle":231.65755,"widthscale":1.0,"oblique":0.0,"style":"Standard","textgen":"0","alignh":"2","alignv":"0","interlin":-1.0,"Name":"222/34"},"geometry":{"type":"Point","coordinates":[52.431927651332728,29.833852415102161]}},{"type":"Feature","properties":{"fid":180.0,"handle":"6455","block":"-1","etype":"25","space":"0","layer":"masahat","olinetype":"bylayer","linetype":null,"color":"0,0,255,255","ocolor":"5","color24":"-1","transparen":"0","lweight":"-1","linewidth":0.0,"ltscale":1.0,"visible":"1","thickness":0.0,"ext":"(3:0,0,1)","height":1.3,"text":"75/122","angle":231.65755,"widthscale":1.0,"oblique":0.0,"style":"Standard","textgen":"0","alignh":"2","alignv":"0","interlin":-1.0,"Name":"221/57"},"geometry":{"type":"Point","coordinates":[52.431983719566951,29.833934029773097]}},{"type":"Feature","properties":{"fid":181.0,"handle":"6456","block":"-1","etype":"25","space":"0","layer":"masahat","olinetype":"bylayer","linetype":null,"color":"0,0,255,255","ocolor":"5","color24":"-1","transparen":"0","lweight":"-1","linewidth":0.0,"ltscale":1.0,"visible":"1","thickness":0.0,"ext":"(3:0,0,1)","height":1.3,"text":"95/352","angle":240.25303,"widthscale":1.0,"oblique":0.0,"style":"Standard","textgen":"0","alignh":"2","alignv":"0","interlin":-1.0,"Name":"253/59"},"geometry":{"type":"Point","coordinates":[52.43203813102874,29.83401200857444]}},{"type":"Feature","properties":{"fid":182.0,"handle":"6457","block":"-1","etype":"25","space":"0","layer":"masahat","olinetype":"bylayer","linetype":null,"color":"0,0,255,255","ocolor":"5","color24":"-1","transparen":"0","lweight":"-1","linewidth":0.0,"ltscale":1.0,"visible":"1","thickness":0.0,"ext":"(3:0,0,1)","height":1.3,"text":"66/161","angle":226.98917,"widthscale":1.0,"oblique":0.0,"style":"Standard","textgen":"0","alignh":"2","alignv":"0","interlin":-1.0,"Name":"161/66"},"geometry":{"type":"Point","coordinates":[52.431831160673809,29.834187698869354]}},{"type":"Feature","properties":{"fid":183.0,"handle":"6458","block":"-1","etype":"25","space":"0","layer":"masahat","olinetype":"bylayer","linetype":null,"color":"0,0,255,255","ocolor":"5","color24":"-1","transparen":"0","lweight":"-1","linewidth":0.0,"ltscale":1.0,"visible":"1","thickness":0.0,"ext":"(3:0,0,1)","height":1.3,"text":"49/602","angle":226.98917,"widthscale":1.0,"oblique":0.0,"style":"Standard","textgen":"0","alignh":"2","alignv":"0","interlin":-1.0,"Name":"206/94"},"geometry":{"type":"Point","coordinates":[52.431777236964152,29.83411836786458]}},{"type":"Feature","properties":{"fid":184.0,"handle":"6459","block":"-1","etype":"25","space":"0","layer":"masahat","olinetype":"bylayer","linetype":null,"color":"0,0,255,255","ocolor":"5","color24":"-1","transparen":"0","lweight":"-1","linewidth":0.0,"ltscale":1.0,"visible":"1","thickness":0.0,"ext":"(3:0,0,1)","height":1.3,"text":"75/812","angle":226.98917,"widthscale":1.0,"oblique":0.0,"style":"Standard","textgen":"0","alignh":"2","alignv":"0","interlin":-1.0,"Name":"218/57"},"geometry":{"type":"Point","coordinates":[52.431713316815532,29.834053778757948]}},{"type":"Feature","properties":{"fid":185.0,"handle":"6460","block":"-1","etype":"25","space":"0","layer":"masahat","olinetype":"bylayer","linetype":null,"color":"0,0,255,255","ocolor":"5","color24":"-1","transparen":"0","lweight":"-1","linewidth":0.0,"ltscale":1.0,"visible":"1","thickness":0.0,"ext":"(3:0,0,1)","height":1.3,"text":"47/622","angle":226.98917,"widthscale":1.0,"oblique":0.0,"style":"Standard","textgen":"0","alignh":"2","alignv":"0","interlin":-1.0,"Name":"226/74"},"geometry":{"type":"Point","coordinates":[52.431644786338303,29.83399595520671]}},{"type":"Feature","properties":{"fid":186.0,"handle":"6461","block":"-1","etype":"25","space":"0","layer":"masahat","olinetype":"bylayer","linetype":null,"color":"0,0,255,255","ocolor":"5","color24":"-1","transparen":"0","lweight":"-1","linewidth":0.0,"ltscale":1.0,"visible":"1","thickness":0.0,"ext":"(3:0,0,1)","height":1.3,"text":"19/432","angle":226.98917,"widthscale":1.0,"oblique":0.0,"style":"Standard","textgen":"0","alignh":"2","alignv":"0","interlin":-1.0,"Name":"234/91"},"geometry":{"type":"Point","coordinates":[52.431577346566229,29.833931888042954]}},{"type":"Feature","properties":{"fid":187.0,"handle":"6462","block":"-1","etype":"25","space":"0","layer":"masahat","olinetype":"bylayer","linetype":null,"color":"0,0,255,255","ocolor":"5","color24":"-1","transparen":"0","lweight":"-1","linewidth":0.0,"ltscale":1.0,"visible":"1","thickness":0.0,"ext":"(3:0,0,1)","height":1.3,"text":"47/342","angle":226.98917,"widthscale":1.0,"oblique":0.0,"style":"Standard","textgen":"0","alignh":"2","alignv":"0","interlin":-1.0,"Name":"243/74"},"geometry":{"type":"Point","coordinates":[52.431506157381413,29.833857103929525]}},{"type":"Feature","properties":{"fid":188.0,"handle":"6463","block":"-1","etype":"25","space":"0","layer":"masahat","olinetype":"bylayer","linetype":null,"color":"0,0,255,255","ocolor":"5","color24":"-1","transparen":"0","lweight":"-1","linewidth":0.0,"ltscale":1.0,"visible":"1","thickness":0.0,"ext":"(3:0,0,1)","height":1.3,"text":"20/552","angle":226.98917,"widthscale":1.0,"oblique":0.0,"style":"Standard","textgen":"0","alignh":"2","alignv":"0","interlin":-1.0,"Name":"255/02"},"geometry":{"type":"Point","coordinates":[52.431442566458571,29.833794898708852]}},{"type":"Feature","properties":{"fid":189.0,"handle":"6464","block":"-1","etype":"25","space":"0","layer":"masahat","olinetype":"bylayer","linetype":null,"color":"0,0,255,255","ocolor":"5","color24":"-1","transparen":"0","lweight":"-1","linewidth":0.0,"ltscale":1.0,"visible":"1","thickness":0.0,"ext":"(3:0,0,1)","height":1.3,"text":"16/072","angle":226.98917,"widthscale":1.0,"oblique":0.0,"style":"Standard","textgen":"0","alignh":"2","alignv":"0","interlin":-1.0,"Name":"270/61"},"geometry":{"type":"Point","coordinates":[52.431379121939003,29.833734454146764]}},{"type":"Feature","properties":{"fid":190.0,"handle":"6465","block":"-1","etype":"25","space":"0","layer":"masahat","olinetype":"bylayer","linetype":null,"color":"0,0,255,255","ocolor":"5","color24":"-1","transparen":"0","lweight":"-1","linewidth":0.0,"ltscale":1.0,"visible":"1","thickness":0.0,"ext":"(3:0,0,1)","height":1.3,"text":"23/092","angle":226.98917,"widthscale":1.0,"oblique":0.0,"style":"Standard","textgen":"0","alignh":"2","alignv":"0","interlin":-1.0,"Name":"290/32"},"geometry":{"type":"Point","coordinates":[52.431302184483862,29.833645069084746]}},{"type":"Feature","properties":{"fid":191.0,"handle":"6466","block":"-1","etype":"25","space":"0","layer":"masahat","olinetype":"bylayer","linetype":null,"color":"0,0,255,255","ocolor":"5","color24":"-1","transparen":"0","lweight":"-1","linewidth":0.0,"ltscale":1.0,"visible":"1","thickness":0.0,"ext":"(3:0,0,1)","height":1.3,"text":"52/413","angle":226.98917,"widthscale":1.0,"oblique":0.0,"style":"Standard","textgen":"0","alignh":"2","alignv":"0","interlin":-1.0,"Name":"314/25"},"geometry":{"type":"Point","coordinates":[52.431234667531896,29.833583648204982]}},{"type":"Feature","properties":{"fid":192.0,"handle":"6467","block":"-1","etype":"25","space":"0","layer":"masahat","olinetype":"bylayer","linetype":null,"color":"0,0,255,255","ocolor":"5","color24":"-1","transparen":"0","lweight":"-1","linewidth":0.0,"ltscale":1.0,"visible":"1","thickness":0.0,"ext":"(3:0,0,1)","height":1.3,"text":"04/243","angle":226.98917,"widthscale":1.0,"oblique":0.0,"style":"Standard","textgen":"0","alignh":"2","alignv":"0","interlin":-1.0,"Name":"342/40"},"geometry":{"type":"Point","coordinates":[52.43116143481469,29.833524508394341]}},{"type":"Feature","properties":{"fid":193.0,"handle":"6468","block":"-1","etype":"25","space":"0","layer":"masahat","olinetype":"bylayer","linetype":null,"color":"0,0,255,255","ocolor":"5","color24":"-1","transparen":"0","lweight":"-1","linewidth":0.0,"ltscale":1.0,"visible":"1","thickness":0.0,"ext":"(3:0,0,1)","height":1.3,"text":"82/242","angle":226.98917,"widthscale":1.0,"oblique":0.0,"style":"Standard","textgen":"0","alignh":"2","alignv":"0","interlin":-1.0,"Name":"242/28"},"geometry":{"type":"Point","coordinates":[52.431153314658147,29.833373341222391]}},{"type":"Feature","properties":{"fid":194.0,"handle":"6469","block":"-1","etype":"25","space":"0","layer":"masahat","olinetype":"bylayer","linetype":null,"color":"0,0,255,255","ocolor":"5","color24":"-1","transparen":"0","lweight":"-1","linewidth":0.0,"ltscale":1.0,"visible":"1","thickness":0.0,"ext":"(3:0,0,1)","height":1.3,"text":"80/893","angle":229.61887,"widthscale":1.0,"oblique":0.0,"style":"Standard","textgen":"0","alignh":"2","alignv":"0","interlin":-1.0,"Name":"398/08"},"geometry":{"type":"Point","coordinates":[52.431014932590358,29.833448330646515]}},{"type":"Feature","properties":{"fid":195.0,"handle":"6470","block":"-1","etype":"25","space":"0","layer":"masahat","olinetype":"bylayer","linetype":null,"color":"0,0,255,255","ocolor":"5","color24":"-1","transparen":"0","lweight":"-1","linewidth":0.0,"ltscale":1.0,"visible":"1","thickness":0.0,"ext":"(3:0,0,1)","height":1.3,"text":"79/823","angle":258.66401,"widthscale":1.0,"oblique":0.0,"style":"Standard","textgen":"0","alignh":"2","alignv":"0","interlin":-1.0,"Name":"328/97"},"geometry":{"type":"Point","coordinates":[52.431090474754306,29.833266694562731]}},{"type":"Feature","properties":{"fid":196.0,"handle":"6471","block":"-1","etype":"25","space":"0","layer":"masahat","olinetype":"bylayer","linetype":null,"color":"0,0,255,255","ocolor":"5","color24":"-1","transparen":"0","lweight":"-1","linewidth":0.0,"ltscale":1.0,"visible":"1","thickness":0.0,"ext":"(3:0,0,1)","height":1.3,"text":"74/423","angle":246.0632,"widthscale":1.0,"oblique":0.0,"style":"Standard","textgen":"0","alignh":"2","alignv":"0","interlin":-1.0,"Name":"324/47"},"geometry":{"type":"Point","coordinates":[52.430877060202604,29.83330723243618]}},{"type":"Feature","properties":{"fid":197.0,"handle":"6472","block":"-1","etype":"25","space":"0","layer":"masahat","olinetype":"bylayer","linetype":null,"color":"0,0,255,255","ocolor":"5","color24":"-1","transparen":"0","lweight":"-1","linewidth":0.0,"ltscale":1.0,"visible":"1","thickness":0.0,"ext":"(3:0,0,1)","height":1.3,"text":"50/442","angle":266.60009,"widthscale":1.0,"oblique":0.0,"style":"Standard","textgen":"0","alignh":"2","alignv":"0","interlin":-1.0,"Name":"244/05"},"geometry":{"type":"Point","coordinates":[52.43110109729701,29.8331375959417]}},{"type":"Feature","properties":{"fid":198.0,"handle":"6473","block":"-1","etype":"25","space":"0","layer":"masahat","olinetype":"bylayer","linetype":null,"color":"0,0,255,255","ocolor":"5","color24":"-1","transparen":"0","lweight":"-1","linewidth":0.0,"ltscale":1.0,"visible":"1","thickness":0.0,"ext":"(3:0,0,1)","height":1.3,"text":"75/963","angle":266.62555,"widthscale":1.0,"oblique":0.0,"style":"Standard","textgen":"0","alignh":"2","alignv":"0","interlin":-1.0,"Name":"369/57"},"geometry":{"type":"Point","coordinates":[52.43087482635044,29.833164850774118]}},{"type":"Feature","properties":{"fid":199.0,"handle":"6474","block":"-1","etype":"25","space":"0","layer":"masahat","olinetype":"bylayer","linetype":null,"color":"0,0,255,255","ocolor":"5","color24":"-1","transparen":"0","lweight":"-1","linewidth":0.0,"ltscale":1.0,"visible":"1","thickness":0.0,"ext":"(3:0,0,1)","height":1.3,"text":"37/152","angle":273.18738,"widthscale":1.0,"oblique":0.0,"style":"Standard","textgen":"0","alignh":"2","alignv":"0","interlin":-1.0,"Name":"251/73"},"geometry":{"type":"Point","coordinates":[52.431067669875702,29.833033331917115]}},{"type":"Feature","properties":{"fid":200.0,"handle":"6475","block":"-1","etype":"25","space":"0","layer":"masahat","olinetype":"bylayer","linetype":null,"color":"0,0,255,255","ocolor":"5","color24":"-1","transparen":"0","lweight":"-1","linewidth":0.0,"ltscale":1.0,"visible":"1","thickness":0.0,"ext":"(3:0,0,1)","height":1.3,"text":"84/482","angle":270.0,"widthscale":1.0,"oblique":0.0,"style":"Standard","textgen":"0","alignh":"2","alignv":"0","interlin":-1.0,"Name":"284/48"},"geometry":{"type":"Point","coordinates":[52.430853453406577,29.833045161804034]}},{"type":"Feature","properties":{"fid":201.0,"handle":"6476","block":"-1","etype":"25","space":"0","layer":"masahat","olinetype":"bylayer","linetype":null,"color":"0,0,255,255","ocolor":"5","color24":"-1","transparen":"0","lweight":"-1","linewidth":0.0,"ltscale":1.0,"visible":"1","thickness":0.0,"ext":"(3:0,0,1)","height":1.3,"text":"74/133","angle":276.35515,"widthscale":1.0,"oblique":0.0,"style":"Standard","textgen":"0","alignh":"2","alignv":"0","interlin":-1.0,"Name":"331/47"},"geometry":{"type":"Point","coordinates":[52.431068619979484,29.832895992055011]}},{"type":"Feature","properties":{"fid":202.0,"handle":"6477","block":"-1","etype":"25","space":"0","layer":"masahat","olinetype":"bylayer","linetype":null,"color":"0,0,255,255","ocolor":"5","color24":"-1","transparen":"0","lweight":"-1","linewidth":0.0,"ltscale":1.0,"visible":"1","thickness":0.0,"ext":"(3:0,0,1)","height":1.3,"text":"15/792","angle":270.0,"widthscale":1.0,"oblique":0.0,"style":"Standard","textgen":"0","alignh":"2","alignv":"0","interlin":-1.0,"Name":"297/51"},"geometry":{"type":"Point","coordinates":[52.430835644604336,29.832939774112489]}},{"type":"Feature","properties":{"fid":203.0,"handle":"6478","block":"-1","etype":"25","space":"0","layer":"masahat","olinetype":"bylayer","linetype":null,"color":"0,0,255,255","ocolor":"5","color24":"-1","transparen":"0","lweight":"-1","linewidth":0.0,"ltscale":1.0,"visible":"1","thickness":0.0,"ext":"(3:0,0,1)","height":1.3,"text":"76/313","angle":270.0,"widthscale":1.0,"oblique":0.0,"style":"Standard","textgen":"0","alignh":"2","alignv":"0","interlin":-1.0,"Name":"313/67"},"geometry":{"type":"Point","coordinates":[52.430836065510029,29.832827862621365]}},{"type":"Feature","properties":{"fid":204.0,"handle":"6479","block":"-1","etype":"25","space":"0","layer":"masahat","olinetype":"bylayer","linetype":null,"color":"0,0,255,255","ocolor":"5","color24":"-1","transparen":"0","lweight":"-1","linewidth":0.0,"ltscale":1.0,"visible":"1","thickness":0.0,"ext":"(3:0,0,1)","height":1.3,"text":"88/182","angle":290.02658,"widthscale":1.0,"oblique":0.0,"style":"Standard","textgen":"0","alignh":"2","alignv":"0","interlin":-1.0,"Name":"281/88"},"geometry":{"type":"Point","coordinates":[52.431084998599452,29.832812542607098]}},{"type":"Feature","properties":{"fid":205.0,"handle":"6480","block":"-1","etype":"25","space":"0","layer":"masahat","olinetype":"bylayer","linetype":null,"color":"0,0,255,255","ocolor":"5","color24":"-1","transparen":"0","lweight":"-1","linewidth":0.0,"ltscale":1.0,"visible":"1","thickness":0.0,"ext":"(3:0,0,1)","height":1.3,"text":"56/764","angle":290.89968,"widthscale":1.0,"oblique":0.0,"style":"Standard","textgen":"0","alignh":"2","alignv":"0","interlin":-1.0,"Name":"467/65"},"geometry":{"type":"Point","coordinates":[52.430854026381553,29.832728580154793]}},{"type":"Feature","properties":{"fid":206.0,"handle":"6481","block":"-1","etype":"25","space":"0","layer":"masahat","olinetype":"bylayer","linetype":null,"color":"0,0,255,255","ocolor":"5","color24":"-1","transparen":"0","lweight":"-1","linewidth":0.0,"ltscale":1.0,"visible":"1","thickness":0.0,"ext":"(3:0,0,1)","height":1.3,"text":"53/523","angle":306.34219,"widthscale":1.0,"oblique":0.0,"style":"Standard","textgen":"0","alignh":"2","alignv":"0","interlin":-1.0,"Name":"325/35"},"geometry":{"type":"Point","coordinates":[52.431135475542263,29.832697454400272]}},{"type":"Feature","properties":{"fid":207.0,"handle":"6482","block":"-1","etype":"25","space":"0","layer":"masahat","olinetype":"bylayer","linetype":null,"color":"0,0,255,255","ocolor":"5","color24":"-1","transparen":"0","lweight":"-1","linewidth":0.0,"ltscale":1.0,"visible":"1","thickness":0.0,"ext":"(3:0,0,1)","height":1.3,"text":"32/573","angle":303.08592,"widthscale":1.0,"oblique":0.0,"style":"Standard","textgen":"0","alignh":"2","alignv":"0","interlin":-1.0,"Name":"375/23"},"geometry":{"type":"Point","coordinates":[52.430903852403148,29.832592592119596]}},{"type":"Feature","properties":{"fid":208.0,"handle":"6483","block":"-1","etype":"25","space":"0","layer":"masahat","olinetype":"bylayer","linetype":null,"color":"0,0,255,255","ocolor":"5","color24":"-1","transparen":"0","lweight":"-1","linewidth":0.0,"ltscale":1.0,"visible":"1","thickness":0.0,"ext":"(3:0,0,1)","height":1.3,"text":"47/183","angle":325.07178,"widthscale":1.0,"oblique":0.0,"style":"Standard","textgen":"0","alignh":"2","alignv":"0","interlin":-1.0,"Name":"381/74"},"geometry":{"type":"Point","coordinates":[52.430993328414019,29.832490958307698]}},{"type":"Feature","properties":{"fid":209.0,"handle":"6484","block":"-1","etype":"25","space":"0","layer":"masahat","olinetype":"bylayer","linetype":null,"color":"0,0,255,255","ocolor":"5","color24":"-1","transparen":"0","lweight":"-1","linewidth":0.0,"ltscale":1.0,"visible":"1","thickness":0.0,"ext":"(3:0,0,1)","height":1.3,"text":"64/513","angle":337.23817,"widthscale":1.0,"oblique":0.0,"style":"Standard","textgen":"0","alignh":"2","alignv":"0","interlin":-1.0,"Name":"315/46"},"geometry":{"type":"Point","coordinates":[52.431331369295258,29.832583631255698]}},{"type":"Feature","properties":{"fid":210.0,"handle":"6485","block":"-1","etype":"25","space":"0","layer":"masahat","olinetype":"bylayer","linetype":null,"color":"0,0,255,255","ocolor":"5","color24":"-1","transparen":"0","lweight":"-1","linewidth":0.0,"ltscale":1.0,"visible":"1","thickness":0.0,"ext":"(3:0,0,1)","height":1.3,"text":"28/372","angle":0.0,"widthscale":1.0,"oblique":0.0,"style":"Standard","textgen":"0","alignh":"2","alignv":"0","interlin":-1.0,"Name":"273/82"},"geometry":{"type":"Point","coordinates":[52.431569267293987,29.832548440891294]}},{"type":"Feature","properties":{"fid":211.0,"handle":"6486","block":"-1","etype":"25","space":"0","layer":"masahat","olinetype":"bylayer","linetype":null,"color":"0,0,255,255","ocolor":"5","color24":"-1","transparen":"0","lweight":"-1","linewidth":0.0,"ltscale":1.0,"visible":"1","thickness":0.0,"ext":"(3:0,0,1)","height":1.3,"text":"80/782","angle":13.2102,"widthscale":1.0,"oblique":0.0,"style":"Standard","textgen":"0","alignh":"2","alignv":"0","interlin":-1.0,"Name":"287/08"},"geometry":{"type":"Point","coordinates":[52.431689994147462,29.832577297941704]}},{"type":"Feature","properties":{"fid":212.0,"handle":"6487","block":"-1","etype":"25","space":"0","layer":"masahat","olinetype":"bylayer","linetype":null,"color":"0,0,255,255","ocolor":"5","color24":"-1","transparen":"0","lweight":"-1","linewidth":0.0,"ltscale":1.0,"visible":"1","thickness":0.0,"ext":"(3:0,0,1)","height":1.3,"text":"83/322","angle":332.77851,"widthscale":1.0,"oblique":0.0,"style":"Standard","textgen":"0","alignh":"2","alignv":"0","interlin":-1.0,"Name":"223/38"},"geometry":{"type":"Point","coordinates":[52.431232519442929,29.832416552022043]}},{"type":"Feature","properties":{"fid":213.0,"handle":"6488","block":"-1","etype":"25","space":"0","layer":"masahat","olinetype":"bylayer","linetype":null,"color":"0,0,255,255","ocolor":"5","color24":"-1","transparen":"0","lweight":"-1","linewidth":0.0,"ltscale":1.0,"visible":"1","thickness":0.0,"ext":"(3:0,0,1)","height":1.3,"text":"81/043","angle":19.39745,"widthscale":1.0,"oblique":0.0,"style":"Standard","textgen":"0","alignh":"2","alignv":"0","interlin":-1.0,"Name":"340/18"},"geometry":{"type":"Point","coordinates":[52.431678202042043,29.832366130843845]}},{"type":"Feature","properties":{"fid":214.0,"handle":"6489","block":"-1","etype":"25","space":"0","layer":"masahat","olinetype":"bylayer","linetype":null,"color":"0,0,255,255","ocolor":"5","color24":"-1","transparen":"0","lweight":"-1","linewidth":0.0,"ltscale":1.0,"visible":"1","thickness":0.0,"ext":"(3:0,0,1)","height":1.3,"text":"82/842","angle":34.01023,"widthscale":1.0,"oblique":0.0,"style":"Standard","textgen":"0","alignh":"2","alignv":"0","interlin":-1.0,"Name":"248/28"},"geometry":{"type":"Point","coordinates":[52.431789816658657,29.832437458523028]}},{"type":"Feature","properties":{"fid":215.0,"handle":"6490","block":"-1","etype":"25","space":"0","layer":"masahat","olinetype":"bylayer","linetype":null,"color":"0,0,255,255","ocolor":"5","color24":"-1","transparen":"0","lweight":"-1","linewidth":0.0,"ltscale":1.0,"visible":"1","thickness":0.0,"ext":"(3:0,0,1)","height":1.3,"text":"50/122","angle":56.62436,"widthscale":1.0,"oblique":0.0,"style":"Standard","textgen":"0","alignh":"2","alignv":"0","interlin":-1.0,"Name":"221/05"},"geometry":{"type":"Point","coordinates":[52.431928021456606,29.832480092696166]}},{"type":"Feature","properties":{"fid":216.0,"handle":"6491","block":"-1","etype":"25","space":"0","layer":"masahat","olinetype":"bylayer","linetype":null,"color":"0,0,255,255","ocolor":"5","color24":"-1","transparen":"0","lweight":"-1","linewidth":0.0,"ltscale":1.0,"visible":"1","thickness":0.0,"ext":"(3:0,0,1)","height":1.3,"text":"01/942","angle":31.2684,"widthscale":1.0,"oblique":0.0,"style":"Standard","textgen":"0","alignh":"2","alignv":"0","interlin":-1.0,"Name":"249/10"},"geometry":{"type":"Point","coordinates":[52.431789697229235,29.832630030856965]}},{"type":"Feature","properties":{"fid":217.0,"handle":"6496","block":"-1","etype":"25","space":"0","layer":"masahat","olinetype":"bylayer","linetype":null,"color":"0,0,255,255","ocolor":"5","color24":"-1","transparen":"0","lweight":"-1","linewidth":0.0,"ltscale":1.0,"visible":"1","thickness":0.0,"ext":"(3:0,0,1)","height":1.3,"text":"09/522","angle":34.19213,"widthscale":1.0,"oblique":0.0,"style":"Standard","textgen":"0","alignh":"2","alignv":"0","interlin":-1.0,"Name":"225/90"},"geometry":{"type":"Point","coordinates":[52.431877388509669,29.832684788653168]}},{"type":"Feature","properties":{"fid":218.0,"handle":"6497","block":"-1","etype":"25","space":"0","layer":"masahat","olinetype":"bylayer","linetype":null,"color":"0,0,255,255","ocolor":"5","color24":"-1","transparen":"0","lweight":"-1","linewidth":0.0,"ltscale":1.0,"visible":"1","thickness":0.0,"ext":"(3:0,0,1)","height":1.3,"text":"33/242","angle":29.81884,"widthscale":1.0,"oblique":0.0,"style":"Standard","textgen":"0","alignh":"2","alignv":"0","interlin":-1.0,"Name":"242/33"},"geometry":{"type":"Point","coordinates":[52.431954620984293,29.832739442068565]}},{"type":"Feature","properties":{"fid":219.0,"handle":"6498","block":"-1","etype":"25","space":"0","layer":"masahat","olinetype":"bylayer","linetype":null,"color":"0,0,255,255","ocolor":"5","color24":"-1","transparen":"0","lweight":"-1","linewidth":0.0,"ltscale":1.0,"visible":"1","thickness":0.0,"ext":"(3:0,0,1)","height":1.3,"text":"05/722","angle":29.81884,"widthscale":1.0,"oblique":0.0,"style":"Standard","textgen":"0","alignh":"2","alignv":"0","interlin":-1.0,"Name":"227/50"},"geometry":{"type":"Point","coordinates":[52.43203212871223,29.832783075573563]}},{"type":"Feature","properties":{"fid":220.0,"handle":"6499","block":"-1","etype":"25","space":"0","layer":"masahat","olinetype":"bylayer","linetype":null,"color":"0,0,255,255","ocolor":"5","color24":"-1","transparen":"0","lweight":"-1","linewidth":0.0,"ltscale":1.0,"visible":"1","thickness":0.0,"ext":"(3:0,0,1)","height":1.3,"text":"05/632","angle":29.16081,"widthscale":1.0,"oblique":0.0,"style":"Standard","textgen":"0","alignh":"2","alignv":"0","interlin":-1.0,"Name":"236/50"},"geometry":{"type":"Point","coordinates":[52.432109434037741,29.832827822875835]}},{"type":"Feature","properties":{"fid":221.0,"handle":"6500","block":"-1","etype":"25","space":"0","layer":"masahat","olinetype":"bylayer","linetype":null,"color":"0,0,255,255","ocolor":"5","color24":"-1","transparen":"0","lweight":"-1","linewidth":0.0,"ltscale":1.0,"visible":"1","thickness":0.0,"ext":"(3:0,0,1)","height":1.3,"text":"39/1131","angle":32.90745,"widthscale":1.0,"oblique":0.0,"style":"Standard","textgen":"0","alignh":"2","alignv":"0","interlin":-1.0,"Name":"1311/93"},"geometry":{"type":"Point","coordinates":[52.432332681888646,29.832982252700621]}},{"type":"Feature","properties":{"fid":222.0,"handle":"6501","block":"-1","etype":"25","space":"0","layer":"masahat","olinetype":"bylayer","linetype":null,"color":"0,0,255,255","ocolor":"5","color24":"-1","transparen":"0","lweight":"-1","linewidth":0.0,"ltscale":1.0,"visible":"1","thickness":0.0,"ext":"(3:0,0,1)","height":1.3,"text":"41/7951","angle":115.94704,"widthscale":1.0,"oblique":0.0,"style":"Standard","textgen":"0","alignh":"2","alignv":"0","interlin":-1.0,"Name":"1597/14"},"geometry":{"type":"Point","coordinates":[52.432332618997322,29.833481879342084]}},{"type":"Feature","properties":{"fid":224.0,"handle":"6504","block":"-1","etype":"25","space":"0","layer":"masahat","olinetype":"bylayer","linetype":null,"color":"0,0,255,255","ocolor":"5","color24":"-1","transparen":"0","lweight":"-1","linewidth":0.0,"ltscale":1.0,"visible":"1","thickness":0.0,"ext":"(3:0,0,1)","height":1.3,"text":"90/233","angle":306.31059,"widthscale":1.0,"oblique":0.0,"style":"Standard","textgen":"0","alignh":"2","alignv":"0","interlin":-1.0,"Name":"332/09"},"geometry":{"type":"Point","coordinates":[52.42974964755166,29.832203355188661]}},{"type":"Feature","properties":{"fid":225.0,"handle":"6505","block":"-1","etype":"25","space":"0","layer":"masahat","olinetype":"bylayer","linetype":null,"color":"0,0,255,255","ocolor":"5","color24":"-1","transparen":"0","lweight":"-1","linewidth":0.0,"ltscale":1.0,"visible":"1","thickness":0.0,"ext":"(3:0,0,1)","height":1.3,"text":"70/392","angle":306.50466,"widthscale":1.0,"oblique":0.0,"style":"Standard","textgen":"0","alignh":"2","alignv":"0","interlin":-1.0,"Name":"293/07"},"geometry":{"type":"Point","coordinates":[52.429804988240839,29.832124604433325]}},{"type":"Feature","properties":{"fid":226.0,"handle":"6506","block":"-1","etype":"25","space":"0","layer":"masahat","olinetype":"bylayer","linetype":null,"color":"0,0,255,255","ocolor":"5","color24":"-1","transparen":"0","lweight":"-1","linewidth":0.0,"ltscale":1.0,"visible":"1","thickness":0.0,"ext":"(3:0,0,1)","height":1.3,"text":"30/513","angle":316.17796,"widthscale":1.0,"oblique":0.0,"style":"Standard","textgen":"0","alignh":"2","alignv":"0","interlin":-1.0,"Name":"315/03"},"geometry":{"type":"Point","coordinates":[52.42987045527007,29.832052139906551]}},{"type":"Feature","properties":{"fid":227.0,"handle":"6507","block":"-1","etype":"25","space":"0","layer":"masahat","olinetype":"bylayer","linetype":null,"color":"0,0,255,255","ocolor":"5","color24":"-1","transparen":"0","lweight":"-1","linewidth":0.0,"ltscale":1.0,"visible":"1","thickness":0.0,"ext":"(3:0,0,1)","height":1.3,"text":"63/333","angle":325.01667,"widthscale":1.0,"oblique":0.0,"style":"Standard","textgen":"0","alignh":"2","alignv":"0","interlin":-1.0,"Name":"333/36"},"geometry":{"type":"Point","coordinates":[52.429968587408297,29.831974786417227]}},{"type":"Feature","properties":{"fid":228.0,"handle":"6508","block":"-1","etype":"25","space":"0","layer":"masahat","olinetype":"bylayer","linetype":null,"color":"0,0,255,255","ocolor":"5","color24":"-1","transparen":"0","lweight":"-1","linewidth":0.0,"ltscale":1.0,"visible":"1","thickness":0.0,"ext":"(3:0,0,1)","height":1.3,"text":"94/723","angle":340.94847,"widthscale":1.0,"oblique":0.0,"style":"Standard","textgen":"0","alignh":"2","alignv":"0","interlin":-1.0,"Name":"327/49"},"geometry":{"type":"Point","coordinates":[52.430082496276476,29.831940967318104]}},{"type":"Feature","properties":{"fid":229.0,"handle":"6509","block":"-1","etype":"25","space":"0","layer":"masahat","olinetype":"bylayer","linetype":null,"color":"0,0,255,255","ocolor":"5","color24":"-1","transparen":"0","lweight":"-1","linewidth":0.0,"ltscale":1.0,"visible":"1","thickness":0.0,"ext":"(3:0,0,1)","height":1.3,"text":"32/413","angle":354.8178,"widthscale":1.0,"oblique":0.0,"style":"Standard","textgen":"0","alignh":"2","alignv":"0","interlin":-1.0,"Name":"314/23"},"geometry":{"type":"Point","coordinates":[52.430204164302658,29.831919139863057]}},{"type":"Feature","properties":{"fid":230.0,"handle":"6510","block":"-1","etype":"25","space":"0","layer":"masahat","olinetype":"bylayer","linetype":null,"color":"0,0,255,255","ocolor":"5","color24":"-1","transparen":"0","lweight":"-1","linewidth":0.0,"ltscale":1.0,"visible":"1","thickness":0.0,"ext":"(3:0,0,1)","height":1.3,"text":"38/503","angle":8.78626,"widthscale":1.0,"oblique":0.0,"style":"Standard","textgen":"0","alignh":"2","alignv":"0","interlin":-1.0,"Name":"305/83"},"geometry":{"type":"Point","coordinates":[52.430328821003471,29.831935812371196]}},{"type":"Feature","properties":{"fid":233.0,"handle":"6522","block":"-1","etype":"25","space":"0","layer":"masahat","olinetype":"bylayer","linetype":null,"color":"0,0,255,255","ocolor":"5","color24":"-1","transparen":"0","lweight":"-1","linewidth":0.0,"ltscale":1.0,"visible":"1","thickness":0.0,"ext":"(3:0,0,1)","height":1.3,"text":"85/312","angle":53.06492,"widthscale":1.0,"oblique":0.0,"style":"Standard","textgen":"0","alignh":"2","alignv":"0","interlin":-1.0,"Name":"213/58"},"geometry":{"type":"Point","coordinates":[52.432449736119857,29.832045248043279]}},{"type":"Feature","properties":{"fid":234.0,"handle":"6523","block":"-1","etype":"25","space":"0","layer":"masahat","olinetype":"bylayer","linetype":null,"color":"0,0,255,255","ocolor":"5","color24":"-1","transparen":"0","lweight":"-1","linewidth":0.0,"ltscale":1.0,"visible":"1","thickness":0.0,"ext":"(3:0,0,1)","height":1.3,"text":"88/002","angle":58.50992,"widthscale":1.0,"oblique":0.0,"style":"Standard","textgen":"0","alignh":"2","alignv":"0","interlin":-1.0,"Name":"200/88"},"geometry":{"type":"Point","coordinates":[52.432377728319807,29.831972011244005]}},{"type":"Feature","properties":{"fid":235.0,"handle":"6524","block":"-1","etype":"25","space":"0","layer":"masahat","olinetype":"bylayer","linetype":null,"color":"0,0,255,255","ocolor":"5","color24":"-1","transparen":"0","lweight":"-1","linewidth":0.0,"ltscale":1.0,"visible":"1","thickness":0.0,"ext":"(3:0,0,1)","height":1.3,"text":"55/602","angle":56.91402,"widthscale":1.0,"oblique":0.0,"style":"Standard","textgen":"0","alignh":"2","alignv":"0","interlin":-1.0,"Name":"206/55"},"geometry":{"type":"Point","coordinates":[52.432311803274587,29.831908206609249]}},{"type":"Feature","properties":{"fid":236.0,"handle":"6525","block":"-1","etype":"25","space":"0","layer":"masahat","olinetype":"bylayer","linetype":null,"color":"0,0,255,255","ocolor":"5","color24":"-1","transparen":"0","lweight":"-1","linewidth":0.0,"ltscale":1.0,"visible":"1","thickness":0.0,"ext":"(3:0,0,1)","height":1.3,"text":"47/712","angle":51.51581,"widthscale":1.0,"oblique":0.0,"style":"Standard","textgen":"0","alignh":"2","alignv":"0","interlin":-1.0,"Name":"217/74"},"geometry":{"type":"Point","coordinates":[52.432246521516603,29.83184554812264]}},{"type":"Feature","properties":{"fid":237.0,"handle":"6526","block":"-1","etype":"25","space":"0","layer":"masahat","olinetype":"bylayer","linetype":null,"color":"0,0,255,255","ocolor":"5","color24":"-1","transparen":"0","lweight":"-1","linewidth":0.0,"ltscale":1.0,"visible":"1","thickness":0.0,"ext":"(3:0,0,1)","height":1.3,"text":"07/642","angle":42.20616,"widthscale":1.0,"oblique":0.0,"style":"Standard","textgen":"0","alignh":"2","alignv":"0","interlin":-1.0,"Name":"246/70"},"geometry":{"type":"Point","coordinates":[52.432161065495286,29.831767318459658]}},{"type":"Feature","properties":{"fid":238.0,"handle":"6527","block":"-1","etype":"25","space":"0","layer":"masahat","olinetype":"bylayer","linetype":null,"color":"0,0,255,255","ocolor":"5","color24":"-1","transparen":"0","lweight":"-1","linewidth":0.0,"ltscale":1.0,"visible":"1","thickness":0.0,"ext":"(3:0,0,1)","height":1.3,"text":"27/712","angle":38.7871,"widthscale":1.0,"oblique":0.0,"style":"Standard","textgen":"0","alignh":"2","alignv":"0","interlin":-1.0,"Name":"217/72"},"geometry":{"type":"Point","coordinates":[52.432075109502179,29.831705276208808]}},{"type":"Feature","properties":{"fid":239.0,"handle":"6528","block":"-1","etype":"25","space":"0","layer":"masahat","olinetype":"bylayer","linetype":null,"color":"0,0,255,255","ocolor":"5","color24":"-1","transparen":"0","lweight":"-1","linewidth":0.0,"ltscale":1.0,"visible":"1","thickness":0.0,"ext":"(3:0,0,1)","height":1.3,"text":"80/212","angle":40.02671,"widthscale":1.0,"oblique":0.0,"style":"Standard","textgen":"0","alignh":"2","alignv":"0","interlin":-1.0,"Name":"212/08"},"geometry":{"type":"Point","coordinates":[52.431991992266447,29.83165654517795]}},{"type":"Feature","properties":{"fid":240.0,"handle":"6529","block":"-1","etype":"25","space":"0","layer":"masahat","olinetype":"bylayer","linetype":null,"color":"0,0,255,255","ocolor":"5","color24":"-1","transparen":"0","lweight":"-1","linewidth":0.0,"ltscale":1.0,"visible":"1","thickness":0.0,"ext":"(3:0,0,1)","height":1.3,"text":"67/512","angle":30.08245,"widthscale":1.0,"oblique":0.0,"style":"Standard","textgen":"0","alignh":"2","alignv":"0","interlin":-1.0,"Name":"215/76"},"geometry":{"type":"Point","coordinates":[52.431897941417489,29.831601658119951]}},{"type":"Feature","properties":{"fid":241.0,"handle":"6530","block":"-1","etype":"25","space":"0","layer":"masahat","olinetype":"bylayer","linetype":null,"color":"0,0,255,255","ocolor":"5","color24":"-1","transparen":"0","lweight":"-1","linewidth":0.0,"ltscale":1.0,"visible":"1","thickness":0.0,"ext":"(3:0,0,1)","height":1.3,"text":"62/822","angle":22.43152,"widthscale":1.0,"oblique":0.0,"style":"Standard","textgen":"0","alignh":"2","alignv":"0","interlin":-1.0,"Name":"228/26"},"geometry":{"type":"Point","coordinates":[52.431791686296272,29.831554775448424]}},{"type":"Feature","properties":{"fid":242.0,"handle":"6531","block":"-1","etype":"25","space":"0","layer":"masahat","olinetype":"bylayer","linetype":null,"color":"0,0,255,255","ocolor":"5","color24":"-1","transparen":"0","lweight":"-1","linewidth":0.0,"ltscale":1.0,"visible":"1","thickness":0.0,"ext":"(3:0,0,1)","height":1.3,"text":"21/652","angle":15.13865,"widthscale":1.0,"oblique":0.0,"style":"Standard","textgen":"0","alignh":"2","alignv":"0","interlin":-1.0,"Name":"256/12"},"geometry":{"type":"Point","coordinates":[52.431650604830885,29.831490742028908]}},{"type":"Feature","properties":{"fid":243.0,"handle":"6532","block":"-1","etype":"25","space":"0","layer":"masahat","olinetype":"bylayer","linetype":null,"color":"0,0,255,255","ocolor":"5","color24":"-1","transparen":"0","lweight":"-1","linewidth":0.0,"ltscale":1.0,"visible":"1","thickness":0.0,"ext":"(3:0,0,1)","height":1.3,"text":"77/482","angle":2.28518,"widthscale":1.0,"oblique":0.0,"style":"Standard","textgen":"0","alignh":"2","alignv":"0","interlin":-1.0,"Name":"284/77"},"geometry":{"type":"Point","coordinates":[52.431508845845116,29.831468252167877]}},{"type":"Feature","properties":{"fid":244.0,"handle":"6533","block":"-1","etype":"25","space":"0","layer":"masahat","olinetype":"bylayer","linetype":null,"color":"0,0,255,255","ocolor":"5","color24":"-1","transparen":"0","lweight":"-1","linewidth":0.0,"ltscale":1.0,"visible":"1","thickness":0.0,"ext":"(3:0,0,1)","height":1.3,"text":"84/762","angle":355.6779,"widthscale":1.0,"oblique":0.0,"style":"Standard","textgen":"0","alignh":"2","alignv":"0","interlin":-1.0,"Name":"267/48"},"geometry":{"type":"Point","coordinates":[52.43138588471551,29.831479432086898]}},{"type":"Feature","properties":{"fid":245.0,"handle":"6534","block":"-1","etype":"25","space":"0","layer":"masahat","olinetype":"bylayer","linetype":null,"color":"0,0,255,255","ocolor":"5","color24":"-1","transparen":"0","lweight":"-1","linewidth":0.0,"ltscale":1.0,"visible":"1","thickness":0.0,"ext":"(3:0,0,1)","height":1.3,"text":"39/452","angle":336.85053,"widthscale":1.0,"oblique":0.0,"style":"Standard","textgen":"0","alignh":"2","alignv":"0","interlin":-1.0,"Name":"254/93"},"geometry":{"type":"Point","coordinates":[52.431128643559049,29.831534840395875]}},{"type":"Feature","properties":{"fid":246.0,"handle":"6535","block":"-1","etype":"25","space":"0","layer":"masahat","olinetype":"bylayer","linetype":null,"color":"0,0,255,255","ocolor":"5","color24":"-1","transparen":"0","lweight":"-1","linewidth":0.0,"ltscale":1.0,"visible":"1","thickness":0.0,"ext":"(3:0,0,1)","height":1.3,"text":"49/932","angle":330.85433,"widthscale":1.0,"oblique":0.0,"style":"Standard","textgen":"0","alignh":"2","alignv":"0","interlin":-1.0,"Name":"239/94"},"geometry":{"type":"Point","coordinates":[52.431044131439251,29.831597154379445]}},{"type":"Feature","properties":{"fid":247.0,"handle":"6536","block":"-1","etype":"25","space":"0","layer":"masahat","olinetype":"bylayer","linetype":null,"color":"0,0,255,255","ocolor":"5","color24":"-1","transparen":"0","lweight":"-1","linewidth":0.0,"ltscale":1.0,"visible":"1","thickness":0.0,"ext":"(3:0,0,1)","height":1.3,"text":"77/791","angle":317.04858,"widthscale":1.0,"oblique":0.0,"style":"Standard","textgen":"0","alignh":"2","alignv":"0","interlin":-1.0,"Name":"197/77"},"geometry":{"type":"Point","coordinates":[52.430978203772753,29.831671403389787]}},{"type":"Feature","properties":{"fid":248.0,"handle":"6537","block":"-1","etype":"25","space":"0","layer":"masahat","olinetype":"bylayer","linetype":null,"color":"0,0,255,255","ocolor":"5","color24":"-1","transparen":"0","lweight":"-1","linewidth":0.0,"ltscale":1.0,"visible":"1","thickness":0.0,"ext":"(3:0,0,1)","height":1.3,"text":"62/562","angle":347.58899,"widthscale":1.0,"oblique":0.0,"style":"Standard","textgen":"0","alignh":"2","alignv":"0","interlin":-1.0,"Name":"265/26"},"geometry":{"type":"Point","coordinates":[52.431283332909963,29.831514099917424]}},{"type":"Feature","properties":{"fid":249.0,"handle":"6538","block":"-1","etype":"25","space":"0","layer":"masahat","olinetype":"bylayer","linetype":null,"color":"0,0,255,255","ocolor":"5","color24":"-1","transparen":"0","lweight":"-1","linewidth":0.0,"ltscale":1.0,"visible":"1","thickness":0.0,"ext":"(3:0,0,1)","height":1.3,"text":"64/112","angle":15.74526,"widthscale":1.0,"oblique":0.0,"style":"Standard","textgen":"0","alignh":"2","alignv":"0","interlin":-1.0,"Name":"211/46"},"geometry":{"type":"Point","coordinates":[52.430712866536496,29.831706971544335]}},{"type":"Feature","properties":{"fid":250.0,"handle":"6539","block":"-1","etype":"25","space":"0","layer":"masahat","olinetype":"bylayer","linetype":null,"color":"0,0,255,255","ocolor":"5","color24":"-1","transparen":"0","lweight":"-1","linewidth":0.0,"ltscale":1.0,"visible":"1","thickness":0.0,"ext":"(3:0,0,1)","height":1.3,"text":"31/222","angle":21.75464,"widthscale":1.0,"oblique":0.0,"style":"Standard","textgen":"0","alignh":"2","alignv":"0","interlin":-1.0,"Name":"222/13"},"geometry":{"type":"Point","coordinates":[52.430639826049635,29.831661058769928]}},{"type":"Feature","properties":{"fid":251.0,"handle":"6540","block":"-1","etype":"25","space":"0","layer":"masahat","olinetype":"bylayer","linetype":null,"color":"0,0,255,255","ocolor":"5","color24":"-1","transparen":"0","lweight":"-1","linewidth":0.0,"ltscale":1.0,"visible":"1","thickness":0.0,"ext":"(3:0,0,1)","height":1.3,"text":"55/922","angle":14.96116,"widthscale":1.0,"oblique":0.0,"style":"Standard","textgen":"0","alignh":"2","alignv":"0","interlin":-1.0,"Name":"229/55"},"geometry":{"type":"Point","coordinates":[52.43055280904774,29.831626505359118]}},{"type":"Feature","properties":{"fid":252.0,"handle":"6541","block":"-1","etype":"25","space":"0","layer":"masahat","olinetype":"bylayer","linetype":null,"color":"0,0,255,255","ocolor":"5","color24":"-1","transparen":"0","lweight":"-1","linewidth":0.0,"ltscale":1.0,"visible":"1","thickness":0.0,"ext":"(3:0,0,1)","height":1.3,"text":"82/512","angle":13.02542,"widthscale":1.0,"oblique":0.0,"style":"Standard","textgen":"0","alignh":"2","alignv":"0","interlin":-1.0,"Name":"215/28"},"geometry":{"type":"Point","coordinates":[52.430435061035027,29.831580622227584]}},{"type":"Feature","properties":{"fid":253.0,"handle":"6542","block":"-1","etype":"25","space":"0","layer":"masahat","olinetype":"bylayer","linetype":null,"color":"0,0,255,255","ocolor":"5","color24":"-1","transparen":"0","lweight":"-1","linewidth":0.0,"ltscale":1.0,"visible":"1","thickness":0.0,"ext":"(3:0,0,1)","height":1.3,"text":"58/522","angle":7.1083,"widthscale":1.0,"oblique":0.0,"style":"Standard","textgen":"0","alignh":"2","alignv":"0","interlin":-1.0,"Name":"225/85"},"geometry":{"type":"Point","coordinates":[52.430333602381104,29.831567643399264]}},{"type":"Feature","properties":{"fid":254.0,"handle":"6543","block":"-1","etype":"25","space":"0","layer":"masahat","olinetype":"bylayer","linetype":null,"color":"0,0,255,255","ocolor":"5","color24":"-1","transparen":"0","lweight":"-1","linewidth":0.0,"ltscale":1.0,"visible":"1","thickness":0.0,"ext":"(3:0,0,1)","height":1.3,"text":"85/871","angle":354.00513,"widthscale":1.0,"oblique":0.0,"style":"Standard","textgen":"0","alignh":"2","alignv":"0","interlin":-1.0,"Name":"178/58"},"geometry":{"type":"Point","coordinates":[52.430200523357101,29.831575247637634]}},{"type":"Feature","properties":{"fid":255.0,"handle":"6544","block":"-1","etype":"25","space":"0","layer":"masahat","olinetype":"bylayer","linetype":null,"color":"0,0,255,255","ocolor":"5","color24":"-1","transparen":"0","lweight":"-1","linewidth":0.0,"ltscale":1.0,"visible":"1","thickness":0.0,"ext":"(3:0,0,1)","height":1.3,"text":"78/061","angle":354.81782,"widthscale":1.0,"oblique":0.0,"style":"Standard","textgen":"0","alignh":"2","alignv":"0","interlin":-1.0,"Name":"160/87"},"geometry":{"type":"Point","coordinates":[52.430111850377301,29.831575537060044]}},{"type":"Feature","properties":{"fid":256.0,"handle":"6545","block":"-1","etype":"25","space":"0","layer":"masahat","olinetype":"bylayer","linetype":null,"color":"0,0,255,255","ocolor":"5","color24":"-1","transparen":"0","lweight":"-1","linewidth":0.0,"ltscale":1.0,"visible":"1","thickness":0.0,"ext":"(3:0,0,1)","height":1.3,"text":"75/002","angle":347.10357,"widthscale":1.0,"oblique":0.0,"style":"Standard","textgen":"0","alignh":"2","alignv":"0","interlin":-1.0,"Name":"200/57"},"geometry":{"type":"Point","coordinates":[52.43001101253504,29.831561762373436]}},{"type":"Feature","properties":{"fid":257.0,"handle":"6570","block":"-1","etype":"25","space":"0","layer":"masahat","olinetype":"bylayer","linetype":null,"color":"0,0,255,255","ocolor":"5","color24":"-1","transparen":"0","lweight":"-1","linewidth":0.0,"ltscale":1.0,"visible":"1","thickness":0.0,"ext":"(3:0,0,1)","height":1.3,"text":"26/832","angle":354.06709,"widthscale":1.0,"oblique":0.0,"style":"Standard","textgen":"0","alignh":"2","alignv":"0","interlin":-1.0,"Name":"238/62"},"geometry":{"type":"Point","coordinates":[52.43041224642581,29.831364634844284]}},{"type":"Feature","properties":{"fid":258.0,"handle":"6571","block":"-1","etype":"25","space":"0","layer":"masahat","olinetype":"bylayer","linetype":null,"color":"0,0,255,255","ocolor":"5","color24":"-1","transparen":"0","lweight":"-1","linewidth":0.0,"ltscale":1.0,"visible":"1","thickness":0.0,"ext":"(3:0,0,1)","height":1.3,"text":"54/712","angle":7.78194,"widthscale":1.0,"oblique":0.0,"style":"Standard","textgen":"0","alignh":"2","alignv":"0","interlin":-1.0,"Name":"217/45"},"geometry":{"type":"Point","coordinates":[52.430563237970702,29.831325607402889]}},{"type":"Feature","properties":{"fid":259.0,"handle":"6572","block":"-1","etype":"25","space":"0","layer":"masahat","olinetype":"bylayer","linetype":null,"color":"0,0,255,255","ocolor":"5","color24":"-1","transparen":"0","lweight":"-1","linewidth":0.0,"ltscale":1.0,"visible":"1","thickness":0.0,"ext":"(3:0,0,1)","height":1.3,"text":"68/522","angle":13.26821,"widthscale":1.0,"oblique":0.0,"style":"Standard","textgen":"0","alignh":"2","alignv":"0","interlin":-1.0,"Name":"225/86"},"geometry":{"type":"Point","coordinates":[52.43066163467725,29.831329759184598]}},{"type":"Feature","properties":{"fid":260.0,"handle":"6573","block":"-1","etype":"25","space":"0","layer":"masahat","olinetype":"bylayer","linetype":null,"color":"0,0,255,255","ocolor":"5","color24":"-1","transparen":"0","lweight":"-1","linewidth":0.0,"ltscale":1.0,"visible":"1","thickness":0.0,"ext":"(3:0,0,1)","height":1.3,"text":"75/472","angle":0.0,"widthscale":1.0,"oblique":0.0,"style":"Standard","textgen":"0","alignh":"2","alignv":"0","interlin":-1.0,"Name":"274/57"},"geometry":{"type":"Point","coordinates":[52.430738591204353,29.831349963486961]}},{"type":"Feature","properties":{"fid":261.0,"handle":"6574","block":"-1","etype":"25","space":"0","layer":"masahat","olinetype":"bylayer","linetype":null,"color":"0,0,255,255","ocolor":"5","color24":"-1","transparen":"0","lweight":"-1","linewidth":0.0,"ltscale":1.0,"visible":"1","thickness":0.0,"ext":"(3:0,0,1)","height":1.3,"text":"95/752","angle":333.27575,"widthscale":1.0,"oblique":0.0,"style":"Standard","textgen":"0","alignh":"2","alignv":"0","interlin":-1.0,"Name":"257/59"},"geometry":{"type":"Point","coordinates":[52.430951492223329,29.831384119700317]}},{"type":"Feature","properties":{"fid":262.0,"handle":"6575","block":"-1","etype":"25","space":"0","layer":"masahat","olinetype":"bylayer","linetype":null,"color":"0,0,255,255","ocolor":"5","color24":"-1","transparen":"0","lweight":"-1","linewidth":0.0,"ltscale":1.0,"visible":"1","thickness":0.0,"ext":"(3:0,0,1)","height":1.3,"text":"76/052","angle":335.85752,"widthscale":1.0,"oblique":0.0,"style":"Standard","textgen":"0","alignh":"2","alignv":"0","interlin":-1.0,"Name":"250/67"},"geometry":{"type":"Point","coordinates":[52.431021679315137,29.831330963994635]}},{"type":"Feature","properties":{"fid":263.0,"handle":"6576","block":"-1","etype":"25","space":"0","layer":"masahat","olinetype":"bylayer","linetype":null,"color":"0,0,255,255","ocolor":"5","color24":"-1","transparen":"0","lweight":"-1","linewidth":0.0,"ltscale":1.0,"visible":"1","thickness":0.0,"ext":"(3:0,0,1)","height":1.3,"text":"91/482","angle":342.13522,"widthscale":1.0,"oblique":0.0,"style":"Standard","textgen":"0","alignh":"2","alignv":"0","interlin":-1.0,"Name":"284/19"},"geometry":{"type":"Point","coordinates":[52.431113798612074,29.831280733369834]}},{"type":"Feature","properties":{"fid":264.0,"handle":"6577","block":"-1","etype":"25","space":"0","layer":"masahat","olinetype":"bylayer","linetype":null,"color":"0,0,255,255","ocolor":"5","color24":"-1","transparen":"0","lweight":"-1","linewidth":0.0,"ltscale":1.0,"visible":"1","thickness":0.0,"ext":"(3:0,0,1)","height":1.3,"text":"65/672","angle":342.98117,"widthscale":1.0,"oblique":0.0,"style":"Standard","textgen":"0","alignh":"2","alignv":"0","interlin":-1.0,"Name":"276/56"},"geometry":{"type":"Point","coordinates":[52.431224144816227,29.831226817478747]}},{"type":"Feature","properties":{"fid":265.0,"handle":"6578","block":"-1","etype":"25","space":"0","layer":"masahat","olinetype":"bylayer","linetype":null,"color":"0,0,255,255","ocolor":"5","color24":"-1","transparen":"0","lweight":"-1","linewidth":0.0,"ltscale":1.0,"visible":"1","thickness":0.0,"ext":"(3:0,0,1)","height":1.3,"text":"28/582","angle":354.41383,"widthscale":1.0,"oblique":0.0,"style":"Standard","textgen":"0","alignh":"2","alignv":"0","interlin":-1.0,"Name":"285/82"},"geometry":{"type":"Point","coordinates":[52.431333209895797,29.831193268937355]}},{"type":"Feature","properties":{"fid":266.0,"handle":"6579","block":"-1","etype":"25","space":"0","layer":"masahat","olinetype":"bylayer","linetype":null,"color":"0,0,255,255","ocolor":"5","color24":"-1","transparen":"0","lweight":"-1","linewidth":0.0,"ltscale":1.0,"visible":"1","thickness":0.0,"ext":"(3:0,0,1)","height":1.3,"text":"60/762","angle":6.75031,"widthscale":1.0,"oblique":0.0,"style":"Standard","textgen":"0","alignh":"2","alignv":"0","interlin":-1.0,"Name":"267/06"},"geometry":{"type":"Point","coordinates":[52.431521310885358,29.831207082473604]}},{"type":"Feature","properties":{"fid":267.0,"handle":"6580","block":"-1","etype":"25","space":"0","layer":"masahat","olinetype":"bylayer","linetype":null,"color":"0,0,255,255","ocolor":"5","color24":"-1","transparen":"0","lweight":"-1","linewidth":0.0,"ltscale":1.0,"visible":"1","thickness":0.0,"ext":"(3:0,0,1)","height":1.3,"text":"01/452","angle":10.81525,"widthscale":1.0,"oblique":0.0,"style":"Standard","textgen":"0","alignh":"2","alignv":"0","interlin":-1.0,"Name":"254/10"},"geometry":{"type":"Point","coordinates":[52.431631082003975,29.831209496310429]}},{"type":"Feature","properties":{"fid":268.0,"handle":"6581","block":"-1","etype":"25","space":"0","layer":"masahat","olinetype":"bylayer","linetype":null,"color":"0,0,255,255","ocolor":"5","color24":"-1","transparen":"0","lweight":"-1","linewidth":0.0,"ltscale":1.0,"visible":"1","thickness":0.0,"ext":"(3:0,0,1)","height":1.3,"text":"64/452","angle":18.81168,"widthscale":1.0,"oblique":0.0,"style":"Standard","textgen":"0","alignh":"2","alignv":"0","interlin":-1.0,"Name":"254/46"},"geometry":{"type":"Point","coordinates":[52.431742381391238,29.831208887247776]}},{"type":"Feature","properties":{"fid":269.0,"handle":"6582","block":"-1","etype":"25","space":"0","layer":"masahat","olinetype":"bylayer","linetype":null,"color":"0,0,255,255","ocolor":"5","color24":"-1","transparen":"0","lweight":"-1","linewidth":0.0,"ltscale":1.0,"visible":"1","thickness":0.0,"ext":"(3:0,0,1)","height":1.3,"text":"55/852","angle":30.00972,"widthscale":1.0,"oblique":0.0,"style":"Standard","textgen":"0","alignh":"2","alignv":"0","interlin":-1.0,"Name":"258/55"},"geometry":{"type":"Point","coordinates":[52.43183933475121,29.831253023766397]}},{"type":"Feature","properties":{"fid":270.0,"handle":"6583","block":"-1","etype":"25","space":"0","layer":"masahat","olinetype":"bylayer","linetype":null,"color":"0,0,255,255","ocolor":"5","color24":"-1","transparen":"0","lweight":"-1","linewidth":0.0,"ltscale":1.0,"visible":"1","thickness":0.0,"ext":"(3:0,0,1)","height":1.3,"text":"48/791","angle":32.59925,"widthscale":1.0,"oblique":0.0,"style":"Standard","textgen":"0","alignh":"2","alignv":"0","interlin":-1.0,"Name":"197/84"},"geometry":{"type":"Point","coordinates":[52.431930230097208,29.831295897432113]}},{"type":"Feature","properties":{"fid":271.0,"handle":"6584","block":"-1","etype":"25","space":"0","layer":"masahat","olinetype":"bylayer","linetype":null,"color":"0,0,255,255","ocolor":"5","color24":"-1","transparen":"0","lweight":"-1","linewidth":0.0,"ltscale":1.0,"visible":"1","thickness":0.0,"ext":"(3:0,0,1)","height":1.3,"text":"36/261","angle":37.62856,"widthscale":1.0,"oblique":0.0,"style":"Standard","textgen":"0","alignh":"2","alignv":"0","interlin":-1.0,"Name":"162/63"},"geometry":{"type":"Point","coordinates":[52.432013837370221,29.831348791221551]}},{"type":"Feature","properties":{"fid":272.0,"handle":"6585","block":"-1","etype":"25","space":"0","layer":"masahat","olinetype":"bylayer","linetype":null,"color":"0,0,255,255","ocolor":"5","color24":"-1","transparen":"0","lweight":"-1","linewidth":0.0,"ltscale":1.0,"visible":"1","thickness":0.0,"ext":"(3:0,0,1)","height":1.3,"text":"04/641","angle":44.19923,"widthscale":1.0,"oblique":0.0,"style":"Standard","textgen":"0","alignh":"2","alignv":"0","interlin":-1.0,"Name":"146/40"},"geometry":{"type":"Point","coordinates":[52.432076043166369,29.831408568787896]}},{"type":"Feature","properties":{"fid":315.0,"handle":"6629","block":"-1","etype":"25","space":"0","layer":"masahat","olinetype":"bylayer","linetype":null,"color":"0,0,255,255","ocolor":"5","color24":"-1","transparen":"0","lweight":"-1","linewidth":0.0,"ltscale":1.0,"visible":"1","thickness":0.0,"ext":"(3:0,0,1)","height":1.3,"text":"55/322","angle":266.04551,"widthscale":1.0,"oblique":0.0,"style":"Standard","textgen":"0","alignh":"2","alignv":"0","interlin":-1.0,"Name":"223/55"},"geometry":{"type":"Point","coordinates":[52.431405375894123,29.83309929599471]}},{"type":"Feature","properties":{"fid":436.0,"handle":"6752","block":"-1","etype":"25","space":"0","layer":"masahat","olinetype":"bylayer","linetype":null,"color":"0,0,255,255","ocolor":"5","color24":"-1","transparen":"0","lweight":"-1","linewidth":0.0,"ltscale":1.0,"visible":"1","thickness":0.0,"ext":"(3:0,0,1)","height":1.3,"text":"84/522","angle":332.232,"widthscale":1.0,"oblique":0.0,"style":"Standard","textgen":"0","alignh":"2","alignv":"0","interlin":-1.0,"Name":"225/48"},"geometry":{"type":"Point","coordinates":[52.431312345679551,29.8323763371544]}},{"type":"Feature","properties":{"fid":437.0,"handle":"6753","block":"-1","etype":"25","space":"0","layer":"masahat","olinetype":"bylayer","linetype":null,"color":"0,0,255,255","ocolor":"5","color24":"-1","transparen":"0","lweight":"-1","linewidth":0.0,"ltscale":1.0,"visible":"1","thickness":0.0,"ext":"(3:0,0,1)","height":1.3,"text":"80/113","angle":345.99565,"widthscale":1.0,"oblique":0.0,"style":"Standard","textgen":"0","alignh":"2","alignv":"0","interlin":-1.0,"Name":"311/08"},"geometry":{"type":"Point","coordinates":[52.431425374461284,29.832337446524445]}},{"type":"Feature","properties":{"fid":438.0,"handle":"6754","block":"-1","etype":"25","space":"0","layer":"masahat","olinetype":"bylayer","linetype":null,"color":"0,0,255,255","ocolor":"5","color24":"-1","transparen":"0","lweight":"-1","linewidth":0.0,"ltscale":1.0,"visible":"1","thickness":0.0,"ext":"(3:0,0,1)","height":1.3,"text":"24/523","angle":345.99569,"widthscale":1.0,"oblique":0.0,"style":"Standard","textgen":"0","alignh":"2","alignv":"0","interlin":-1.0,"Name":"325/42"},"geometry":{"type":"Point","coordinates":[52.431448910529859,29.832547961528007]}},{"type":"Feature","properties":{"fid":439.0,"handle":"6755","block":"-1","etype":"25","space":"0","layer":"masahat","olinetype":"bylayer","linetype":null,"color":"0,0,255,255","ocolor":"5","color24":"-1","transparen":"0","lweight":"-1","linewidth":0.0,"ltscale":1.0,"visible":"1","thickness":0.0,"ext":"(3:0,0,1)","height":1.3,"text":"51/903","angle":0.0,"widthscale":1.0,"oblique":0.0,"style":"Standard","textgen":"0","alignh":"2","alignv":"0","interlin":-1.0,"Name":"309/15"},"geometry":{"type":"Point","coordinates":[52.431550944403263,29.832328578407164]}},{"type":"Feature","properties":{"fid":650.0,"handle":"7021","block":"-1","etype":"25","space":"0","layer":"masahat","olinetype":"bylayer","linetype":null,"color":"0,0,255,255","ocolor":"5","color24":"-1","transparen":"0","lweight":"-1","linewidth":0.0,"ltscale":1.0,"visible":"1","thickness":0.0,"ext":"(3:0,0,1)","height":1.3,"text":"39/3201","angle":54.92107,"widthscale":1.0,"oblique":0.0,"style":"Standard","textgen":"0","alignh":"2","alignv":"0","interlin":-1.0,"Name":"1023/93"},"geometry":{"type":"Point","coordinates":[52.432090431074968,29.832243542832451]}},{"type":"Feature","properties":{"fid":651.0,"handle":"7022","block":"-1","etype":"25","space":"0","layer":"masahat","olinetype":"bylayer","linetype":null,"color":"0,0,255,255","ocolor":"5","color24":"-1","transparen":"0","lweight":"-1","linewidth":0.0,"ltscale":1.0,"visible":"1","thickness":0.0,"ext":"(3:0,0,1)","height":1.3,"text":"05/2461","angle":38.53292,"widthscale":1.0,"oblique":0.0,"style":"Standard","textgen":"0","alignh":"2","alignv":"0","interlin":-1.0,"Name":"1642/50"},"geometry":{"type":"Point","coordinates":[52.431823204079713,29.831985695707438]}},{"type":"Feature","properties":{"fid":652.0,"handle":"7023","block":"-1","etype":"25","space":"0","layer":"masahat","olinetype":"bylayer","linetype":null,"color":"0,0,255,255","ocolor":"5","color24":"-1","transparen":"0","lweight":"-1","linewidth":0.0,"ltscale":1.0,"visible":"1","thickness":0.0,"ext":"(3:0,0,1)","height":1.3,"text":"56/9581","angle":334.14387,"widthscale":1.0,"oblique":0.0,"style":"Standard","textgen":"0","alignh":"2","alignv":"0","interlin":-1.0,"Name":"1859/65"},"geometry":{"type":"Point","coordinates":[52.431335945245259,29.831936238095626]}},{"type":"Feature","properties":{"fid":653.0,"handle":"7024","block":"-1","etype":"25","space":"0","layer":"masahat","olinetype":"bylayer","linetype":null,"color":"0,0,255,255","ocolor":"5","color24":"-1","transparen":"0","lweight":"-1","linewidth":0.0,"ltscale":1.0,"visible":"1","thickness":0.0,"ext":"(3:0,0,1)","height":1.3,"text":"07/4601","angle":16.7766,"widthscale":1.0,"oblique":0.0,"style":"Standard","textgen":"0","alignh":"2","alignv":"0","interlin":-1.0,"Name":"1064/70"},"geometry":{"type":"Point","coordinates":[52.430580800277156,29.832019444644708]}},{"type":"Feature","properties":{"fid":814.0,"handle":"7451","block":"-1","etype":"25","space":"0","layer":"masahat","olinetype":"bylayer","linetype":null,"color":"0,0,255,255","ocolor":"5","color24":"-1","transparen":"0","lweight":"-1","linewidth":0.0,"ltscale":1.0,"visible":"1","thickness":0.0,"ext":"(3:0,0,1)","height":1.3,"text":"00/891","angle":334.26374,"widthscale":1.0,"oblique":0.0,"style":"Standard","textgen":"0","alignh":"2","alignv":"0","interlin":-1.0,"Name":"198/00"},"geometry":{"type":"Point","coordinates":[52.433455265718209,29.830734188832103]}},{"type":"Feature","properties":{"fid":815.0,"handle":"7453","block":"-1","etype":"25","space":"0","layer":"masahat","olinetype":"bylayer","linetype":null,"color":"0,0,255,255","ocolor":"5","color24":"-1","transparen":"0","lweight":"-1","linewidth":0.0,"ltscale":1.0,"visible":"1","thickness":0.0,"ext":"(3:0,0,1)","height":1.3,"text":"45/391","angle":334.26374,"widthscale":1.0,"oblique":0.0,"style":"Standard","textgen":"0","alignh":"2","alignv":"0","interlin":-1.0,"Name":"193/54"},"geometry":{"type":"Point","coordinates":[52.433366944771315,29.830509583779232]}},{"type":"Feature","properties":{"fid":816.0,"handle":"7454","block":"-1","etype":"25","space":"0","layer":"masahat","olinetype":"bylayer","linetype":null,"color":"0,0,255,255","ocolor":"5","color24":"-1","transparen":"0","lweight":"-1","linewidth":0.0,"ltscale":1.0,"visible":"1","thickness":0.0,"ext":"(3:0,0,1)","height":1.3,"text":"05/522","angle":334.26374,"widthscale":1.0,"oblique":0.0,"style":"Standard","textgen":"0","alignh":"2","alignv":"0","interlin":-1.0,"Name":"225/50"},"geometry":{"type":"Point","coordinates":[52.433450084568911,29.830445900342102]}},{"type":"Feature","properties":{"fid":817.0,"handle":"7455","block":"-1","etype":"25","space":"0","layer":"masahat","olinetype":"bylayer","linetype":null,"color":"0,0,255,255","ocolor":"5","color24":"-1","transparen":"0","lweight":"-1","linewidth":0.0,"ltscale":1.0,"visible":"1","thickness":0.0,"ext":"(3:0,0,1)","height":1.3,"text":"00/132","angle":334.26374,"widthscale":1.0,"oblique":0.0,"style":"Standard","textgen":"0","alignh":"2","alignv":"0","interlin":-1.0,"Name":"231/00"},"geometry":{"type":"Point","coordinates":[52.433407152157272,29.830198439300808]}},{"type":"Feature","properties":{"fid":818.0,"handle":"7456","block":"-1","etype":"25","space":"0","layer":"masahat","olinetype":"bylayer","linetype":null,"color":"0,0,255,255","ocolor":"5","color24":"-1","transparen":"0","lweight":"-1","linewidth":0.0,"ltscale":1.0,"visible":"1","thickness":0.0,"ext":"(3:0,0,1)","height":1.3,"text":"00/132","angle":334.26374,"widthscale":1.0,"oblique":0.0,"style":"Standard","textgen":"0","alignh":"2","alignv":"0","interlin":-1.0,"Name":"231/00"},"geometry":{"type":"Point","coordinates":[52.43331837808843,29.830241520574585]}},{"type":"Feature","properties":{"fid":819.0,"handle":"7457","block":"-1","etype":"25","space":"0","layer":"masahat","olinetype":"bylayer","linetype":null,"color":"0,0,255,255","ocolor":"5","color24":"-1","transparen":"0","lweight":"-1","linewidth":0.0,"ltscale":1.0,"visible":"1","thickness":0.0,"ext":"(3:0,0,1)","height":1.3,"text":"00/781","angle":334.26374,"widthscale":1.0,"oblique":0.0,"style":"Standard","textgen":"0","alignh":"2","alignv":"0","interlin":-1.0,"Name":"187/00"},"geometry":{"type":"Point","coordinates":[52.433214542061819,29.830288663249682]}},{"type":"Feature","properties":{"fid":820.0,"handle":"7458","block":"-1","etype":"25","space":"0","layer":"masahat","olinetype":"bylayer","linetype":null,"color":"0,0,255,255","ocolor":"5","color24":"-1","transparen":"0","lweight":"-1","linewidth":0.0,"ltscale":1.0,"visible":"1","thickness":0.0,"ext":"(3:0,0,1)","height":1.3,"text":"80/381","angle":332.78339,"widthscale":1.0,"oblique":0.0,"style":"Standard","textgen":"0","alignh":"2","alignv":"0","interlin":-1.0,"Name":"183/08"},"geometry":{"type":"Point","coordinates":[52.433128046741039,29.830319661759756]}},{"type":"Feature","properties":{"fid":821.0,"handle":"7459","block":"-1","etype":"25","space":"0","layer":"masahat","olinetype":"bylayer","linetype":null,"color":"0,0,255,255","ocolor":"5","color24":"-1","transparen":"0","lweight":"-1","linewidth":0.0,"ltscale":1.0,"visible":"1","thickness":0.0,"ext":"(3:0,0,1)","height":1.3,"text":"70/302","angle":334.24187,"widthscale":1.0,"oblique":0.0,"style":"Standard","textgen":"0","alignh":"2","alignv":"0","interlin":-1.0,"Name":"203/07"},"geometry":{"type":"Point","coordinates":[52.432947839747683,29.830334307881994]}},{"type":"Feature","properties":{"fid":834.0,"handle":"7493","block":"-1","etype":"25","space":"0","layer":"masahat","olinetype":"bylayer","linetype":null,"color":"0,0,255,255","ocolor":"5","color24":"-1","transparen":"0","lweight":"-1","linewidth":0.0,"ltscale":1.0,"visible":"1","thickness":0.0,"ext":"(3:0,0,1)","height":1.3,"text":"51/691","angle":334.26374,"widthscale":1.0,"oblique":0.0,"style":"Standard","textgen":"0","alignh":"2","alignv":"0","interlin":-1.0,"Name":"196/15"},"geometry":{"type":"Point","coordinates":[52.4345034349098,29.829919257954689]}},{"type":"Feature","properties":{"fid":835.0,"handle":"7495","block":"-1","etype":"25","space":"0","layer":"masahat","olinetype":"bylayer","linetype":null,"color":"0,0,255,255","ocolor":"5","color24":"-1","transparen":"0","lweight":"-1","linewidth":0.0,"ltscale":1.0,"visible":"1","thickness":0.0,"ext":"(3:0,0,1)","height":1.3,"text":"05/852","angle":334.26374,"widthscale":1.0,"oblique":0.0,"style":"Standard","textgen":"0","alignh":"2","alignv":"0","interlin":-1.0,"Name":"258/50"},"geometry":{"type":"Point","coordinates":[52.434495815231088,29.829695387576731]}},{"type":"Feature","properties":{"fid":984.0,"handle":"7984","block":"-1","etype":"25","space":"0","layer":"masahat","olinetype":"bylayer","linetype":null,"color":"0,0,255,255","ocolor":"5","color24":"-1","transparen":"0","lweight":"-1","linewidth":0.0,"ltscale":1.0,"visible":"1","thickness":0.0,"ext":"(3:0,0,1)","height":1.3,"text":"37/402","angle":334.26374,"widthscale":1.0,"oblique":0.0,"style":"Standard","textgen":"0","alignh":"2","alignv":"0","interlin":-1.0,"Name":"204/73"},"geometry":{"type":"Point","coordinates":[52.433674423213589,29.831194608287198]}},{"type":"Feature","properties":{"fid":985.0,"handle":"7985","block":"-1","etype":"25","space":"0","layer":"masahat","olinetype":"bylayer","linetype":null,"color":"0,0,255,255","ocolor":"5","color24":"-1","transparen":"0","lweight":"-1","linewidth":0.0,"ltscale":1.0,"visible":"1","thickness":0.0,"ext":"(3:0,0,1)","height":1.3,"text":"00/341","angle":334.26374,"widthscale":1.0,"oblique":0.0,"style":"Standard","textgen":"0","alignh":"2","alignv":"0","interlin":-1.0,"Name":"143/00"},"geometry":{"type":"Point","coordinates":[52.433753636297872,29.831159444180823]}},{"type":"Feature","properties":{"fid":986.0,"handle":"7986","block":"-1","etype":"25","space":"0","layer":"masahat","olinetype":"bylayer","linetype":null,"color":"0,0,255,255","ocolor":"5","color24":"-1","transparen":"0","lweight":"-1","linewidth":0.0,"ltscale":1.0,"visible":"1","thickness":0.0,"ext":"(3:0,0,1)","height":1.3,"text":"00/242","angle":334.26374,"widthscale":1.0,"oblique":0.0,"style":"Standard","textgen":"0","alignh":"2","alignv":"0","interlin":-1.0,"Name":"242/00"},"geometry":{"type":"Point","coordinates":[52.433815307833108,29.830833705799993]}},{"type":"Feature","properties":{"fid":987.0,"handle":"7987","block":"-1","etype":"25","space":"0","layer":"masahat","olinetype":"bylayer","linetype":null,"color":"0,0,255,255","ocolor":"5","color24":"-1","transparen":"0","lweight":"-1","linewidth":0.0,"ltscale":1.0,"visible":"1","thickness":0.0,"ext":"(3:0,0,1)","height":1.3,"text":"00/242","angle":334.26374,"widthscale":1.0,"oblique":0.0,"style":"Standard","textgen":"0","alignh":"2","alignv":"0","interlin":-1.0,"Name":"242/00"},"geometry":{"type":"Point","coordinates":[52.433726533680492,29.830876787018056]}},{"type":"Feature","properties":{"fid":988.0,"handle":"7988","block":"-1","etype":"25","space":"0","layer":"masahat","olinetype":"bylayer","linetype":null,"color":"0,0,255,255","ocolor":"5","color24":"-1","transparen":"0","lweight":"-1","linewidth":0.0,"ltscale":1.0,"visible":"1","thickness":0.0,"ext":"(3:0,0,1)","height":1.3,"text":"00/022","angle":334.26374,"widthscale":1.0,"oblique":0.0,"style":"Standard","textgen":"0","alignh":"2","alignv":"0","interlin":-1.0,"Name":"220/00"},"geometry":{"type":"Point","coordinates":[52.433638806633304,29.830921740351656]}},{"type":"Feature","properties":{"fid":989.0,"handle":"7989","block":"-1","etype":"25","space":"0","layer":"masahat","olinetype":"bylayer","linetype":null,"color":"0,0,255,255","ocolor":"5","color24":"-1","transparen":"0","lweight":"-1","linewidth":0.0,"ltscale":1.0,"visible":"1","thickness":0.0,"ext":"(3:0,0,1)","height":1.3,"text":"48/122","angle":334.26374,"widthscale":1.0,"oblique":0.0,"style":"Standard","textgen":"0","alignh":"2","alignv":"0","interlin":-1.0,"Name":"221/84"},"geometry":{"type":"Point","coordinates":[52.433900455707459,29.830793416320532]}},{"type":"Feature","properties":{"fid":990.0,"handle":"7990","block":"-1","etype":"25","space":"0","layer":"masahat","olinetype":"bylayer","linetype":null,"color":"0,0,255,255","ocolor":"5","color24":"-1","transparen":"0","lweight":"-1","linewidth":0.0,"ltscale":1.0,"visible":"1","thickness":0.0,"ext":"(3:0,0,1)","height":1.3,"text":"00/442","angle":334.26374,"widthscale":1.0,"oblique":0.0,"style":"Standard","textgen":"0","alignh":"2","alignv":"0","interlin":-1.0,"Name":"244/00"},"geometry":{"type":"Point","coordinates":[52.433998388046021,29.830703628954449]}},{"type":"Feature","properties":{"fid":991.0,"handle":"7991","block":"-1","etype":"25","space":"0","layer":"masahat","olinetype":"bylayer","linetype":null,"color":"0,0,255,255","ocolor":"5","color24":"-1","transparen":"0","lweight":"-1","linewidth":0.0,"ltscale":1.0,"visible":"1","thickness":0.0,"ext":"(3:0,0,1)","height":1.3,"text":"00/242","angle":334.26374,"widthscale":1.0,"oblique":0.0,"style":"Standard","textgen":"0","alignh":"2","alignv":"0","interlin":-1.0,"Name":"242/00"},"geometry":{"type":"Point","coordinates":[52.433621496756039,29.830657418330059]}},{"type":"Feature","properties":{"fid":992.0,"handle":"7992","block":"-1","etype":"25","space":"0","layer":"masahat","olinetype":"bylayer","linetype":null,"color":"0,0,255,255","ocolor":"5","color24":"-1","transparen":"0","lweight":"-1","linewidth":0.0,"ltscale":1.0,"visible":"1","thickness":0.0,"ext":"(3:0,0,1)","height":1.3,"text":"00/242","angle":334.26374,"widthscale":1.0,"oblique":0.0,"style":"Standard","textgen":"0","alignh":"2","alignv":"0","interlin":-1.0,"Name":"242/00"},"geometry":{"type":"Point","coordinates":[52.433710270882948,29.830614337091415]}},{"type":"Feature","properties":{"fid":993.0,"handle":"7993","block":"-1","etype":"25","space":"0","layer":"masahat","olinetype":"bylayer","linetype":null,"color":"0,0,255,255","ocolor":"5","color24":"-1","transparen":"0","lweight":"-1","linewidth":0.0,"ltscale":1.0,"visible":"1","thickness":0.0,"ext":"(3:0,0,1)","height":1.3,"text":"00/242","angle":334.26374,"widthscale":1.0,"oblique":0.0,"style":"Standard","textgen":"0","alignh":"2","alignv":"0","interlin":-1.0,"Name":"242/00"},"geometry":{"type":"Point","coordinates":[52.433799045018176,29.830571255842226]}},{"type":"Feature","properties":{"fid":994.0,"handle":"7995","block":"-1","etype":"25","space":"0","layer":"masahat","olinetype":"bylayer","linetype":null,"color":"0,0,255,255","ocolor":"5","color24":"-1","transparen":"0","lweight":"-1","linewidth":0.0,"ltscale":1.0,"visible":"1","thickness":0.0,"ext":"(3:0,0,1)","height":1.3,"text":"05/962","angle":334.26374,"widthscale":1.0,"oblique":0.0,"style":"Standard","textgen":"0","alignh":"2","alignv":"0","interlin":-1.0,"Name":"269/50"},"geometry":{"type":"Point","coordinates":[52.433882586134125,29.830525929647557]}},{"type":"Feature","properties":{"fid":995.0,"handle":"7996","block":"-1","etype":"25","space":"0","layer":"masahat","olinetype":"bylayer","linetype":null,"color":"0,0,255,255","ocolor":"5","color24":"-1","transparen":"0","lweight":"-1","linewidth":0.0,"ltscale":1.0,"visible":"1","thickness":0.0,"ext":"(3:0,0,1)","height":1.3,"text":"05/962","angle":334.26374,"widthscale":1.0,"oblique":0.0,"style":"Standard","textgen":"0","alignh":"2","alignv":"0","interlin":-1.0,"Name":"269/50"},"geometry":{"type":"Point","coordinates":[52.434030573013345,29.830470255140554]}},{"type":"Feature","properties":{"fid":996.0,"handle":"7997","block":"-1","etype":"25","space":"0","layer":"masahat","olinetype":"bylayer","linetype":null,"color":"0,0,255,255","ocolor":"5","color24":"-1","transparen":"0","lweight":"-1","linewidth":0.0,"ltscale":1.0,"visible":"1","thickness":0.0,"ext":"(3:0,0,1)","height":1.3,"text":"95/952","angle":334.26374,"widthscale":1.0,"oblique":0.0,"style":"Standard","textgen":"0","alignh":"2","alignv":"0","interlin":-1.0,"Name":"259/59"},"geometry":{"type":"Point","coordinates":[52.434127176548863,29.830427858946511]}},{"type":"Feature","properties":{"fid":997.0,"handle":"7998","block":"-1","etype":"25","space":"0","layer":"masahat","olinetype":"bylayer","linetype":null,"color":"0,0,255,255","ocolor":"5","color24":"-1","transparen":"0","lweight":"-1","linewidth":0.0,"ltscale":1.0,"visible":"1","thickness":0.0,"ext":"(3:0,0,1)","height":1.3,"text":"46/171","angle":334.26374,"widthscale":1.0,"oblique":0.0,"style":"Standard","textgen":"0","alignh":"2","alignv":"0","interlin":-1.0,"Name":"171/64"},"geometry":{"type":"Point","coordinates":[52.434198454352185,29.830382802080912]}},{"type":"Feature","properties":{"fid":998.0,"handle":"7999","block":"-1","etype":"25","space":"0","layer":"masahat","olinetype":"bylayer","linetype":null,"color":"0,0,255,255","ocolor":"5","color24":"-1","transparen":"0","lweight":"-1","linewidth":0.0,"ltscale":1.0,"visible":"1","thickness":0.0,"ext":"(3:0,0,1)","height":1.3,"text":"05/522","angle":334.26374,"widthscale":1.0,"oblique":0.0,"style":"Standard","textgen":"0","alignh":"2","alignv":"0","interlin":-1.0,"Name":"225/50"},"geometry":{"type":"Point","coordinates":[52.433627632764349,29.830359737822914]}},{"type":"Feature","properties":{"fid":999.0,"handle":"8000","block":"-1","etype":"25","space":"0","layer":"masahat","olinetype":"bylayer","linetype":null,"color":"0,0,255,255","ocolor":"5","color24":"-1","transparen":"0","lweight":"-1","linewidth":0.0,"ltscale":1.0,"visible":"1","thickness":0.0,"ext":"(3:0,0,1)","height":1.3,"text":"05/522","angle":334.26374,"widthscale":1.0,"oblique":0.0,"style":"Standard","textgen":"0","alignh":"2","alignv":"0","interlin":-1.0,"Name":"225/50"},"geometry":{"type":"Point","coordinates":[52.43371175361041,29.8303107319296]}},{"type":"Feature","properties":{"fid":1000.0,"handle":"8001","block":"-1","etype":"25","space":"0","layer":"masahat","olinetype":"bylayer","linetype":null,"color":"0,0,255,255","ocolor":"5","color24":"-1","transparen":"0","lweight":"-1","linewidth":0.0,"ltscale":1.0,"visible":"1","thickness":0.0,"ext":"(3:0,0,1)","height":1.3,"text":"05/181","angle":334.26374,"widthscale":1.0,"oblique":0.0,"style":"Standard","textgen":"0","alignh":"2","alignv":"0","interlin":-1.0,"Name":"181/50"},"geometry":{"type":"Point","coordinates":[52.433809468384425,29.830294002239427]}},{"type":"Feature","properties":{"fid":1001.0,"handle":"8002","block":"-1","etype":"25","space":"0","layer":"masahat","olinetype":"bylayer","linetype":null,"color":"0,0,255,255","ocolor":"5","color24":"-1","transparen":"0","lweight":"-1","linewidth":0.0,"ltscale":1.0,"visible":"1","thickness":0.0,"ext":"(3:0,0,1)","height":1.3,"text":"05/181","angle":334.26374,"widthscale":1.0,"oblique":0.0,"style":"Standard","textgen":"0","alignh":"2","alignv":"0","interlin":-1.0,"Name":"181/50"},"geometry":{"type":"Point","coordinates":[52.433898242513926,29.830250920945623]}},{"type":"Feature","properties":{"fid":1002.0,"handle":"8003","block":"-1","etype":"25","space":"0","layer":"masahat","olinetype":"bylayer","linetype":null,"color":"0,0,255,255","ocolor":"5","color24":"-1","transparen":"0","lweight":"-1","linewidth":0.0,"ltscale":1.0,"visible":"1","thickness":0.0,"ext":"(3:0,0,1)","height":1.3,"text":"05/522","angle":334.26374,"widthscale":1.0,"oblique":0.0,"style":"Standard","textgen":"0","alignh":"2","alignv":"0","interlin":-1.0,"Name":"225/50"},"geometry":{"type":"Point","coordinates":[52.434025783353938,29.830163044607374]}},{"type":"Feature","properties":{"fid":1003.0,"handle":"8004","block":"-1","etype":"25","space":"0","layer":"masahat","olinetype":"bylayer","linetype":null,"color":"0,0,255,255","ocolor":"5","color24":"-1","transparen":"0","lweight":"-1","linewidth":0.0,"ltscale":1.0,"visible":"1","thickness":0.0,"ext":"(3:0,0,1)","height":1.3,"text":"05/522","angle":334.26374,"widthscale":1.0,"oblique":0.0,"style":"Standard","textgen":"0","alignh":"2","alignv":"0","interlin":-1.0,"Name":"225/50"},"geometry":{"type":"Point","coordinates":[52.434114557497452,29.830119963289796]}},{"type":"Feature","properties":{"fid":1004.0,"handle":"8005","block":"-1","etype":"25","space":"0","layer":"masahat","olinetype":"bylayer","linetype":null,"color":"0,0,255,255","ocolor":"5","color24":"-1","transparen":"0","lweight":"-1","linewidth":0.0,"ltscale":1.0,"visible":"1","thickness":0.0,"ext":"(3:0,0,1)","height":1.3,"text":"05/522","angle":334.26374,"widthscale":1.0,"oblique":0.0,"style":"Standard","textgen":"0","alignh":"2","alignv":"0","interlin":-1.0,"Name":"225/50"},"geometry":{"type":"Point","coordinates":[52.434203331649286,29.830076881961674]}},{"type":"Feature","properties":{"fid":1005.0,"handle":"8006","block":"-1","etype":"25","space":"0","layer":"masahat","olinetype":"bylayer","linetype":null,"color":"0,0,255,255","ocolor":"5","color24":"-1","transparen":"0","lweight":"-1","linewidth":0.0,"ltscale":1.0,"visible":"1","thickness":0.0,"ext":"(3:0,0,1)","height":1.3,"text":"05/522","angle":334.26374,"widthscale":1.0,"oblique":0.0,"style":"Standard","textgen":"0","alignh":"2","alignv":"0","interlin":-1.0,"Name":"225/50"},"geometry":{"type":"Point","coordinates":[52.434340125855144,29.830037262428835]}},{"type":"Feature","properties":{"fid":1006.0,"handle":"8007","block":"-1","etype":"25","space":"0","layer":"masahat","olinetype":"bylayer","linetype":null,"color":"0,0,255,255","ocolor":"5","color24":"-1","transparen":"0","lweight":"-1","linewidth":0.0,"ltscale":1.0,"visible":"1","thickness":0.0,"ext":"(3:0,0,1)","height":1.3,"text":"05/852","angle":334.26374,"widthscale":1.0,"oblique":0.0,"style":"Standard","textgen":"0","alignh":"2","alignv":"0","interlin":-1.0,"Name":"258/50"},"geometry":{"type":"Point","coordinates":[52.434318266918638,29.829781550346233]}},{"type":"Feature","properties":{"fid":1007.0,"handle":"8009","block":"-1","etype":"25","space":"0","layer":"masahat","olinetype":"bylayer","linetype":null,"color":"0,0,255,255","ocolor":"5","color24":"-1","transparen":"0","lweight":"-1","linewidth":0.0,"ltscale":1.0,"visible":"1","thickness":0.0,"ext":"(3:0,0,1)","height":1.3,"text":"00/132","angle":334.26374,"widthscale":1.0,"oblique":0.0,"style":"Standard","textgen":"0","alignh":"2","alignv":"0","interlin":-1.0,"Name":"231/00"},"geometry":{"type":"Point","coordinates":[52.434189976928863,29.829821132856061]}},{"type":"Feature","properties":{"fid":1008.0,"handle":"8010","block":"-1","etype":"25","space":"0","layer":"masahat","olinetype":"bylayer","linetype":null,"color":"0,0,255,255","ocolor":"5","color24":"-1","transparen":"0","lweight":"-1","linewidth":0.0,"ltscale":1.0,"visible":"1","thickness":0.0,"ext":"(3:0,0,1)","height":1.3,"text":"00/132","angle":334.26374,"widthscale":1.0,"oblique":0.0,"style":"Standard","textgen":"0","alignh":"2","alignv":"0","interlin":-1.0,"Name":"231/00"},"geometry":{"type":"Point","coordinates":[52.434101202793414,29.829864214214176]}},{"type":"Feature","properties":{"fid":1009.0,"handle":"8011","block":"-1","etype":"25","space":"0","layer":"masahat","olinetype":"bylayer","linetype":null,"color":"0,0,255,255","ocolor":"5","color24":"-1","transparen":"0","lweight":"-1","linewidth":0.0,"ltscale":1.0,"visible":"1","thickness":0.0,"ext":"(3:0,0,1)","height":1.3,"text":"00/132","angle":334.26374,"widthscale":1.0,"oblique":0.0,"style":"Standard","textgen":"0","alignh":"2","alignv":"0","interlin":-1.0,"Name":"231/00"},"geometry":{"type":"Point","coordinates":[52.434012428666286,29.829907295561746]}},{"type":"Feature","properties":{"fid":1010.0,"handle":"8012","block":"-1","etype":"25","space":"0","layer":"masahat","olinetype":"bylayer","linetype":null,"color":"0,0,255,255","ocolor":"5","color24":"-1","transparen":"0","lweight":"-1","linewidth":0.0,"ltscale":1.0,"visible":"1","thickness":0.0,"ext":"(3:0,0,1)","height":1.3,"text":"00/132","angle":334.26374,"widthscale":1.0,"oblique":0.0,"style":"Standard","textgen":"0","alignh":"2","alignv":"0","interlin":-1.0,"Name":"231/00"},"geometry":{"type":"Point","coordinates":[52.433880657436909,29.829978727745324]}},{"type":"Feature","properties":{"fid":1011.0,"handle":"8013","block":"-1","etype":"25","space":"0","layer":"masahat","olinetype":"bylayer","linetype":null,"color":"0,0,255,255","ocolor":"5","color24":"-1","transparen":"0","lweight":"-1","linewidth":0.0,"ltscale":1.0,"visible":"1","thickness":0.0,"ext":"(3:0,0,1)","height":1.3,"text":"00/781","angle":334.26374,"widthscale":1.0,"oblique":0.0,"style":"Standard","textgen":"0","alignh":"2","alignv":"0","interlin":-1.0,"Name":"187/00"},"geometry":{"type":"Point","coordinates":[52.433794098855941,29.830020768397684]}},{"type":"Feature","properties":{"fid":1012.0,"handle":"8014","block":"-1","etype":"25","space":"0","layer":"masahat","olinetype":"bylayer","linetype":null,"color":"0,0,255,255","ocolor":"5","color24":"-1","transparen":"0","lweight":"-1","linewidth":0.0,"ltscale":1.0,"visible":"1","thickness":0.0,"ext":"(3:0,0,1)","height":1.3,"text":"00/781","angle":334.26374,"widthscale":1.0,"oblique":0.0,"style":"Standard","textgen":"0","alignh":"2","alignv":"0","interlin":-1.0,"Name":"187/00"},"geometry":{"type":"Point","coordinates":[52.433705324753582,29.830063849713891]}},{"type":"Feature","properties":{"fid":1013.0,"handle":"8015","block":"-1","etype":"25","space":"0","layer":"masahat","olinetype":"bylayer","linetype":null,"color":"0,0,255,255","ocolor":"5","color24":"-1","transparen":"0","lweight":"-1","linewidth":0.0,"ltscale":1.0,"visible":"1","thickness":0.0,"ext":"(3:0,0,1)","height":1.3,"text":"00/132","angle":334.26374,"widthscale":1.0,"oblique":0.0,"style":"Standard","textgen":"0","alignh":"2","alignv":"0","interlin":-1.0,"Name":"231/00"},"geometry":{"type":"Point","coordinates":[52.433614335130478,29.830107971693167]}},{"type":"Feature","properties":{"fid":1016.0,"handle":"8029","block":"-1","etype":"25","space":"0","layer":"masahat","olinetype":"bylayer","linetype":null,"color":"0,0,255,255","ocolor":"5","color24":"-1","transparen":"0","lweight":"-1","linewidth":0.0,"ltscale":1.0,"visible":"1","thickness":0.0,"ext":"(3:0,0,1)","height":1.3,"text":"94/722","angle":334.26374,"widthscale":1.0,"oblique":0.0,"style":"Standard","textgen":"0","alignh":"2","alignv":"0","interlin":-1.0,"Name":"227/49"},"geometry":{"type":"Point","coordinates":[52.434415425459477,29.829979797157545]}},{"type":"Feature","properties":{"fid":1017.0,"handle":"8030","block":"-1","etype":"25","space":"0","layer":"masahat","olinetype":"bylayer","linetype":null,"color":"0,0,255,255","ocolor":"5","color24":"-1","transparen":"0","lweight":"-1","linewidth":0.0,"ltscale":1.0,"visible":"1","thickness":0.0,"ext":"(3:0,0,1)","height":1.3,"text":"05/852","angle":334.26374,"widthscale":1.0,"oblique":0.0,"style":"Standard","textgen":"0","alignh":"2","alignv":"0","interlin":-1.0,"Name":"258/50"},"geometry":{"type":"Point","coordinates":[52.434407041070699,29.829738468966752]}}]}