{"type":"FeatureCollection","name":"_3","crs":{"type":"name","properties":{"name":"urn:ogc:def:crs:OGC:1.3:CRS84"}},"features":[{"type":"Feature","properties":{"fid":896.0,"handle":"5648","block":"-1","etype":"25","space":"0","layer":"pelak","olinetype":"continuous","linetype":null,"color":"255,0,255,79","ocolor":"256","color24":"-1","transparen":"0","lweight":"-1","linewidth":0.0,"ltscale":1.0,"visible":"1","thickness":0.0,"ext":"(3:0,0,1)","height":1.5,"text":"1","angle":1.0828,"widthscale":1.0,"oblique":0.0,"style":"Standard","textgen":"0","alignh":"0","alignv":"0","interlin":-1.0,"lat":29.82468,"lon":52.42513},"geometry":{"type":"Point","coordinates":[52.425126641645747,29.824680104086713]}},{"type":"Feature","properties":{"fid":897.0,"handle":"5651","block":"-1","etype":"25","space":"0","layer":"pelak","olinetype":"continuous","linetype":null,"color":"255,0,255,79","ocolor":"256","color24":"-1","transparen":"0","lweight":"-1","linewidth":0.0,"ltscale":1.0,"visible":"1","thickness":0.0,"ext":"(3:0,0,1)","height":1.5,"text":"2","angle":1.0828,"widthscale":1.0,"oblique":0.0,"style":"Standard","textgen":"0","alignh":"0","alignv":"0","interlin":-1.0,"lat":29.82456,"lon":52.42528},"geometry":{"type":"Point","coordinates":[52.42527972189346,29.824558495820352]}},{"type":"Feature","properties":{"fid":898.0,"handle":"5654","block":"-1","etype":"25","space":"0","layer":"pelak","olinetype":"continuous","linetype":null,"color":"255,0,255,79","ocolor":"256","color24":"-1","transparen":"0","lweight":"-1","linewidth":0.0,"ltscale":1.0,"visible":"1","thickness":0.0,"ext":"(3:0,0,1)","height":1.5,"text":"3","angle":1.0828,"widthscale":1.0,"oblique":0.0,"style":"Standard","textgen":"0","alignh":"0","alignv":"0","interlin":-1.0,"lat":29.82448,"lon":52.42546},"geometry":{"type":"Point","coordinates":[52.425462786685536,29.824475430101078]}},{"type":"Feature","properties":{"fid":899.0,"handle":"5657","block":"-1","etype":"25","space":"0","layer":"pelak","olinetype":"continuous","linetype":null,"color":"255,0,255,79","ocolor":"256","color24":"-1","transparen":"0","lweight":"-1","linewidth":0.0,"ltscale":1.0,"visible":"1","thickness":0.0,"ext":"(3:0,0,1)","height":1.5,"text":"4","angle":1.0828,"widthscale":1.0,"oblique":0.0,"style":"Standard","textgen":"0","alignh":"0","alignv":"0","interlin":-1.0,"lat":29.82443,"lon":52.42566},"geometry":{"type":"Point","coordinates":[52.425657409568352,29.824428091197301]}},{"type":"Feature","properties":{"fid":900.0,"handle":"5660","block":"-1","etype":"25","space":"0","layer":"pelak","olinetype":"continuous","linetype":null,"color":"255,0,255,79","ocolor":"256","color24":"-1","transparen":"0","lweight":"-1","linewidth":0.0,"ltscale":1.0,"visible":"1","thickness":0.0,"ext":"(3:0,0,1)","height":1.5,"text":"5","angle":1.0828,"widthscale":1.0,"oblique":0.0,"style":"Standard","textgen":"0","alignh":"0","alignv":"0","interlin":-1.0,"lat":29.82437,"lon":52.42587},"geometry":{"type":"Point","coordinates":[52.425871123127656,29.824371392375561]}},{"type":"Feature","properties":{"fid":901.0,"handle":"5663","block":"-1","etype":"25","space":"0","layer":"pelak","olinetype":"continuous","linetype":null,"color":"255,0,255,79","ocolor":"256","color24":"-1","transparen":"0","lweight":"-1","linewidth":0.0,"ltscale":1.0,"visible":"1","thickness":0.0,"ext":"(3:0,0,1)","height":1.5,"text":"6","angle":1.0828,"widthscale":1.0,"oblique":0.0,"style":"Standard","textgen":"0","alignh":"0","alignv":"0","interlin":-1.0,"lat":29.82429,"lon":52.42605},"geometry":{"type":"Point","coordinates":[52.426054392434679,29.824285777607471]}},{"type":"Feature","properties":{"fid":902.0,"handle":"5666","block":"-1","etype":"25","space":"0","layer":"pelak","olinetype":"continuous","linetype":null,"color":"255,0,255,79","ocolor":"256","color24":"-1","transparen":"0","lweight":"-1","linewidth":0.0,"ltscale":1.0,"visible":"1","thickness":0.0,"ext":"(3:0,0,1)","height":1.5,"text":"7","angle":1.0828,"widthscale":1.0,"oblique":0.0,"style":"Standard","textgen":"0","alignh":"0","alignv":"0","interlin":-1.0,"lat":29.82418,"lon":52.42625},"geometry":{"type":"Point","coordinates":[52.426249931234786,29.824182720617397]}},{"type":"Feature","properties":{"fid":903.0,"handle":"5669","block":"-1","etype":"25","space":"0","layer":"pelak","olinetype":"continuous","linetype":null,"color":"255,0,255,79","ocolor":"256","color24":"-1","transparen":"0","lweight":"-1","linewidth":0.0,"ltscale":1.0,"visible":"1","thickness":0.0,"ext":"(3:0,0,1)","height":1.5,"text":"8","angle":1.0828,"widthscale":1.0,"oblique":0.0,"style":"Standard","textgen":"0","alignh":"0","alignv":"0","interlin":-1.0,"lat":29.82412,"lon":52.42658},"geometry":{"type":"Point","coordinates":[52.426578728360226,29.824115292150569]}},{"type":"Feature","properties":{"fid":904.0,"handle":"5672","block":"-1","etype":"25","space":"0","layer":"pelak","olinetype":"continuous","linetype":null,"color":"255,0,255,79","ocolor":"256","color24":"-1","transparen":"0","lweight":"-1","linewidth":0.0,"ltscale":1.0,"visible":"1","thickness":0.0,"ext":"(3:0,0,1)","height":1.5,"text":"9","angle":1.0828,"widthscale":1.0,"oblique":0.0,"style":"Standard","textgen":"0","alignh":"0","alignv":"0","interlin":-1.0,"lat":29.82438,"lon":52.42722},"geometry":{"type":"Point","coordinates":[52.427224302893507,29.824383907997376]}},{"type":"Feature","properties":{"fid":905.0,"handle":"5675","block":"-1","etype":"25","space":"0","layer":"pelak","olinetype":"continuous","linetype":null,"color":"255,0,255,79","ocolor":"256","color24":"-1","transparen":"0","lweight":"-1","linewidth":0.0,"ltscale":1.0,"visible":"1","thickness":0.0,"ext":"(3:0,0,1)","height":1.5,"text":"10","angle":1.0828,"widthscale":1.0,"oblique":0.0,"style":"Standard","textgen":"0","alignh":"0","alignv":"0","interlin":-1.0,"lat":29.82445,"lon":52.42699},"geometry":{"type":"Point","coordinates":[52.426989499763017,29.824448420509814]}},{"type":"Feature","properties":{"fid":906.0,"handle":"5679","block":"-1","etype":"25","space":"0","layer":"pelak","olinetype":"continuous","linetype":null,"color":"255,0,255,79","ocolor":"256","color24":"-1","transparen":"0","lweight":"-1","linewidth":0.0,"ltscale":1.0,"visible":"1","thickness":0.0,"ext":"(3:0,0,1)","height":1.5,"text":"11","angle":1.0828,"widthscale":1.0,"oblique":0.0,"style":"Standard","textgen":"0","alignh":"0","alignv":"0","interlin":-1.0,"lat":29.82453,"lon":52.42681},"geometry":{"type":"Point","coordinates":[52.426805034542667,29.824527490442488]}},{"type":"Feature","properties":{"fid":907.0,"handle":"5682","block":"-1","etype":"25","space":"0","layer":"pelak","olinetype":"continuous","linetype":null,"color":"255,0,255,79","ocolor":"256","color24":"-1","transparen":"0","lweight":"-1","linewidth":0.0,"ltscale":1.0,"visible":"1","thickness":0.0,"ext":"(3:0,0,1)","height":1.5,"text":"12","angle":1.0828,"widthscale":1.0,"oblique":0.0,"style":"Standard","textgen":"0","alignh":"0","alignv":"0","interlin":-1.0,"lat":29.82464,"lon":52.42666},"geometry":{"type":"Point","coordinates":[52.42665546639784,29.824638334584353]}},{"type":"Feature","properties":{"fid":908.0,"handle":"5685","block":"-1","etype":"25","space":"0","layer":"pelak","olinetype":"continuous","linetype":null,"color":"255,0,255,79","ocolor":"256","color24":"-1","transparen":"0","lweight":"-1","linewidth":0.0,"ltscale":1.0,"visible":"1","thickness":0.0,"ext":"(3:0,0,1)","height":1.5,"text":"13","angle":1.0828,"widthscale":1.0,"oblique":0.0,"style":"Standard","textgen":"0","alignh":"0","alignv":"0","interlin":-1.0,"lat":29.82477,"lon":52.42632},"geometry":{"type":"Point","coordinates":[52.426317445118542,29.824771420874963]}},{"type":"Feature","properties":{"fid":909.0,"handle":"5688","block":"-1","etype":"25","space":"0","layer":"pelak","olinetype":"continuous","linetype":null,"color":"255,0,255,79","ocolor":"256","color24":"-1","transparen":"0","lweight":"-1","linewidth":0.0,"ltscale":1.0,"visible":"1","thickness":0.0,"ext":"(3:0,0,1)","height":1.5,"text":"14","angle":1.0828,"widthscale":1.0,"oblique":0.0,"style":"Standard","textgen":"0","alignh":"0","alignv":"0","interlin":-1.0,"lat":29.82485,"lon":52.42612},"geometry":{"type":"Point","coordinates":[52.426119396686289,29.82485277599233]}},{"type":"Feature","properties":{"fid":910.0,"handle":"5691","block":"-1","etype":"25","space":"0","layer":"pelak","olinetype":"continuous","linetype":null,"color":"255,0,255,79","ocolor":"256","color24":"-1","transparen":"0","lweight":"-1","linewidth":0.0,"ltscale":1.0,"visible":"1","thickness":0.0,"ext":"(3:0,0,1)","height":1.5,"text":"15","angle":1.0828,"widthscale":1.0,"oblique":0.0,"style":"Standard","textgen":"0","alignh":"0","alignv":"0","interlin":-1.0,"lat":29.82493,"lon":52.42594},"geometry":{"type":"Point","coordinates":[52.425941260411307,29.824933002226544]}},{"type":"Feature","properties":{"fid":911.0,"handle":"5694","block":"-1","etype":"25","space":"0","layer":"pelak","olinetype":"continuous","linetype":null,"color":"255,0,255,79","ocolor":"256","color24":"-1","transparen":"0","lweight":"-1","linewidth":0.0,"ltscale":1.0,"visible":"1","thickness":0.0,"ext":"(3:0,0,1)","height":1.5,"text":"16","angle":1.0828,"widthscale":1.0,"oblique":0.0,"style":"Standard","textgen":"0","alignh":"0","alignv":"0","interlin":-1.0,"lat":29.82501,"lon":52.42575},"geometry":{"type":"Point","coordinates":[52.425751274864417,29.825014697176027]}},{"type":"Feature","properties":{"fid":912.0,"handle":"5697","block":"-1","etype":"25","space":"0","layer":"pelak","olinetype":"continuous","linetype":null,"color":"255,0,255,79","ocolor":"256","color24":"-1","transparen":"0","lweight":"-1","linewidth":0.0,"ltscale":1.0,"visible":"1","thickness":0.0,"ext":"(3:0,0,1)","height":1.5,"text":"17","angle":1.0828,"widthscale":1.0,"oblique":0.0,"style":"Standard","textgen":"0","alignh":"0","alignv":"0","interlin":-1.0,"lat":29.82511,"lon":52.42558},"geometry":{"type":"Point","coordinates":[52.425579037096519,29.825106696481662]}},{"type":"Feature","properties":{"fid":913.0,"handle":"5700","block":"-1","etype":"25","space":"0","layer":"pelak","olinetype":"continuous","linetype":null,"color":"255,0,255,79","ocolor":"256","color24":"-1","transparen":"0","lweight":"-1","linewidth":0.0,"ltscale":1.0,"visible":"1","thickness":0.0,"ext":"(3:0,0,1)","height":1.5,"text":"18","angle":1.0828,"widthscale":1.0,"oblique":0.0,"style":"Standard","textgen":"0","alignh":"0","alignv":"0","interlin":-1.0,"lat":29.82519,"lon":52.4254},"geometry":{"type":"Point","coordinates":[52.425396519039133,29.825190867526445]}},{"type":"Feature","properties":{"fid":914.0,"handle":"5703","block":"-1","etype":"25","space":"0","layer":"pelak","olinetype":"continuous","linetype":null,"color":"255,0,255,79","ocolor":"256","color24":"-1","transparen":"0","lweight":"-1","linewidth":0.0,"ltscale":1.0,"visible":"1","thickness":0.0,"ext":"(3:0,0,1)","height":1.5,"text":"19","angle":1.0828,"widthscale":1.0,"oblique":0.0,"style":"Standard","textgen":"0","alignh":"0","alignv":"0","interlin":-1.0,"lat":29.82534,"lon":52.42525},"geometry":{"type":"Point","coordinates":[52.425252270504238,29.825340711885925]}},{"type":"Feature","properties":{"fid":915.0,"handle":"5707","block":"-1","etype":"25","space":"0","layer":"pelak","olinetype":"continuous","linetype":null,"color":"255,0,255,79","ocolor":"256","color24":"-1","transparen":"0","lweight":"-1","linewidth":0.0,"ltscale":1.0,"visible":"1","thickness":0.0,"ext":"(3:0,0,1)","height":1.5,"text":"20","angle":1.0828,"widthscale":1.0,"oblique":0.0,"style":"Standard","textgen":"0","alignh":"0","alignv":"0","interlin":-1.0,"lat":29.8258,"lon":52.42531},"geometry":{"type":"Point","coordinates":[52.425307448771534,29.825803305547108]}},{"type":"Feature","properties":{"fid":916.0,"handle":"5710","block":"-1","etype":"25","space":"0","layer":"pelak","olinetype":"continuous","linetype":null,"color":"255,0,255,79","ocolor":"256","color24":"-1","transparen":"0","lweight":"-1","linewidth":0.0,"ltscale":1.0,"visible":"1","thickness":0.0,"ext":"(3:0,0,1)","height":1.5,"text":"21","angle":1.0828,"widthscale":1.0,"oblique":0.0,"style":"Standard","textgen":"0","alignh":"0","alignv":"0","interlin":-1.0,"lat":29.82566,"lon":52.42545},"geometry":{"type":"Point","coordinates":[52.425450706324135,29.825658819042506]}},{"type":"Feature","properties":{"fid":917.0,"handle":"5713","block":"-1","etype":"25","space":"0","layer":"pelak","olinetype":"continuous","linetype":null,"color":"255,0,255,79","ocolor":"256","color24":"-1","transparen":"0","lweight":"-1","linewidth":0.0,"ltscale":1.0,"visible":"1","thickness":0.0,"ext":"(3:0,0,1)","height":1.5,"text":"22","angle":1.0828,"widthscale":1.0,"oblique":0.0,"style":"Standard","textgen":"0","alignh":"0","alignv":"0","interlin":-1.0,"lat":29.82558,"lon":52.42563},"geometry":{"type":"Point","coordinates":[52.425628475930949,29.825581056118072]}},{"type":"Feature","properties":{"fid":918.0,"handle":"5716","block":"-1","etype":"25","space":"0","layer":"pelak","olinetype":"continuous","linetype":null,"color":"255,0,255,79","ocolor":"256","color24":"-1","transparen":"0","lweight":"-1","linewidth":0.0,"ltscale":1.0,"visible":"1","thickness":0.0,"ext":"(3:0,0,1)","height":1.5,"text":"23","angle":1.0828,"widthscale":1.0,"oblique":0.0,"style":"Standard","textgen":"0","alignh":"0","alignv":"0","interlin":-1.0,"lat":29.82549,"lon":52.42581},"geometry":{"type":"Point","coordinates":[52.425812786996509,29.825492556758846]}},{"type":"Feature","properties":{"fid":919.0,"handle":"5719","block":"-1","etype":"25","space":"0","layer":"pelak","olinetype":"continuous","linetype":null,"color":"255,0,255,79","ocolor":"256","color24":"-1","transparen":"0","lweight":"-1","linewidth":0.0,"ltscale":1.0,"visible":"1","thickness":0.0,"ext":"(3:0,0,1)","height":1.5,"text":"24","angle":1.0828,"widthscale":1.0,"oblique":0.0,"style":"Standard","textgen":"0","alignh":"0","alignv":"0","interlin":-1.0,"lat":29.8254,"lon":52.42599},"geometry":{"type":"Point","coordinates":[52.425986834403695,29.825401478792582]}},{"type":"Feature","properties":{"fid":920.0,"handle":"5722","block":"-1","etype":"25","space":"0","layer":"pelak","olinetype":"continuous","linetype":null,"color":"255,0,255,79","ocolor":"256","color24":"-1","transparen":"0","lweight":"-1","linewidth":0.0,"ltscale":1.0,"visible":"1","thickness":0.0,"ext":"(3:0,0,1)","height":1.5,"text":"25","angle":1.0828,"widthscale":1.0,"oblique":0.0,"style":"Standard","textgen":"0","alignh":"0","alignv":"0","interlin":-1.0,"lat":29.82532,"lon":52.42618},"geometry":{"type":"Point","coordinates":[52.426177227536954,29.82531756760158]}},{"type":"Feature","properties":{"fid":921.0,"handle":"5725","block":"-1","etype":"25","space":"0","layer":"pelak","olinetype":"continuous","linetype":null,"color":"255,0,255,79","ocolor":"256","color24":"-1","transparen":"0","lweight":"-1","linewidth":0.0,"ltscale":1.0,"visible":"1","thickness":0.0,"ext":"(3:0,0,1)","height":1.5,"text":"26","angle":1.0828,"widthscale":1.0,"oblique":0.0,"style":"Standard","textgen":"0","alignh":"0","alignv":"0","interlin":-1.0,"lat":29.82524,"lon":52.42635},"geometry":{"type":"Point","coordinates":[52.426354234604119,29.825238630279838]}},{"type":"Feature","properties":{"fid":922.0,"handle":"5728","block":"-1","etype":"25","space":"0","layer":"pelak","olinetype":"continuous","linetype":null,"color":"255,0,255,79","ocolor":"256","color24":"-1","transparen":"0","lweight":"-1","linewidth":0.0,"ltscale":1.0,"visible":"1","thickness":0.0,"ext":"(3:0,0,1)","height":1.5,"text":"27","angle":1.0828,"widthscale":1.0,"oblique":0.0,"style":"Standard","textgen":"0","alignh":"0","alignv":"0","interlin":-1.0,"lat":29.82517,"lon":52.42656},"geometry":{"type":"Point","coordinates":[52.426562532109017,29.82517443755982]}},{"type":"Feature","properties":{"fid":923.0,"handle":"5731","block":"-1","etype":"25","space":"0","layer":"pelak","olinetype":"continuous","linetype":null,"color":"255,0,255,79","ocolor":"256","color24":"-1","transparen":"0","lweight":"-1","linewidth":0.0,"ltscale":1.0,"visible":"1","thickness":0.0,"ext":"(3:0,0,1)","height":1.5,"text":"28","angle":1.0828,"widthscale":1.0,"oblique":0.0,"style":"Standard","textgen":"0","alignh":"0","alignv":"0","interlin":-1.0,"lat":29.82502,"lon":52.42687},"geometry":{"type":"Point","coordinates":[52.426871667403383,29.825018332832979]}},{"type":"Feature","properties":{"fid":924.0,"handle":"5734","block":"-1","etype":"25","space":"0","layer":"pelak","olinetype":"continuous","linetype":null,"color":"255,0,255,79","ocolor":"256","color24":"-1","transparen":"0","lweight":"-1","linewidth":0.0,"ltscale":1.0,"visible":"1","thickness":0.0,"ext":"(3:0,0,1)","height":1.5,"text":"29","angle":1.0828,"widthscale":1.0,"oblique":0.0,"style":"Standard","textgen":"0","alignh":"0","alignv":"0","interlin":-1.0,"lat":29.82493,"lon":52.42704},"geometry":{"type":"Point","coordinates":[52.427039177080403,29.824933459958444]}},{"type":"Feature","properties":{"fid":925.0,"handle":"5737","block":"-1","etype":"25","space":"0","layer":"pelak","olinetype":"continuous","linetype":null,"color":"255,0,255,79","ocolor":"256","color24":"-1","transparen":"0","lweight":"-1","linewidth":0.0,"ltscale":1.0,"visible":"1","thickness":0.0,"ext":"(3:0,0,1)","height":1.5,"text":"30","angle":1.0828,"widthscale":1.0,"oblique":0.0,"style":"Standard","textgen":"0","alignh":"0","alignv":"0","interlin":-1.0,"lat":29.82484,"lon":52.42723},"geometry":{"type":"Point","coordinates":[52.427225475875041,29.824844266976825]}},{"type":"Feature","properties":{"fid":926.0,"handle":"5740","block":"-1","etype":"25","space":"0","layer":"pelak","olinetype":"continuous","linetype":null,"color":"255,0,255,79","ocolor":"256","color24":"-1","transparen":"0","lweight":"-1","linewidth":0.0,"ltscale":1.0,"visible":"1","thickness":0.0,"ext":"(3:0,0,1)","height":1.5,"text":"31","angle":1.0828,"widthscale":1.0,"oblique":0.0,"style":"Standard","textgen":"0","alignh":"0","alignv":"0","interlin":-1.0,"lat":29.82478,"lon":52.42743},"geometry":{"type":"Point","coordinates":[52.42742803941367,29.824778662089027]}},{"type":"Feature","properties":{"fid":927.0,"handle":"5743","block":"-1","etype":"25","space":"0","layer":"pelak","olinetype":"continuous","linetype":null,"color":"255,0,255,79","ocolor":"256","color24":"-1","transparen":"0","lweight":"-1","linewidth":0.0,"ltscale":1.0,"visible":"1","thickness":0.0,"ext":"(3:0,0,1)","height":1.5,"text":"32","angle":1.0828,"widthscale":1.0,"oblique":0.0,"style":"Standard","textgen":"0","alignh":"0","alignv":"0","interlin":-1.0,"lat":29.82533,"lon":52.42778},"geometry":{"type":"Point","coordinates":[52.427781658451295,29.825326335411674]}},{"type":"Feature","properties":{"fid":928.0,"handle":"5746","block":"-1","etype":"25","space":"0","layer":"pelak","olinetype":"continuous","linetype":null,"color":"255,0,255,79","ocolor":"256","color24":"-1","transparen":"0","lweight":"-1","linewidth":0.0,"ltscale":1.0,"visible":"1","thickness":0.0,"ext":"(3:0,0,1)","height":1.5,"text":"33","angle":1.0828,"widthscale":1.0,"oblique":0.0,"style":"Standard","textgen":"0","alignh":"0","alignv":"0","interlin":-1.0,"lat":29.8254,"lon":52.42757},"geometry":{"type":"Point","coordinates":[52.427571459307494,29.825400587800825]}},{"type":"Feature","properties":{"fid":929.0,"handle":"5749","block":"-1","etype":"25","space":"0","layer":"pelak","olinetype":"continuous","linetype":null,"color":"255,0,255,79","ocolor":"256","color24":"-1","transparen":"0","lweight":"-1","linewidth":0.0,"ltscale":1.0,"visible":"1","thickness":0.0,"ext":"(3:0,0,1)","height":1.5,"text":"34","angle":1.0828,"widthscale":1.0,"oblique":0.0,"style":"Standard","textgen":"0","alignh":"0","alignv":"0","interlin":-1.0,"lat":29.82549,"lon":52.42739},"geometry":{"type":"Point","coordinates":[52.427388373566302,29.82548694685115]}},{"type":"Feature","properties":{"fid":930.0,"handle":"5752","block":"-1","etype":"25","space":"0","layer":"pelak","olinetype":"continuous","linetype":null,"color":"255,0,255,79","ocolor":"256","color24":"-1","transparen":"0","lweight":"-1","linewidth":0.0,"ltscale":1.0,"visible":"1","thickness":0.0,"ext":"(3:0,0,1)","height":1.5,"text":"35","angle":1.0828,"widthscale":1.0,"oblique":0.0,"style":"Standard","textgen":"0","alignh":"0","alignv":"0","interlin":-1.0,"lat":29.82557,"lon":52.4272},"geometry":{"type":"Point","coordinates":[52.427201991876387,29.825568843683282]}},{"type":"Feature","properties":{"fid":931.0,"handle":"5755","block":"-1","etype":"25","space":"0","layer":"pelak","olinetype":"continuous","linetype":null,"color":"255,0,255,79","ocolor":"256","color24":"-1","transparen":"0","lweight":"-1","linewidth":0.0,"ltscale":1.0,"visible":"1","thickness":0.0,"ext":"(3:0,0,1)","height":1.5,"text":"36","angle":1.0828,"widthscale":1.0,"oblique":0.0,"style":"Standard","textgen":"0","alignh":"0","alignv":"0","interlin":-1.0,"lat":29.82565,"lon":52.42702},"geometry":{"type":"Point","coordinates":[52.427020826583025,29.825654008536048]}},{"type":"Feature","properties":{"fid":932.0,"handle":"5758","block":"-1","etype":"25","space":"0","layer":"pelak","olinetype":"continuous","linetype":null,"color":"255,0,255,79","ocolor":"256","color24":"-1","transparen":"0","lweight":"-1","linewidth":0.0,"ltscale":1.0,"visible":"1","thickness":0.0,"ext":"(3:0,0,1)","height":1.5,"text":"37","angle":1.0828,"widthscale":1.0,"oblique":0.0,"style":"Standard","textgen":"0","alignh":"0","alignv":"0","interlin":-1.0,"lat":29.82574,"lon":52.42684},"geometry":{"type":"Point","coordinates":[52.426839578336775,29.825737536182739]}},{"type":"Feature","properties":{"fid":933.0,"handle":"5761","block":"-1","etype":"25","space":"0","layer":"pelak","olinetype":"continuous","linetype":null,"color":"255,0,255,79","ocolor":"256","color24":"-1","transparen":"0","lweight":"-1","linewidth":0.0,"ltscale":1.0,"visible":"1","thickness":0.0,"ext":"(3:0,0,1)","height":1.5,"text":"38","angle":1.0828,"widthscale":1.0,"oblique":0.0,"style":"Standard","textgen":"0","alignh":"0","alignv":"0","interlin":-1.0,"lat":29.82587,"lon":52.42669},"geometry":{"type":"Point","coordinates":[52.426691428755703,29.825866483958148]}},{"type":"Feature","properties":{"fid":934.0,"handle":"5764","block":"-1","etype":"25","space":"0","layer":"pelak","olinetype":"continuous","linetype":null,"color":"255,0,255,79","ocolor":"256","color24":"-1","transparen":"0","lweight":"-1","linewidth":0.0,"ltscale":1.0,"visible":"1","thickness":0.0,"ext":"(3:0,0,1)","height":1.5,"text":"39","angle":1.0828,"widthscale":1.0,"oblique":0.0,"style":"Standard","textgen":"0","alignh":"0","alignv":"0","interlin":-1.0,"lat":29.82597,"lon":52.42632},"geometry":{"type":"Point","coordinates":[52.426317633891109,29.825971442452254]}},{"type":"Feature","properties":{"fid":935.0,"handle":"5767","block":"-1","etype":"25","space":"0","layer":"pelak","olinetype":"continuous","linetype":null,"color":"255,0,255,79","ocolor":"256","color24":"-1","transparen":"0","lweight":"-1","linewidth":0.0,"ltscale":1.0,"visible":"1","thickness":0.0,"ext":"(3:0,0,1)","height":1.5,"text":"40","angle":1.0828,"widthscale":1.0,"oblique":0.0,"style":"Standard","textgen":"0","alignh":"0","alignv":"0","interlin":-1.0,"lat":29.82605,"lon":52.42614},"geometry":{"type":"Point","coordinates":[52.426137170785999,29.826053047298188]}},{"type":"Feature","properties":{"fid":936.0,"handle":"5770","block":"-1","etype":"25","space":"0","layer":"pelak","olinetype":"continuous","linetype":null,"color":"255,0,255,79","ocolor":"256","color24":"-1","transparen":"0","lweight":"-1","linewidth":0.0,"ltscale":1.0,"visible":"1","thickness":0.0,"ext":"(3:0,0,1)","height":1.5,"text":"41","angle":1.0828,"widthscale":1.0,"oblique":0.0,"style":"Standard","textgen":"0","alignh":"0","alignv":"0","interlin":-1.0,"lat":29.82614,"lon":52.42596},"geometry":{"type":"Point","coordinates":[52.425955880123112,29.826139284526413]}},{"type":"Feature","properties":{"fid":937.0,"handle":"5773","block":"-1","etype":"25","space":"0","layer":"pelak","olinetype":"continuous","linetype":null,"color":"255,0,255,79","ocolor":"256","color24":"-1","transparen":"0","lweight":"-1","linewidth":0.0,"ltscale":1.0,"visible":"1","thickness":0.0,"ext":"(3:0,0,1)","height":1.5,"text":"42","angle":1.0828,"widthscale":1.0,"oblique":0.0,"style":"Standard","textgen":"0","alignh":"0","alignv":"0","interlin":-1.0,"lat":29.82622,"lon":52.42577},"geometry":{"type":"Point","coordinates":[52.425770066584107,29.826222586556074]}},{"type":"Feature","properties":{"fid":938.0,"handle":"5776","block":"-1","etype":"25","space":"0","layer":"pelak","olinetype":"continuous","linetype":null,"color":"255,0,255,79","ocolor":"256","color24":"-1","transparen":"0","lweight":"-1","linewidth":0.0,"ltscale":1.0,"visible":"1","thickness":0.0,"ext":"(3:0,0,1)","height":1.5,"text":"43","angle":1.0828,"widthscale":1.0,"oblique":0.0,"style":"Standard","textgen":"0","alignh":"0","alignv":"0","interlin":-1.0,"lat":29.82631,"lon":52.42558},"geometry":{"type":"Point","coordinates":[52.425581653005224,29.82630667420948]}},{"type":"Feature","properties":{"fid":939.0,"handle":"5779","block":"-1","etype":"25","space":"0","layer":"pelak","olinetype":"continuous","linetype":null,"color":"255,0,255,79","ocolor":"256","color24":"-1","transparen":"0","lweight":"-1","linewidth":0.0,"ltscale":1.0,"visible":"1","thickness":0.0,"ext":"(3:0,0,1)","height":1.5,"text":"44","angle":1.0828,"widthscale":1.0,"oblique":0.0,"style":"Standard","textgen":"0","alignh":"0","alignv":"0","interlin":-1.0,"lat":29.82646,"lon":52.42548},"geometry":{"type":"Point","coordinates":[52.425477599976283,29.826455014883518]}},{"type":"Feature","properties":{"fid":940.0,"handle":"5782","block":"-1","etype":"25","space":"0","layer":"pelak","olinetype":"continuous","linetype":null,"color":"255,0,255,79","ocolor":"256","color24":"-1","transparen":"0","lweight":"-1","linewidth":0.0,"ltscale":1.0,"visible":"1","thickness":0.0,"ext":"(3:0,0,1)","height":1.5,"text":"45","angle":1.0828,"widthscale":1.0,"oblique":0.0,"style":"Standard","textgen":"0","alignh":"0","alignv":"0","interlin":-1.0,"lat":29.82681,"lon":52.4256},"geometry":{"type":"Point","coordinates":[52.425601228377104,29.826811938945649]}},{"type":"Feature","properties":{"fid":941.0,"handle":"5785","block":"-1","etype":"25","space":"0","layer":"pelak","olinetype":"continuous","linetype":null,"color":"255,0,255,79","ocolor":"256","color24":"-1","transparen":"0","lweight":"-1","linewidth":0.0,"ltscale":1.0,"visible":"1","thickness":0.0,"ext":"(3:0,0,1)","height":1.5,"text":"46","angle":1.0828,"widthscale":1.0,"oblique":0.0,"style":"Standard","textgen":"0","alignh":"0","alignv":"0","interlin":-1.0,"lat":29.82672,"lon":52.42583},"geometry":{"type":"Point","coordinates":[52.425832243891755,29.826722914539751]}},{"type":"Feature","properties":{"fid":942.0,"handle":"5788","block":"-1","etype":"25","space":"0","layer":"pelak","olinetype":"continuous","linetype":null,"color":"255,0,255,79","ocolor":"256","color24":"-1","transparen":"0","lweight":"-1","linewidth":0.0,"ltscale":1.0,"visible":"1","thickness":0.0,"ext":"(3:0,0,1)","height":1.5,"text":"47","angle":1.0828,"widthscale":1.0,"oblique":0.0,"style":"Standard","textgen":"0","alignh":"0","alignv":"0","interlin":-1.0,"lat":29.82664,"lon":52.42603},"geometry":{"type":"Point","coordinates":[52.426027876802237,29.826640696548044]}},{"type":"Feature","properties":{"fid":943.0,"handle":"5791","block":"-1","etype":"25","space":"0","layer":"pelak","olinetype":"continuous","linetype":null,"color":"255,0,255,79","ocolor":"256","color24":"-1","transparen":"0","lweight":"-1","linewidth":0.0,"ltscale":1.0,"visible":"1","thickness":0.0,"ext":"(3:0,0,1)","height":1.5,"text":"48","angle":1.0828,"widthscale":1.0,"oblique":0.0,"style":"Standard","textgen":"0","alignh":"0","alignv":"0","interlin":-1.0,"lat":29.82656,"lon":52.4262},"geometry":{"type":"Point","coordinates":[52.42620337351903,29.826557732893519]}},{"type":"Feature","properties":{"fid":944.0,"handle":"5794","block":"-1","etype":"25","space":"0","layer":"pelak","olinetype":"continuous","linetype":null,"color":"255,0,255,79","ocolor":"256","color24":"-1","transparen":"0","lweight":"-1","linewidth":0.0,"ltscale":1.0,"visible":"1","thickness":0.0,"ext":"(3:0,0,1)","height":1.5,"text":"49","angle":1.0828,"widthscale":1.0,"oblique":0.0,"style":"Standard","textgen":"0","alignh":"0","alignv":"0","interlin":-1.0,"lat":29.82647,"lon":52.42639},"geometry":{"type":"Point","coordinates":[52.426389400516136,29.826473165490139]}},{"type":"Feature","properties":{"fid":945.0,"handle":"5797","block":"-1","etype":"25","space":"0","layer":"pelak","olinetype":"continuous","linetype":null,"color":"255,0,255,79","ocolor":"256","color24":"-1","transparen":"0","lweight":"-1","linewidth":0.0,"ltscale":1.0,"visible":"1","thickness":0.0,"ext":"(3:0,0,1)","height":1.5,"text":"50","angle":1.0828,"widthscale":1.0,"oblique":0.0,"style":"Standard","textgen":"0","alignh":"0","alignv":"0","interlin":-1.0,"lat":29.82639,"lon":52.42657},"geometry":{"type":"Point","coordinates":[52.426567337841327,29.826390437552121]}},{"type":"Feature","properties":{"fid":946.0,"handle":"5800","block":"-1","etype":"25","space":"0","layer":"pelak","olinetype":"continuous","linetype":null,"color":"255,0,255,79","ocolor":"256","color24":"-1","transparen":"0","lweight":"-1","linewidth":0.0,"ltscale":1.0,"visible":"1","thickness":0.0,"ext":"(3:0,0,1)","height":1.5,"text":"51","angle":1.0828,"widthscale":1.0,"oblique":0.0,"style":"Standard","textgen":"0","alignh":"0","alignv":"0","interlin":-1.0,"lat":29.82633,"lon":52.42698},"geometry":{"type":"Point","coordinates":[52.426978419074821,29.826333104590105]}},{"type":"Feature","properties":{"fid":947.0,"handle":"5803","block":"-1","etype":"25","space":"0","layer":"pelak","olinetype":"continuous","linetype":null,"color":"255,0,255,79","ocolor":"256","color24":"-1","transparen":"0","lweight":"-1","linewidth":0.0,"ltscale":1.0,"visible":"1","thickness":0.0,"ext":"(3:0,0,1)","height":1.5,"text":"52","angle":1.0828,"widthscale":1.0,"oblique":0.0,"style":"Standard","textgen":"0","alignh":"0","alignv":"0","interlin":-1.0,"lat":29.82626,"lon":52.42715},"geometry":{"type":"Point","coordinates":[52.427145399932499,29.826260712623164]}},{"type":"Feature","properties":{"fid":948.0,"handle":"5806","block":"-1","etype":"25","space":"0","layer":"pelak","olinetype":"continuous","linetype":null,"color":"255,0,255,79","ocolor":"256","color24":"-1","transparen":"0","lweight":"-1","linewidth":0.0,"ltscale":1.0,"visible":"1","thickness":0.0,"ext":"(3:0,0,1)","height":1.5,"text":"53","angle":1.0828,"widthscale":1.0,"oblique":0.0,"style":"Standard","textgen":"0","alignh":"0","alignv":"0","interlin":-1.0,"lat":29.82618,"lon":52.42733},"geometry":{"type":"Point","coordinates":[52.427329118138367,29.826177117942926]}},{"type":"Feature","properties":{"fid":949.0,"handle":"5809","block":"-1","etype":"25","space":"0","layer":"pelak","olinetype":"continuous","linetype":null,"color":"255,0,255,79","ocolor":"256","color24":"-1","transparen":"0","lweight":"-1","linewidth":0.0,"ltscale":1.0,"visible":"1","thickness":0.0,"ext":"(3:0,0,1)","height":1.5,"text":"54","angle":1.0828,"widthscale":1.0,"oblique":0.0,"style":"Standard","textgen":"0","alignh":"0","alignv":"0","interlin":-1.0,"lat":29.82609,"lon":52.42751},"geometry":{"type":"Point","coordinates":[52.427512545358091,29.826089912849717]}},{"type":"Feature","properties":{"fid":950.0,"handle":"5812","block":"-1","etype":"25","space":"0","layer":"pelak","olinetype":"continuous","linetype":null,"color":"255,0,255,79","ocolor":"256","color24":"-1","transparen":"0","lweight":"-1","linewidth":0.0,"ltscale":1.0,"visible":"1","thickness":0.0,"ext":"(3:0,0,1)","height":1.5,"text":"55","angle":1.0828,"widthscale":1.0,"oblique":0.0,"style":"Standard","textgen":"0","alignh":"0","alignv":"0","interlin":-1.0,"lat":29.82601,"lon":52.42771},"geometry":{"type":"Point","coordinates":[52.427705330399789,29.826012022213988]}},{"type":"Feature","properties":{"fid":951.0,"handle":"5815","block":"-1","etype":"25","space":"0","layer":"pelak","olinetype":"continuous","linetype":null,"color":"255,0,255,79","ocolor":"256","color24":"-1","transparen":"0","lweight":"-1","linewidth":0.0,"ltscale":1.0,"visible":"1","thickness":0.0,"ext":"(3:0,0,1)","height":1.5,"text":"56","angle":1.0828,"widthscale":1.0,"oblique":0.0,"style":"Standard","textgen":"0","alignh":"0","alignv":"0","interlin":-1.0,"lat":29.82593,"lon":52.42789},"geometry":{"type":"Point","coordinates":[52.427889915027436,29.825926745588028]}},{"type":"Feature","properties":{"fid":952.0,"handle":"5818","block":"-1","etype":"25","space":"0","layer":"pelak","olinetype":"continuous","linetype":null,"color":"255,0,255,79","ocolor":"256","color24":"-1","transparen":"0","lweight":"-1","linewidth":0.0,"ltscale":1.0,"visible":"1","thickness":0.0,"ext":"(3:0,0,1)","height":1.5,"text":"57","angle":1.0828,"widthscale":1.0,"oblique":0.0,"style":"Standard","textgen":"0","alignh":"0","alignv":"0","interlin":-1.0,"lat":29.82576,"lon":52.42802},"geometry":{"type":"Point","coordinates":[52.428019292416415,29.825759710414406]}},{"type":"Feature","properties":{"fid":953.0,"handle":"5821","block":"-1","etype":"25","space":"0","layer":"pelak","olinetype":"continuous","linetype":null,"color":"255,0,255,79","ocolor":"256","color24":"-1","transparen":"0","lweight":"-1","linewidth":0.0,"ltscale":1.0,"visible":"1","thickness":0.0,"ext":"(3:0,0,1)","height":1.5,"text":"58","angle":1.0828,"widthscale":1.0,"oblique":0.0,"style":"Standard","textgen":"0","alignh":"0","alignv":"0","interlin":-1.0,"lat":29.82624,"lon":52.42812},"geometry":{"type":"Point","coordinates":[52.42812421444652,29.826244889212578]}},{"type":"Feature","properties":{"fid":954.0,"handle":"5824","block":"-1","etype":"25","space":"0","layer":"pelak","olinetype":"continuous","linetype":null,"color":"255,0,255,79","ocolor":"256","color24":"-1","transparen":"0","lweight":"-1","linewidth":0.0,"ltscale":1.0,"visible":"1","thickness":0.0,"ext":"(3:0,0,1)","height":1.5,"text":"59","angle":1.0828,"widthscale":1.0,"oblique":0.0,"style":"Standard","textgen":"0","alignh":"0","alignv":"0","interlin":-1.0,"lat":29.8264,"lon":52.42793},"geometry":{"type":"Point","coordinates":[52.427932641381808,29.826404399630114]}},{"type":"Feature","properties":{"fid":955.0,"handle":"5827","block":"-1","etype":"25","space":"0","layer":"pelak","olinetype":"continuous","linetype":null,"color":"255,0,255,79","ocolor":"256","color24":"-1","transparen":"0","lweight":"-1","linewidth":0.0,"ltscale":1.0,"visible":"1","thickness":0.0,"ext":"(3:0,0,1)","height":1.5,"text":"60","angle":1.0828,"widthscale":1.0,"oblique":0.0,"style":"Standard","textgen":"0","alignh":"0","alignv":"0","interlin":-1.0,"lat":29.8265,"lon":52.42777},"geometry":{"type":"Point","coordinates":[52.42776663556495,29.826498097985546]}},{"type":"Feature","properties":{"fid":956.0,"handle":"5830","block":"-1","etype":"25","space":"0","layer":"pelak","olinetype":"continuous","linetype":null,"color":"255,0,255,79","ocolor":"256","color24":"-1","transparen":"0","lweight":"-1","linewidth":0.0,"ltscale":1.0,"visible":"1","thickness":0.0,"ext":"(3:0,0,1)","height":1.5,"text":"61","angle":1.0828,"widthscale":1.0,"oblique":0.0,"style":"Standard","textgen":"0","alignh":"0","alignv":"0","interlin":-1.0,"lat":29.82658,"lon":52.42758},"geometry":{"type":"Point","coordinates":[52.427582242197808,29.826577655008492]}},{"type":"Feature","properties":{"fid":957.0,"handle":"5833","block":"-1","etype":"25","space":"0","layer":"pelak","olinetype":"continuous","linetype":null,"color":"255,0,255,79","ocolor":"256","color24":"-1","transparen":"0","lweight":"-1","linewidth":0.0,"ltscale":1.0,"visible":"1","thickness":0.0,"ext":"(3:0,0,1)","height":1.5,"text":"62","angle":1.0828,"widthscale":1.0,"oblique":0.0,"style":"Standard","textgen":"0","alignh":"0","alignv":"0","interlin":-1.0,"lat":29.82664,"lon":52.42738},"geometry":{"type":"Point","coordinates":[52.427378915179482,29.826642211751242]}},{"type":"Feature","properties":{"fid":958.0,"handle":"5836","block":"-1","etype":"25","space":"0","layer":"pelak","olinetype":"continuous","linetype":null,"color":"255,0,255,79","ocolor":"256","color24":"-1","transparen":"0","lweight":"-1","linewidth":0.0,"ltscale":1.0,"visible":"1","thickness":0.0,"ext":"(3:0,0,1)","height":1.5,"text":"63","angle":1.0828,"widthscale":1.0,"oblique":0.0,"style":"Standard","textgen":"0","alignh":"0","alignv":"0","interlin":-1.0,"lat":29.82679,"lon":52.42724},"geometry":{"type":"Point","coordinates":[52.427242272952959,29.826792957256295]}},{"type":"Feature","properties":{"fid":959.0,"handle":"5839","block":"-1","etype":"25","space":"0","layer":"pelak","olinetype":"continuous","linetype":null,"color":"255,0,255,79","ocolor":"256","color24":"-1","transparen":"0","lweight":"-1","linewidth":0.0,"ltscale":1.0,"visible":"1","thickness":0.0,"ext":"(3:0,0,1)","height":1.5,"text":"64","angle":1.0828,"widthscale":1.0,"oblique":0.0,"style":"Standard","textgen":"0","alignh":"0","alignv":"0","interlin":-1.0,"lat":29.82697,"lon":52.42692},"geometry":{"type":"Point","coordinates":[52.426917996027633,29.82696883957739]}},{"type":"Feature","properties":{"fid":960.0,"handle":"5842","block":"-1","etype":"25","space":"0","layer":"pelak","olinetype":"continuous","linetype":null,"color":"255,0,255,79","ocolor":"256","color24":"-1","transparen":"0","lweight":"-1","linewidth":0.0,"ltscale":1.0,"visible":"1","thickness":0.0,"ext":"(3:0,0,1)","height":1.5,"text":"65","angle":1.0828,"widthscale":1.0,"oblique":0.0,"style":"Standard","textgen":"0","alignh":"0","alignv":"0","interlin":-1.0,"lat":29.82705,"lon":52.42674},"geometry":{"type":"Point","coordinates":[52.426744343596866,29.82704971555728]}},{"type":"Feature","properties":{"fid":961.0,"handle":"5845","block":"-1","etype":"25","space":"0","layer":"pelak","olinetype":"continuous","linetype":null,"color":"255,0,255,79","ocolor":"256","color24":"-1","transparen":"0","lweight":"-1","linewidth":0.0,"ltscale":1.0,"visible":"1","thickness":0.0,"ext":"(3:0,0,1)","height":1.5,"text":"66","angle":1.0828,"widthscale":1.0,"oblique":0.0,"style":"Standard","textgen":"0","alignh":"0","alignv":"0","interlin":-1.0,"lat":29.82715,"lon":52.42657},"geometry":{"type":"Point","coordinates":[52.426565281823308,29.827152910098025]}},{"type":"Feature","properties":{"fid":962.0,"handle":"5848","block":"-1","etype":"25","space":"0","layer":"pelak","olinetype":"continuous","linetype":null,"color":"255,0,255,79","ocolor":"256","color24":"-1","transparen":"0","lweight":"-1","linewidth":0.0,"ltscale":1.0,"visible":"1","thickness":0.0,"ext":"(3:0,0,1)","height":1.5,"text":"67","angle":1.0828,"widthscale":1.0,"oblique":0.0,"style":"Standard","textgen":"0","alignh":"0","alignv":"0","interlin":-1.0,"lat":29.82725,"lon":52.42639},"geometry":{"type":"Point","coordinates":[52.426394213615723,29.827247578687938]}},{"type":"Feature","properties":{"fid":963.0,"handle":"5851","block":"-1","etype":"25","space":"0","layer":"pelak","olinetype":"continuous","linetype":null,"color":"255,0,255,79","ocolor":"256","color24":"-1","transparen":"0","lweight":"-1","linewidth":0.0,"ltscale":1.0,"visible":"1","thickness":0.0,"ext":"(3:0,0,1)","height":1.5,"text":"68","angle":1.0828,"widthscale":1.0,"oblique":0.0,"style":"Standard","textgen":"0","alignh":"0","alignv":"0","interlin":-1.0,"lat":29.82732,"lon":52.42621},"geometry":{"type":"Point","coordinates":[52.426206131322374,29.827321657359708]}},{"type":"Feature","properties":{"fid":964.0,"handle":"5854","block":"-1","etype":"25","space":"0","layer":"pelak","olinetype":"continuous","linetype":null,"color":"255,0,255,79","ocolor":"256","color24":"-1","transparen":"0","lweight":"-1","linewidth":0.0,"ltscale":1.0,"visible":"1","thickness":0.0,"ext":"(3:0,0,1)","height":1.5,"text":"69","angle":1.0828,"widthscale":1.0,"oblique":0.0,"style":"Standard","textgen":"0","alignh":"0","alignv":"0","interlin":-1.0,"lat":29.82741,"lon":52.42603},"geometry":{"type":"Point","coordinates":[52.426025415492056,29.827407001190117]}},{"type":"Feature","properties":{"fid":965.0,"handle":"5857","block":"-1","etype":"25","space":"0","layer":"pelak","olinetype":"continuous","linetype":null,"color":"255,0,255,79","ocolor":"256","color24":"-1","transparen":"0","lweight":"-1","linewidth":0.0,"ltscale":1.0,"visible":"1","thickness":0.0,"ext":"(3:0,0,1)","height":1.5,"text":"70","angle":1.0828,"widthscale":1.0,"oblique":0.0,"style":"Standard","textgen":"0","alignh":"0","alignv":"0","interlin":-1.0,"lat":29.82752,"lon":52.4258},"geometry":{"type":"Point","coordinates":[52.425795580838781,29.827516312700929]}},{"type":"Feature","properties":{"fid":966.0,"handle":"5860","block":"-1","etype":"25","space":"0","layer":"pelak","olinetype":"continuous","linetype":null,"color":"255,0,255,79","ocolor":"256","color24":"-1","transparen":"0","lweight":"-1","linewidth":0.0,"ltscale":1.0,"visible":"1","thickness":0.0,"ext":"(3:0,0,1)","height":1.5,"text":"71","angle":1.0828,"widthscale":1.0,"oblique":0.0,"style":"Standard","textgen":"0","alignh":"0","alignv":"0","interlin":-1.0,"lat":29.82856,"lon":52.42612},"geometry":{"type":"Point","coordinates":[52.426122303842298,29.82856042831925]}},{"type":"Feature","properties":{"fid":967.0,"handle":"5863","block":"-1","etype":"25","space":"0","layer":"pelak","olinetype":"continuous","linetype":null,"color":"255,0,255,79","ocolor":"256","color24":"-1","transparen":"0","lweight":"-1","linewidth":0.0,"ltscale":1.0,"visible":"1","thickness":0.0,"ext":"(3:0,0,1)","height":1.5,"text":"72","angle":1.0828,"widthscale":1.0,"oblique":0.0,"style":"Standard","textgen":"0","alignh":"0","alignv":"0","interlin":-1.0,"lat":29.8284,"lon":52.42641},"geometry":{"type":"Point","coordinates":[52.4264054570802,29.828400586738141]}},{"type":"Feature","properties":{"fid":968.0,"handle":"5866","block":"-1","etype":"25","space":"0","layer":"pelak","olinetype":"continuous","linetype":null,"color":"255,0,255,79","ocolor":"256","color24":"-1","transparen":"0","lweight":"-1","linewidth":0.0,"ltscale":1.0,"visible":"1","thickness":0.0,"ext":"(3:0,0,1)","height":1.5,"text":"73","angle":1.0828,"widthscale":1.0,"oblique":0.0,"style":"Standard","textgen":"0","alignh":"0","alignv":"0","interlin":-1.0,"lat":29.82831,"lon":52.42659},"geometry":{"type":"Point","coordinates":[52.426589167743771,29.82831330173298]}},{"type":"Feature","properties":{"fid":969.0,"handle":"5869","block":"-1","etype":"25","space":"0","layer":"pelak","olinetype":"continuous","linetype":null,"color":"255,0,255,79","ocolor":"256","color24":"-1","transparen":"0","lweight":"-1","linewidth":0.0,"ltscale":1.0,"visible":"1","thickness":0.0,"ext":"(3:0,0,1)","height":1.5,"text":"74","angle":1.0828,"widthscale":1.0,"oblique":0.0,"style":"Standard","textgen":"0","alignh":"0","alignv":"0","interlin":-1.0,"lat":29.82822,"lon":52.42677},"geometry":{"type":"Point","coordinates":[52.426772048280831,29.828220432489999]}},{"type":"Feature","properties":{"fid":970.0,"handle":"5872","block":"-1","etype":"25","space":"0","layer":"pelak","olinetype":"continuous","linetype":null,"color":"255,0,255,79","ocolor":"256","color24":"-1","transparen":"0","lweight":"-1","linewidth":0.0,"ltscale":1.0,"visible":"1","thickness":0.0,"ext":"(3:0,0,1)","height":1.5,"text":"75","angle":1.0828,"widthscale":1.0,"oblique":0.0,"style":"Standard","textgen":"0","alignh":"0","alignv":"0","interlin":-1.0,"lat":29.82813,"lon":52.42694},"geometry":{"type":"Point","coordinates":[52.426944249129555,29.828125438876903]}},{"type":"Feature","properties":{"fid":971.0,"handle":"5875","block":"-1","etype":"25","space":"0","layer":"pelak","olinetype":"continuous","linetype":null,"color":"255,0,255,79","ocolor":"256","color24":"-1","transparen":"0","lweight":"-1","linewidth":0.0,"ltscale":1.0,"visible":"1","thickness":0.0,"ext":"(3:0,0,1)","height":1.5,"text":"76","angle":1.0828,"widthscale":1.0,"oblique":0.0,"style":"Standard","textgen":"0","alignh":"0","alignv":"0","interlin":-1.0,"lat":29.82797,"lon":52.42726},"geometry":{"type":"Point","coordinates":[52.427259845053797,29.827967014853829]}},{"type":"Feature","properties":{"fid":972.0,"handle":"5878","block":"-1","etype":"25","space":"0","layer":"pelak","olinetype":"continuous","linetype":null,"color":"255,0,255,79","ocolor":"256","color24":"-1","transparen":"0","lweight":"-1","linewidth":0.0,"ltscale":1.0,"visible":"1","thickness":0.0,"ext":"(3:0,0,1)","height":1.5,"text":"77","angle":1.0828,"widthscale":1.0,"oblique":0.0,"style":"Standard","textgen":"0","alignh":"0","alignv":"0","interlin":-1.0,"lat":29.82788,"lon":52.42743},"geometry":{"type":"Point","coordinates":[52.427429551318326,29.827879277536017]}},{"type":"Feature","properties":{"fid":973.0,"handle":"5881","block":"-1","etype":"25","space":"0","layer":"pelak","olinetype":"continuous","linetype":null,"color":"255,0,255,79","ocolor":"256","color24":"-1","transparen":"0","lweight":"-1","linewidth":0.0,"ltscale":1.0,"visible":"1","thickness":0.0,"ext":"(3:0,0,1)","height":1.5,"text":"78","angle":1.0828,"widthscale":1.0,"oblique":0.0,"style":"Standard","textgen":"0","alignh":"0","alignv":"0","interlin":-1.0,"lat":29.82778,"lon":52.4276},"geometry":{"type":"Point","coordinates":[52.427601675215236,29.82778475697992]}},{"type":"Feature","properties":{"fid":974.0,"handle":"5884","block":"-1","etype":"25","space":"0","layer":"pelak","olinetype":"continuous","linetype":null,"color":"255,0,255,79","ocolor":"256","color24":"-1","transparen":"0","lweight":"-1","linewidth":0.0,"ltscale":1.0,"visible":"1","thickness":0.0,"ext":"(3:0,0,1)","height":1.5,"text":"79","angle":1.0828,"widthscale":1.0,"oblique":0.0,"style":"Standard","textgen":"0","alignh":"0","alignv":"0","interlin":-1.0,"lat":29.82769,"lon":52.42779},"geometry":{"type":"Point","coordinates":[52.427785747396356,29.827689513234784]}},{"type":"Feature","properties":{"fid":975.0,"handle":"5887","block":"-1","etype":"25","space":"0","layer":"pelak","olinetype":"continuous","linetype":null,"color":"255,0,255,79","ocolor":"256","color24":"-1","transparen":"0","lweight":"-1","linewidth":0.0,"ltscale":1.0,"visible":"1","thickness":0.0,"ext":"(3:0,0,1)","height":1.5,"text":"80","angle":1.0828,"widthscale":1.0,"oblique":0.0,"style":"Standard","textgen":"0","alignh":"0","alignv":"0","interlin":-1.0,"lat":29.82758,"lon":52.42794},"geometry":{"type":"Point","coordinates":[52.42794426413689,29.82757894552574]}},{"type":"Feature","properties":{"fid":976.0,"handle":"5890","block":"-1","etype":"25","space":"0","layer":"pelak","olinetype":"continuous","linetype":null,"color":"255,0,255,79","ocolor":"256","color24":"-1","transparen":"0","lweight":"-1","linewidth":0.0,"ltscale":1.0,"visible":"1","thickness":0.0,"ext":"(3:0,0,1)","height":1.5,"text":"81","angle":1.0828,"widthscale":1.0,"oblique":0.0,"style":"Standard","textgen":"0","alignh":"0","alignv":"0","interlin":-1.0,"lat":29.82748,"lon":52.42811},"geometry":{"type":"Point","coordinates":[52.428112904033711,29.827480814466028]}},{"type":"Feature","properties":{"fid":977.0,"handle":"5893","block":"-1","etype":"25","space":"0","layer":"pelak","olinetype":"continuous","linetype":null,"color":"255,0,255,79","ocolor":"256","color24":"-1","transparen":"0","lweight":"-1","linewidth":0.0,"ltscale":1.0,"visible":"1","thickness":0.0,"ext":"(3:0,0,1)","height":1.5,"text":"82","angle":1.0828,"widthscale":1.0,"oblique":0.0,"style":"Standard","textgen":"0","alignh":"0","alignv":"0","interlin":-1.0,"lat":29.82738,"lon":52.42829},"geometry":{"type":"Point","coordinates":[52.428290234272687,29.827379888988979]}},{"type":"Feature","properties":{"fid":978.0,"handle":"5896","block":"-1","etype":"25","space":"0","layer":"pelak","olinetype":"continuous","linetype":null,"color":"255,0,255,79","ocolor":"256","color24":"-1","transparen":"0","lweight":"-1","linewidth":0.0,"ltscale":1.0,"visible":"1","thickness":0.0,"ext":"(3:0,0,1)","height":1.5,"text":"83","angle":1.0828,"widthscale":1.0,"oblique":0.0,"style":"Standard","textgen":"0","alignh":"0","alignv":"0","interlin":-1.0,"lat":29.82729,"lon":52.42846},"geometry":{"type":"Point","coordinates":[52.428463452718248,29.827285419922124]}},{"type":"Feature","properties":{"fid":979.0,"handle":"5899","block":"-1","etype":"25","space":"0","layer":"pelak","olinetype":"continuous","linetype":null,"color":"255,0,255,79","ocolor":"256","color24":"-1","transparen":"0","lweight":"-1","linewidth":0.0,"ltscale":1.0,"visible":"1","thickness":0.0,"ext":"(3:0,0,1)","height":1.5,"text":"84","angle":1.0828,"widthscale":1.0,"oblique":0.0,"style":"Standard","textgen":"0","alignh":"0","alignv":"0","interlin":-1.0,"lat":29.82712,"lon":52.42862},"geometry":{"type":"Point","coordinates":[52.428622854219292,29.827116320087708]}},{"type":"Feature","properties":{"fid":980.0,"handle":"5902","block":"-1","etype":"25","space":"0","layer":"pelak","olinetype":"continuous","linetype":null,"color":"255,0,255,79","ocolor":"256","color24":"-1","transparen":"0","lweight":"-1","linewidth":0.0,"ltscale":1.0,"visible":"1","thickness":0.0,"ext":"(3:0,0,1)","height":1.5,"text":"85","angle":1.0828,"widthscale":1.0,"oblique":0.0,"style":"Standard","textgen":"0","alignh":"0","alignv":"0","interlin":-1.0,"lat":29.82764,"lon":52.42888},"geometry":{"type":"Point","coordinates":[52.42887750219198,29.82763904509347]}},{"type":"Feature","properties":{"fid":981.0,"handle":"5905","block":"-1","etype":"25","space":"0","layer":"pelak","olinetype":"continuous","linetype":null,"color":"255,0,255,79","ocolor":"256","color24":"-1","transparen":"0","lweight":"-1","linewidth":0.0,"ltscale":1.0,"visible":"1","thickness":0.0,"ext":"(3:0,0,1)","height":1.5,"text":"86","angle":1.0828,"widthscale":1.0,"oblique":0.0,"style":"Standard","textgen":"0","alignh":"0","alignv":"0","interlin":-1.0,"lat":29.82776,"lon":52.42863},"geometry":{"type":"Point","coordinates":[52.428629371489279,29.827764435741969]}},{"type":"Feature","properties":{"fid":982.0,"handle":"5908","block":"-1","etype":"25","space":"0","layer":"pelak","olinetype":"continuous","linetype":null,"color":"255,0,255,79","ocolor":"256","color24":"-1","transparen":"0","lweight":"-1","linewidth":0.0,"ltscale":1.0,"visible":"1","thickness":0.0,"ext":"(3:0,0,1)","height":1.5,"text":"87","angle":1.0828,"widthscale":1.0,"oblique":0.0,"style":"Standard","textgen":"0","alignh":"0","alignv":"0","interlin":-1.0,"lat":29.82789,"lon":52.42841},"geometry":{"type":"Point","coordinates":[52.428408065706478,29.827887899703928]}},{"type":"Feature","properties":{"fid":983.0,"handle":"5911","block":"-1","etype":"25","space":"0","layer":"pelak","olinetype":"continuous","linetype":null,"color":"255,0,255,79","ocolor":"256","color24":"-1","transparen":"0","lweight":"-1","linewidth":0.0,"ltscale":1.0,"visible":"1","thickness":0.0,"ext":"(3:0,0,1)","height":1.5,"text":"88","angle":1.0828,"widthscale":1.0,"oblique":0.0,"style":"Standard","textgen":"0","alignh":"0","alignv":"0","interlin":-1.0,"lat":29.82801,"lon":52.42819},"geometry":{"type":"Point","coordinates":[52.428192142201659,29.828009175809662]}},{"type":"Feature","properties":{"fid":984.0,"handle":"5914","block":"-1","etype":"25","space":"0","layer":"pelak","olinetype":"continuous","linetype":null,"color":"255,0,255,79","ocolor":"256","color24":"-1","transparen":"0","lweight":"-1","linewidth":0.0,"ltscale":1.0,"visible":"1","thickness":0.0,"ext":"(3:0,0,1)","height":1.5,"text":"89","angle":1.0828,"widthscale":1.0,"oblique":0.0,"style":"Standard","textgen":"0","alignh":"0","alignv":"0","interlin":-1.0,"lat":29.82813,"lon":52.42797},"geometry":{"type":"Point","coordinates":[52.427970897068199,29.828126624162206]}},{"type":"Feature","properties":{"fid":985.0,"handle":"5917","block":"-1","etype":"25","space":"0","layer":"pelak","olinetype":"continuous","linetype":null,"color":"255,0,255,79","ocolor":"256","color24":"-1","transparen":"0","lweight":"-1","linewidth":0.0,"ltscale":1.0,"visible":"1","thickness":0.0,"ext":"(3:0,0,1)","height":1.5,"text":"90","angle":1.0828,"widthscale":1.0,"oblique":0.0,"style":"Standard","textgen":"0","alignh":"0","alignv":"0","interlin":-1.0,"lat":29.82825,"lon":52.42775},"geometry":{"type":"Point","coordinates":[52.427748469163127,29.828250974886334]}},{"type":"Feature","properties":{"fid":986.0,"handle":"5920","block":"-1","etype":"25","space":"0","layer":"pelak","olinetype":"continuous","linetype":null,"color":"255,0,255,79","ocolor":"256","color24":"-1","transparen":"0","lweight":"-1","linewidth":0.0,"ltscale":1.0,"visible":"1","thickness":0.0,"ext":"(3:0,0,1)","height":1.5,"text":"91","angle":1.0828,"widthscale":1.0,"oblique":0.0,"style":"Standard","textgen":"0","alignh":"0","alignv":"0","interlin":-1.0,"lat":29.82837,"lon":52.42754},"geometry":{"type":"Point","coordinates":[52.427535756652553,29.828374173411184]}},{"type":"Feature","properties":{"fid":987.0,"handle":"5923","block":"-1","etype":"25","space":"0","layer":"pelak","olinetype":"continuous","linetype":null,"color":"255,0,255,79","ocolor":"256","color24":"-1","transparen":"0","lweight":"-1","linewidth":0.0,"ltscale":1.0,"visible":"1","thickness":0.0,"ext":"(3:0,0,1)","height":1.5,"text":"92","angle":1.0828,"widthscale":1.0,"oblique":0.0,"style":"Standard","textgen":"0","alignh":"0","alignv":"0","interlin":-1.0,"lat":29.82849,"lon":52.42732},"geometry":{"type":"Point","coordinates":[52.427322994181061,29.828492628203964]}},{"type":"Feature","properties":{"fid":988.0,"handle":"5926","block":"-1","etype":"25","space":"0","layer":"pelak","olinetype":"continuous","linetype":null,"color":"255,0,255,79","ocolor":"256","color24":"-1","transparen":"0","lweight":"-1","linewidth":0.0,"ltscale":1.0,"visible":"1","thickness":0.0,"ext":"(3:0,0,1)","height":1.5,"text":"93","angle":1.0828,"widthscale":1.0,"oblique":0.0,"style":"Standard","textgen":"0","alignh":"0","alignv":"0","interlin":-1.0,"lat":29.82862,"lon":52.4271},"geometry":{"type":"Point","coordinates":[52.42710282522021,29.828620597524296]}},{"type":"Feature","properties":{"fid":989.0,"handle":"5929","block":"-1","etype":"25","space":"0","layer":"pelak","olinetype":"continuous","linetype":null,"color":"255,0,255,79","ocolor":"256","color24":"-1","transparen":"0","lweight":"-1","linewidth":0.0,"ltscale":1.0,"visible":"1","thickness":0.0,"ext":"(3:0,0,1)","height":1.5,"text":"94","angle":1.0828,"widthscale":1.0,"oblique":0.0,"style":"Standard","textgen":"0","alignh":"0","alignv":"0","interlin":-1.0,"lat":29.82874,"lon":52.42689},"geometry":{"type":"Point","coordinates":[52.426886818073442,29.828738156625448]}},{"type":"Feature","properties":{"fid":990.0,"handle":"5932","block":"-1","etype":"25","space":"0","layer":"pelak","olinetype":"continuous","linetype":null,"color":"255,0,255,79","ocolor":"256","color24":"-1","transparen":"0","lweight":"-1","linewidth":0.0,"ltscale":1.0,"visible":"1","thickness":0.0,"ext":"(3:0,0,1)","height":1.5,"text":"95","angle":1.0828,"widthscale":1.0,"oblique":0.0,"style":"Standard","textgen":"0","alignh":"0","alignv":"0","interlin":-1.0,"lat":29.82886,"lon":52.42667},"geometry":{"type":"Point","coordinates":[52.426665582768038,29.828864167416377]}},{"type":"Feature","properties":{"fid":991.0,"handle":"5935","block":"-1","etype":"25","space":"0","layer":"pelak","olinetype":"continuous","linetype":null,"color":"255,0,255,79","ocolor":"256","color24":"-1","transparen":"0","lweight":"-1","linewidth":0.0,"ltscale":1.0,"visible":"1","thickness":0.0,"ext":"(3:0,0,1)","height":1.5,"text":"96","angle":1.0828,"widthscale":1.0,"oblique":0.0,"style":"Standard","textgen":"0","alignh":"0","alignv":"0","interlin":-1.0,"lat":29.82898,"lon":52.42645},"geometry":{"type":"Point","coordinates":[52.426450602765868,29.828981771167349]}},{"type":"Feature","properties":{"fid":992.0,"handle":"5938","block":"-1","etype":"25","space":"0","layer":"pelak","olinetype":"continuous","linetype":null,"color":"255,0,255,79","ocolor":"256","color24":"-1","transparen":"0","lweight":"-1","linewidth":0.0,"ltscale":1.0,"visible":"1","thickness":0.0,"ext":"(3:0,0,1)","height":1.5,"text":"97","angle":1.0828,"widthscale":1.0,"oblique":0.0,"style":"Standard","textgen":"0","alignh":"0","alignv":"0","interlin":-1.0,"lat":29.82911,"lon":52.42624},"geometry":{"type":"Point","coordinates":[52.426239010740744,29.82910775200607]}},{"type":"Feature","properties":{"fid":993.0,"handle":"5941","block":"-1","etype":"25","space":"0","layer":"pelak","olinetype":"continuous","linetype":null,"color":"255,0,255,79","ocolor":"256","color24":"-1","transparen":"0","lweight":"-1","linewidth":0.0,"ltscale":1.0,"visible":"1","thickness":0.0,"ext":"(3:0,0,1)","height":1.5,"text":"98","angle":1.0828,"widthscale":1.0,"oblique":0.0,"style":"Standard","textgen":"0","alignh":"0","alignv":"0","interlin":-1.0,"lat":29.82925,"lon":52.42608},"geometry":{"type":"Point","coordinates":[52.426082574117785,29.829248802383209]}},{"type":"Feature","properties":{"fid":994.0,"handle":"5944","block":"-1","etype":"25","space":"0","layer":"pelak","olinetype":"continuous","linetype":null,"color":"255,0,255,79","ocolor":"256","color24":"-1","transparen":"0","lweight":"-1","linewidth":0.0,"ltscale":1.0,"visible":"1","thickness":0.0,"ext":"(3:0,0,1)","height":1.5,"text":"99","angle":1.0828,"widthscale":1.0,"oblique":0.0,"style":"Standard","textgen":"0","alignh":"0","alignv":"0","interlin":-1.0,"lat":29.82959,"lon":52.42616},"geometry":{"type":"Point","coordinates":[52.426156324750117,29.829591089393769]}},{"type":"Feature","properties":{"fid":995.0,"handle":"5947","block":"-1","etype":"25","space":"0","layer":"pelak","olinetype":"continuous","linetype":null,"color":"255,0,255,79","ocolor":"256","color24":"-1","transparen":"0","lweight":"-1","linewidth":0.0,"ltscale":1.0,"visible":"1","thickness":0.0,"ext":"(3:0,0,1)","height":1.5,"text":"100","angle":1.0828,"widthscale":1.0,"oblique":0.0,"style":"Standard","textgen":"0","alignh":"0","alignv":"0","interlin":-1.0,"lat":29.82941,"lon":52.42643},"geometry":{"type":"Point","coordinates":[52.42643208643436,29.829406561723896]}},{"type":"Feature","properties":{"fid":996.0,"handle":"5961","block":"-1","etype":"25","space":"0","layer":"pelak","olinetype":"continuous","linetype":null,"color":"255,0,255,79","ocolor":"256","color24":"-1","transparen":"0","lweight":"-1","linewidth":0.0,"ltscale":1.0,"visible":"1","thickness":0.0,"ext":"(3:0,0,1)","height":1.5,"text":"101","angle":1.0828,"widthscale":1.0,"oblique":0.0,"style":"Standard","textgen":"0","alignh":"0","alignv":"0","interlin":-1.0,"lat":29.82929,"lon":52.42665},"geometry":{"type":"Point","coordinates":[52.426652590127496,29.829289607812722]}},{"type":"Feature","properties":{"fid":997.0,"handle":"5963","block":"-1","etype":"25","space":"0","layer":"pelak","olinetype":"continuous","linetype":null,"color":"255,0,255,79","ocolor":"256","color24":"-1","transparen":"0","lweight":"-1","linewidth":0.0,"ltscale":1.0,"visible":"1","thickness":0.0,"ext":"(3:0,0,1)","height":1.5,"text":"102","angle":1.0828,"widthscale":1.0,"oblique":0.0,"style":"Standard","textgen":"0","alignh":"0","alignv":"0","interlin":-1.0,"lat":29.82916,"lon":52.42687},"geometry":{"type":"Point","coordinates":[52.42687309747317,29.829162785911496]}},{"type":"Feature","properties":{"fid":998.0,"handle":"5965","block":"-1","etype":"25","space":"0","layer":"pelak","olinetype":"continuous","linetype":null,"color":"255,0,255,79","ocolor":"256","color24":"-1","transparen":"0","lweight":"-1","linewidth":0.0,"ltscale":1.0,"visible":"1","thickness":0.0,"ext":"(3:0,0,1)","height":1.5,"text":"103","angle":1.0828,"widthscale":1.0,"oblique":0.0,"style":"Standard","textgen":"0","alignh":"0","alignv":"0","interlin":-1.0,"lat":29.82904,"lon":52.42708},"geometry":{"type":"Point","coordinates":[52.427080748932525,29.829042046004847]}},{"type":"Feature","properties":{"fid":999.0,"handle":"5967","block":"-1","etype":"25","space":"0","layer":"pelak","olinetype":"continuous","linetype":null,"color":"255,0,255,79","ocolor":"256","color24":"-1","transparen":"0","lweight":"-1","linewidth":0.0,"ltscale":1.0,"visible":"1","thickness":0.0,"ext":"(3:0,0,1)","height":1.5,"text":"104","angle":1.0828,"widthscale":1.0,"oblique":0.0,"style":"Standard","textgen":"0","alignh":"0","alignv":"0","interlin":-1.0,"lat":29.82893,"lon":52.42731},"geometry":{"type":"Point","coordinates":[52.427306526025127,29.82893004336502]}},{"type":"Feature","properties":{"fid":1000.0,"handle":"5969","block":"-1","etype":"25","space":"0","layer":"pelak","olinetype":"continuous","linetype":null,"color":"255,0,255,79","ocolor":"256","color24":"-1","transparen":"0","lweight":"-1","linewidth":0.0,"ltscale":1.0,"visible":"1","thickness":0.0,"ext":"(3:0,0,1)","height":1.5,"text":"105","angle":1.0828,"widthscale":1.0,"oblique":0.0,"style":"Standard","textgen":"0","alignh":"0","alignv":"0","interlin":-1.0,"lat":29.8288,"lon":52.42753},"geometry":{"type":"Point","coordinates":[52.427526807548503,29.82880172846642]}},{"type":"Feature","properties":{"fid":1001.0,"handle":"5971","block":"-1","etype":"25","space":"0","layer":"pelak","olinetype":"continuous","linetype":null,"color":"255,0,255,79","ocolor":"256","color24":"-1","transparen":"0","lweight":"-1","linewidth":0.0,"ltscale":1.0,"visible":"1","thickness":0.0,"ext":"(3:0,0,1)","height":1.5,"text":"106","angle":1.0828,"widthscale":1.0,"oblique":0.0,"style":"Standard","textgen":"0","alignh":"0","alignv":"0","interlin":-1.0,"lat":29.82868,"lon":52.42773},"geometry":{"type":"Point","coordinates":[52.427732770092874,29.828682854010356]}},{"type":"Feature","properties":{"fid":1002.0,"handle":"5973","block":"-1","etype":"25","space":"0","layer":"pelak","olinetype":"continuous","linetype":null,"color":"255,0,255,79","ocolor":"256","color24":"-1","transparen":"0","lweight":"-1","linewidth":0.0,"ltscale":1.0,"visible":"1","thickness":0.0,"ext":"(3:0,0,1)","height":1.5,"text":"107","angle":1.0828,"widthscale":1.0,"oblique":0.0,"style":"Standard","textgen":"0","alignh":"0","alignv":"0","interlin":-1.0,"lat":29.82856,"lon":52.42796},"geometry":{"type":"Point","coordinates":[52.427960511046827,29.828559235881091]}},{"type":"Feature","properties":{"fid":1003.0,"handle":"5975","block":"-1","etype":"25","space":"0","layer":"pelak","olinetype":"continuous","linetype":null,"color":"255,0,255,79","ocolor":"256","color24":"-1","transparen":"0","lweight":"-1","linewidth":0.0,"ltscale":1.0,"visible":"1","thickness":0.0,"ext":"(3:0,0,1)","height":1.5,"text":"108","angle":1.0828,"widthscale":1.0,"oblique":0.0,"style":"Standard","textgen":"0","alignh":"0","alignv":"0","interlin":-1.0,"lat":29.82844,"lon":52.42818},"geometry":{"type":"Point","coordinates":[52.428181384952595,29.828444926440351]}},{"type":"Feature","properties":{"fid":1004.0,"handle":"5977","block":"-1","etype":"25","space":"0","layer":"pelak","olinetype":"continuous","linetype":null,"color":"255,0,255,79","ocolor":"256","color24":"-1","transparen":"0","lweight":"-1","linewidth":0.0,"ltscale":1.0,"visible":"1","thickness":0.0,"ext":"(3:0,0,1)","height":1.5,"text":"109","angle":1.0828,"widthscale":1.0,"oblique":0.0,"style":"Standard","textgen":"0","alignh":"0","alignv":"0","interlin":-1.0,"lat":29.82831,"lon":52.4284},"geometry":{"type":"Point","coordinates":[52.428395960752063,29.828307071236488]}},{"type":"Feature","properties":{"fid":1005.0,"handle":"5979","block":"-1","etype":"25","space":"0","layer":"pelak","olinetype":"continuous","linetype":null,"color":"255,0,255,79","ocolor":"256","color24":"-1","transparen":"0","lweight":"-1","linewidth":0.0,"ltscale":1.0,"visible":"1","thickness":0.0,"ext":"(3:0,0,1)","height":1.5,"text":"110","angle":1.0828,"widthscale":1.0,"oblique":0.0,"style":"Standard","textgen":"0","alignh":"0","alignv":"0","interlin":-1.0,"lat":29.82819,"lon":52.42861},"geometry":{"type":"Point","coordinates":[52.428614904282725,29.828189590125259]}},{"type":"Feature","properties":{"fid":1006.0,"handle":"5981","block":"-1","etype":"25","space":"0","layer":"pelak","olinetype":"continuous","linetype":null,"color":"255,0,255,79","ocolor":"256","color24":"-1","transparen":"0","lweight":"-1","linewidth":0.0,"ltscale":1.0,"visible":"1","thickness":0.0,"ext":"(3:0,0,1)","height":1.5,"text":"111","angle":1.0828,"widthscale":1.0,"oblique":0.0,"style":"Standard","textgen":"0","alignh":"0","alignv":"0","interlin":-1.0,"lat":29.82807,"lon":52.42883},"geometry":{"type":"Point","coordinates":[52.42882797889898,29.828069394299892]}},{"type":"Feature","properties":{"fid":1007.0,"handle":"5983","block":"-1","etype":"25","space":"0","layer":"pelak","olinetype":"continuous","linetype":null,"color":"255,0,255,79","ocolor":"256","color24":"-1","transparen":"0","lweight":"-1","linewidth":0.0,"ltscale":1.0,"visible":"1","thickness":0.0,"ext":"(3:0,0,1)","height":1.5,"text":"112","angle":1.0828,"widthscale":1.0,"oblique":0.0,"style":"Standard","textgen":"0","alignh":"0","alignv":"0","interlin":-1.0,"lat":29.82795,"lon":52.42905},"geometry":{"type":"Point","coordinates":[52.429046609629559,29.827950721444125]}},{"type":"Feature","properties":{"fid":1008.0,"handle":"5986","block":"-1","etype":"25","space":"0","layer":"pelak","olinetype":"continuous","linetype":null,"color":"255,0,255,79","ocolor":"256","color24":"-1","transparen":"0","lweight":"-1","linewidth":0.0,"ltscale":1.0,"visible":"1","thickness":0.0,"ext":"(3:0,0,1)","height":1.5,"text":"113","angle":1.0828,"widthscale":1.0,"oblique":0.0,"style":"Standard","textgen":"0","alignh":"0","alignv":"0","interlin":-1.0,"lat":29.82859,"lon":52.4293},"geometry":{"type":"Point","coordinates":[52.429295940756212,29.828585206090647]}},{"type":"Feature","properties":{"fid":1009.0,"handle":"5989","block":"-1","etype":"25","space":"0","layer":"pelak","olinetype":"continuous","linetype":null,"color":"255,0,255,79","ocolor":"256","color24":"-1","transparen":"0","lweight":"-1","linewidth":0.0,"ltscale":1.0,"visible":"1","thickness":0.0,"ext":"(3:0,0,1)","height":1.5,"text":"114","angle":1.0828,"widthscale":1.0,"oblique":0.0,"style":"Standard","textgen":"0","alignh":"0","alignv":"0","interlin":-1.0,"lat":29.82872,"lon":52.42906},"geometry":{"type":"Point","coordinates":[52.429061695799085,29.828715499685519]}},{"type":"Feature","properties":{"fid":1010.0,"handle":"5992","block":"-1","etype":"25","space":"0","layer":"pelak","olinetype":"continuous","linetype":null,"color":"255,0,255,79","ocolor":"256","color24":"-1","transparen":"0","lweight":"-1","linewidth":0.0,"ltscale":1.0,"visible":"1","thickness":0.0,"ext":"(3:0,0,1)","height":1.5,"text":"115","angle":1.0828,"widthscale":1.0,"oblique":0.0,"style":"Standard","textgen":"0","alignh":"0","alignv":"0","interlin":-1.0,"lat":29.82883,"lon":52.42891},"geometry":{"type":"Point","coordinates":[52.42891380482957,29.828827367569996]}},{"type":"Feature","properties":{"fid":1011.0,"handle":"5995","block":"-1","etype":"25","space":"0","layer":"pelak","olinetype":"continuous","linetype":null,"color":"255,0,255,79","ocolor":"256","color24":"-1","transparen":"0","lweight":"-1","linewidth":0.0,"ltscale":1.0,"visible":"1","thickness":0.0,"ext":"(3:0,0,1)","height":1.5,"text":"116","angle":1.0828,"widthscale":1.0,"oblique":0.0,"style":"Standard","textgen":"0","alignh":"0","alignv":"0","interlin":-1.0,"lat":29.82893,"lon":52.42869},"geometry":{"type":"Point","coordinates":[52.428688024463995,29.828928708081289]}},{"type":"Feature","properties":{"fid":1012.0,"handle":"5998","block":"-1","etype":"25","space":"0","layer":"pelak","olinetype":"continuous","linetype":null,"color":"255,0,255,79","ocolor":"256","color24":"-1","transparen":"0","lweight":"-1","linewidth":0.0,"ltscale":1.0,"visible":"1","thickness":0.0,"ext":"(3:0,0,1)","height":1.5,"text":"117","angle":1.0828,"widthscale":1.0,"oblique":0.0,"style":"Standard","textgen":"0","alignh":"0","alignv":"0","interlin":-1.0,"lat":29.82904,"lon":52.42847},"geometry":{"type":"Point","coordinates":[52.428472905892868,29.829035478454507]}},{"type":"Feature","properties":{"fid":1013.0,"handle":"6001","block":"-1","etype":"25","space":"0","layer":"pelak","olinetype":"continuous","linetype":null,"color":"255,0,255,79","ocolor":"256","color24":"-1","transparen":"0","lweight":"-1","linewidth":0.0,"ltscale":1.0,"visible":"1","thickness":0.0,"ext":"(3:0,0,1)","height":1.5,"text":"118","angle":1.0828,"widthscale":1.0,"oblique":0.0,"style":"Standard","textgen":"0","alignh":"0","alignv":"0","interlin":-1.0,"lat":29.82913,"lon":52.42826},"geometry":{"type":"Point","coordinates":[52.428261278966211,29.829131198823546]}},{"type":"Feature","properties":{"fid":1014.0,"handle":"6004","block":"-1","etype":"25","space":"0","layer":"pelak","olinetype":"continuous","linetype":null,"color":"255,0,255,79","ocolor":"256","color24":"-1","transparen":"0","lweight":"-1","linewidth":0.0,"ltscale":1.0,"visible":"1","thickness":0.0,"ext":"(3:0,0,1)","height":1.5,"text":"119","angle":1.0828,"widthscale":1.0,"oblique":0.0,"style":"Standard","textgen":"0","alignh":"0","alignv":"0","interlin":-1.0,"lat":29.82921,"lon":52.42808},"geometry":{"type":"Point","coordinates":[52.428079858224351,29.829205210328453]}},{"type":"Feature","properties":{"fid":1015.0,"handle":"6007","block":"-1","etype":"25","space":"0","layer":"pelak","olinetype":"continuous","linetype":null,"color":"255,0,255,79","ocolor":"256","color24":"-1","transparen":"0","lweight":"-1","linewidth":0.0,"ltscale":1.0,"visible":"1","thickness":0.0,"ext":"(3:0,0,1)","height":1.5,"text":"120","angle":1.0828,"widthscale":1.0,"oblique":0.0,"style":"Standard","textgen":"0","alignh":"0","alignv":"0","interlin":-1.0,"lat":29.8293,"lon":52.42788},"geometry":{"type":"Point","coordinates":[52.427876973322782,29.829295140974857]}},{"type":"Feature","properties":{"fid":1016.0,"handle":"6010","block":"-1","etype":"25","space":"0","layer":"pelak","olinetype":"continuous","linetype":null,"color":"255,0,255,79","ocolor":"256","color24":"-1","transparen":"0","lweight":"-1","linewidth":0.0,"ltscale":1.0,"visible":"1","thickness":0.0,"ext":"(3:0,0,1)","height":1.5,"text":"121","angle":1.0828,"widthscale":1.0,"oblique":0.0,"style":"Standard","textgen":"0","alignh":"0","alignv":"0","interlin":-1.0,"lat":29.82937,"lon":52.42768},"geometry":{"type":"Point","coordinates":[52.427675047200651,29.829365323503598]}},{"type":"Feature","properties":{"fid":1017.0,"handle":"6013","block":"-1","etype":"25","space":"0","layer":"pelak","olinetype":"continuous","linetype":null,"color":"255,0,255,79","ocolor":"256","color24":"-1","transparen":"0","lweight":"-1","linewidth":0.0,"ltscale":1.0,"visible":"1","thickness":0.0,"ext":"(3:0,0,1)","height":1.5,"text":"122","angle":1.0828,"widthscale":1.0,"oblique":0.0,"style":"Standard","textgen":"0","alignh":"0","alignv":"0","interlin":-1.0,"lat":29.82946,"lon":52.42749},"geometry":{"type":"Point","coordinates":[52.427491533961202,29.829461645682066]}},{"type":"Feature","properties":{"fid":1018.0,"handle":"6016","block":"-1","etype":"25","space":"0","layer":"pelak","olinetype":"continuous","linetype":null,"color":"255,0,255,79","ocolor":"256","color24":"-1","transparen":"0","lweight":"-1","linewidth":0.0,"ltscale":1.0,"visible":"1","thickness":0.0,"ext":"(3:0,0,1)","height":1.5,"text":"123","angle":1.0828,"widthscale":1.0,"oblique":0.0,"style":"Standard","textgen":"0","alignh":"0","alignv":"0","interlin":-1.0,"lat":29.82956,"lon":52.42732},"geometry":{"type":"Point","coordinates":[52.427319034905629,29.829557039150274]}},{"type":"Feature","properties":{"fid":1019.0,"handle":"6019","block":"-1","etype":"25","space":"0","layer":"pelak","olinetype":"continuous","linetype":null,"color":"255,0,255,79","ocolor":"256","color24":"-1","transparen":"0","lweight":"-1","linewidth":0.0,"ltscale":1.0,"visible":"1","thickness":0.0,"ext":"(3:0,0,1)","height":1.5,"text":"124","angle":1.0828,"widthscale":1.0,"oblique":0.0,"style":"Standard","textgen":"0","alignh":"0","alignv":"0","interlin":-1.0,"lat":29.82963,"lon":52.42712},"geometry":{"type":"Point","coordinates":[52.427120905488522,29.829633490080177]}},{"type":"Feature","properties":{"fid":1020.0,"handle":"6022","block":"-1","etype":"25","space":"0","layer":"pelak","olinetype":"continuous","linetype":null,"color":"255,0,255,79","ocolor":"256","color24":"-1","transparen":"0","lweight":"-1","linewidth":0.0,"ltscale":1.0,"visible":"1","thickness":0.0,"ext":"(3:0,0,1)","height":1.5,"text":"125","angle":1.0828,"widthscale":1.0,"oblique":0.0,"style":"Standard","textgen":"0","alignh":"0","alignv":"0","interlin":-1.0,"lat":29.82979,"lon":52.42697},"geometry":{"type":"Point","coordinates":[52.426971468917486,29.829789339115308]}},{"type":"Feature","properties":{"fid":1021.0,"handle":"6025","block":"-1","etype":"25","space":"0","layer":"pelak","olinetype":"continuous","linetype":null,"color":"255,0,255,79","ocolor":"256","color24":"-1","transparen":"0","lweight":"-1","linewidth":0.0,"ltscale":1.0,"visible":"1","thickness":0.0,"ext":"(3:0,0,1)","height":1.5,"text":"126","angle":1.0828,"widthscale":1.0,"oblique":0.0,"style":"Standard","textgen":"0","alignh":"0","alignv":"0","interlin":-1.0,"lat":29.82989,"lon":52.42669},"geometry":{"type":"Point","coordinates":[52.426691264892135,29.829894517877815]}},{"type":"Feature","properties":{"fid":1037.0,"handle":"6085","block":"-1","etype":"25","space":"0","layer":"pelak","olinetype":"continuous","linetype":null,"color":"255,0,255,79","ocolor":"256","color24":"-1","transparen":"0","lweight":"-1","linewidth":0.0,"ltscale":1.0,"visible":"1","thickness":0.0,"ext":"(3:0,0,1)","height":1.5,"text":"127","angle":1.0828,"widthscale":1.0,"oblique":0.0,"style":"Standard","textgen":"0","alignh":"0","alignv":"0","interlin":-1.0,"lat":29.83,"lon":52.42646},"geometry":{"type":"Point","coordinates":[52.426460786554308,29.829997800737434]}},{"type":"Feature","properties":{"fid":1038.0,"handle":"6086","block":"-1","etype":"25","space":"0","layer":"pelak","olinetype":"continuous","linetype":null,"color":"255,0,255,79","ocolor":"256","color24":"-1","transparen":"0","lweight":"-1","linewidth":0.0,"ltscale":1.0,"visible":"1","thickness":0.0,"ext":"(3:0,0,1)","height":1.5,"text":"128","angle":1.0828,"widthscale":1.0,"oblique":0.0,"style":"Standard","textgen":"0","alignh":"0","alignv":"0","interlin":-1.0,"lat":29.83011,"lon":52.42628},"geometry":{"type":"Point","coordinates":[52.426284448431716,29.830110590210811]}},{"type":"Feature","properties":{"fid":1039.0,"handle":"6087","block":"-1","etype":"25","space":"0","layer":"pelak","olinetype":"continuous","linetype":null,"color":"255,0,255,79","ocolor":"256","color24":"-1","transparen":"0","lweight":"-1","linewidth":0.0,"ltscale":1.0,"visible":"1","thickness":0.0,"ext":"(3:0,0,1)","height":1.5,"text":"129","angle":1.0828,"widthscale":1.0,"oblique":0.0,"style":"Standard","textgen":"0","alignh":"0","alignv":"0","interlin":-1.0,"lat":29.83022,"lon":52.42606},"geometry":{"type":"Point","coordinates":[52.426064880581698,29.830221528844948]}}]}