{
"type": "FeatureCollection",
"name": "faz1region",
"crs": { "type": "name", "properties": { "name": "urn:ogc:def:crs:OGC:1.3:CRS84" } },
"features": [
{ "type": "Feature", "properties": { "Name": "318.1", "masahat": 293.0, "lat": 29.796553057600001, "lon": 52.508091883299997, "layer": "180", "path": "F:/New folder/map/map_koli_GWC/faz1/180hec/180.shp" }, "geometry": { "type": "Point", "coordinates": [ 52.511038614801379, 29.798739441973026 ] } },
{ "type": "Feature", "properties": { "Name": "2.48", "masahat": 1000.0, "lat": 29.815205147899999, "lon": 52.494320257200002, "layer": "200", "path": "F:/New folder/map/map_koli_GWC/faz1/200hec/200.shp" }, "geometry": { "type": "Point", "coordinates": [ 52.489804715536373, 29.808551815423172 ] } },
{ "type": "Feature", "properties": { "Name": "769", "masahat": 249.0, "lat": 29.812960492799998, "lon": 52.505535633100003, "layer": "60", "path": "F:/New folder/map/map_koli_GWC/faz1/60hec/60.shp" }, "geometry": { "type": "Point", "coordinates": [ 52.505343742835223, 29.808711339640777 ] } },
{ "type": "Feature", "properties": { "Name": "370", "masahat": 249.0, "lat": 29.787334697599999, "lon": 52.518647369500002, "layer": "100", "path": "F:/New folder/map/map_koli_GWC/faz1/100hec/100.shp" }, "geometry": { "type": "Point", "coordinates": [ 52.522878477433167, 29.787803957429993 ] } },
{ "type": "Feature", "properties": { "Name": "33", "masahat": 1863.0, "lat": 29.7869927791, "lon": 52.53199417, "layer": "14", "path": "F:/New folder/map/map_koli_GWC/faz1/14hec/14.shp" }, "geometry": { "type": "Point", "coordinates": [ 52.528145449325763, 29.788971717546787 ] } },
{ "type": "Feature", "properties": { "Name": "317", "masahat": 239.0, "lat": 29.798019385, "lon": 52.518600986400003, "layer": "58", "path": "F:/New folder/map/map_koli_GWC/faz1/58hec/58.shp" }, "geometry": { "type": "Point", "coordinates": [ 52.521152824028277, 29.801408257448848 ] } },
{ "type": "Feature", "properties": { "Name": "552", "masahat": 219.0, "lat": 29.7945654261, "lon": 52.531083891999998, "layer": "80", "path": "F:/New folder/map/map_koli_GWC/faz1/80hec/80.shp" }, "geometry": { "type": "Point", "coordinates": [ 52.530197680153179, 29.793028904331951 ] } },
{ "type": "Feature", "properties": { "Name": "24", "masahat": 276.0, "lat": 29.8126264, "lon": 52.507231366100001, "layer": "25", "path": "F:/New folder/map/map_koli_GWC/faz1/25hec/25.shp" }, "geometry": { "type": "Point", "coordinates": [ 52.509892130995013, 29.81096710125648 ] } },
{ "type": "Feature", "properties": { "Name": "2", "masahat": 18854.0, "lat": 29.814781989299998, "lon": 52.501849114599999, "layer": "55", "path": "F:/New folder/map/map_koli_GWC/faz1/55hec/55.shp" }, "geometry": { "type": "Point", "coordinates": [ 52.499208597015596, 29.811355069933757 ] } },
{ "type": "Feature", "properties": { "Name": "541", "masahat": 249.0, "lat": 29.7983243567, "lon": 52.525834785400001, "layer": "45", "path": "F:/New folder/map/map_koli_GWC/faz1/45hec/45.shp" }, "geometry": { "type": "Point", "coordinates": [ 52.52292154894679, 29.79566273032183 ] } },
{ "type": "Feature", "properties": { "Name": "235", "masahat": 229.0, "lat": 29.806788761899998, "lon": 52.520435967099999, "layer": "40", "path": "F:/New folder/map/map_koli_GWC/faz1/40hec/40.shp" }, "geometry": { "type": "Point", "coordinates": [ 52.519998378512803, 29.808496834569159 ] } },
{ "type": "Feature", "properties": { "Name": "314", "masahat": 343.0, "lat": 29.796337592299999, "lon": 52.501430208000002, "layer": "90 جنوب", "path": "F:/New folder/map/map_koli_GWC/faz1/90southhec/90south.shp" }, "geometry": { "type": "Point", "coordinates": [ 52.498186312811534, 29.799798531938176 ] } },
{ "type": "Feature", "properties": { "Name": "158", "masahat": 229.0, "lat": 29.814957165599999, "lon": 52.485915558000002, "layer": "50", "path": "F:/New folder/map/map_koli_GWC/faz1/50hec/50.shp" }, "geometry": { "type": "Point", "coordinates": [ 52.486450790211158, 29.813941817040337 ] } },
{ "type": "Feature", "properties": { "Name": "40", "masahat": 2615.0, "lat": 29.787579629, "lon": 52.542231193500001, "layer": "128", "path": "F:/New folder/map/map_koli_GWC/faz1/128hec/128.shp" }, "geometry": { "type": "Point", "coordinates": [ 52.537319926392094, 29.784075837300851 ] } },
{ "type": "Feature", "properties": { "Name": "348.1", "masahat": 50.0, "lat": 29.800920199699998, "lon": 52.501306382400003, "layer": "90 شمال", "path": "F:/New folder/map/map_koli_GWC/faz1/90northec/90north.shp" }, "geometry": { "type": "Point", "coordinates": [ 52.499794546929955, 29.803112910040568 ] } }
]
}
