{
  "type": "FeatureCollection",
  "name": "_3",
  "crs": {
    "type": "name",
    "properties": { "name": "urn:ogc:def:crs:OGC:1.3:CRS84" }
  },
  "features": [
    {
      "type": "Feature",
      "properties": {
        "fid": 597.0,
        "handle": "4994",
        "block": "-1",
        "etype": "25",
        "space": "0",
        "layer": "pelak",
        "olinetype": "continuous",
        "linetype": null,
        "color": "255,0,255,255",
        "ocolor": "256",
        "color24": "-1",
        "transparen": "0",
        "lweight": "0",
        "linewidth": 0.0,
        "ltscale": 1.0,
        "visible": "1",
        "thickness": 0.0,
        "ext": "(3:0,0,1)",
        "height": 2.1676,
        "text": "4",
        "angle": 358.74818,
        "widthscale": 1.0,
        "oblique": 0.0,
        "style": "STYLE2",
        "textgen": "0",
        "alignh": "0",
        "alignv": "0",
        "interlin": -1.0
      },
      "geometry": {
        "type": "Point",
        "coordinates": [52.416773607783192, 29.830975385256089]
      }
    },
    {
      "type": "Feature",
      "properties": {
        "fid": 598.0,
        "handle": "5003",
        "block": "-1",
        "etype": "25",
        "space": "0",
        "layer": "pelak",
        "olinetype": "continuous",
        "linetype": null,
        "color": "255,0,255,255",
        "ocolor": "256",
        "color24": "-1",
        "transparen": "0",
        "lweight": "0",
        "linewidth": 0.0,
        "ltscale": 1.0,
        "visible": "1",
        "thickness": 0.0,
        "ext": "(3:0,0,1)",
        "height": 2.1676,
        "text": "5",
        "angle": 358.74818,
        "widthscale": 1.0,
        "oblique": 0.0,
        "style": "STYLE2",
        "textgen": "0",
        "alignh": "0",
        "alignv": "0",
        "interlin": -1.0
      },
      "geometry": {
        "type": "Point",
        "coordinates": [52.416991367572166, 29.830918356784242]
      }
    },
    {
      "type": "Feature",
      "properties": {
        "fid": 599.0,
        "handle": "5006",
        "block": "-1",
        "etype": "25",
        "space": "0",
        "layer": "pelak",
        "olinetype": "continuous",
        "linetype": null,
        "color": "255,0,255,255",
        "ocolor": "256",
        "color24": "-1",
        "transparen": "0",
        "lweight": "0",
        "linewidth": 0.0,
        "ltscale": 1.0,
        "visible": "1",
        "thickness": 0.0,
        "ext": "(3:0,0,1)",
        "height": 2.1676,
        "text": "6",
        "angle": 358.74818,
        "widthscale": 1.0,
        "oblique": 0.0,
        "style": "STYLE2",
        "textgen": "0",
        "alignh": "0",
        "alignv": "0",
        "interlin": -1.0
      },
      "geometry": {
        "type": "Point",
        "coordinates": [52.417553125580305, 29.830690774643266]
      }
    },
    {
      "type": "Feature",
      "properties": {
        "fid": 600.0,
        "handle": "5009",
        "block": "-1",
        "etype": "25",
        "space": "0",
        "layer": "pelak",
        "olinetype": "continuous",
        "linetype": null,
        "color": "255,0,255,255",
        "ocolor": "256",
        "color24": "-1",
        "transparen": "0",
        "lweight": "0",
        "linewidth": 0.0,
        "ltscale": 1.0,
        "visible": "1",
        "thickness": 0.0,
        "ext": "(3:0,0,1)",
        "height": 2.1676,
        "text": "7",
        "angle": 358.74818,
        "widthscale": 1.0,
        "oblique": 0.0,
        "style": "STYLE2",
        "textgen": "0",
        "alignh": "0",
        "alignv": "0",
        "interlin": -1.0
      },
      "geometry": {
        "type": "Point",
        "coordinates": [52.417914486563383, 29.830551398000154]
      }
    },
    {
      "type": "Feature",
      "properties": {
        "fid": 602.0,
        "handle": "5025",
        "block": "-1",
        "etype": "25",
        "space": "0",
        "layer": "pelak",
        "olinetype": "continuous",
        "linetype": null,
        "color": "255,0,255,255",
        "ocolor": "256",
        "color24": "-1",
        "transparen": "0",
        "lweight": "0",
        "linewidth": 0.0,
        "ltscale": 1.0,
        "visible": "1",
        "thickness": 0.0,
        "ext": "(3:0,0,1)",
        "height": 2.1676,
        "text": "8",
        "angle": 358.74818,
        "widthscale": 1.0,
        "oblique": 0.0,
        "style": "STYLE2",
        "textgen": "0",
        "alignh": "0",
        "alignv": "0",
        "interlin": -1.0
      },
      "geometry": {
        "type": "Point",
        "coordinates": [52.418516176254819, 29.830289043569838]
      }
    },
    {
      "type": "Feature",
      "properties": {
        "fid": 603.0,
        "handle": "5028",
        "block": "-1",
        "etype": "25",
        "space": "0",
        "layer": "pelak",
        "olinetype": "continuous",
        "linetype": null,
        "color": "255,0,255,255",
        "ocolor": "256",
        "color24": "-1",
        "transparen": "0",
        "lweight": "0",
        "linewidth": 0.0,
        "ltscale": 1.0,
        "visible": "1",
        "thickness": 0.0,
        "ext": "(3:0,0,1)",
        "height": 2.1676,
        "text": "12",
        "angle": 358.74818,
        "widthscale": 1.0,
        "oblique": 0.0,
        "style": "STYLE2",
        "textgen": "0",
        "alignh": "0",
        "alignv": "0",
        "interlin": -1.0
      },
      "geometry": {
        "type": "Point",
        "coordinates": [52.419938109855501, 29.829973016630603]
      }
    },
    {
      "type": "Feature",
      "properties": {
        "fid": 604.0,
        "handle": "5031",
        "block": "-1",
        "etype": "25",
        "space": "0",
        "layer": "pelak",
        "olinetype": "continuous",
        "linetype": null,
        "color": "255,0,255,255",
        "ocolor": "256",
        "color24": "-1",
        "transparen": "0",
        "lweight": "0",
        "linewidth": 0.0,
        "ltscale": 1.0,
        "visible": "1",
        "thickness": 0.0,
        "ext": "(3:0,0,1)",
        "height": 2.1676,
        "text": "13",
        "angle": 358.74818,
        "widthscale": 1.0,
        "oblique": 0.0,
        "style": "STYLE2",
        "textgen": "0",
        "alignh": "0",
        "alignv": "0",
        "interlin": -1.0
      },
      "geometry": {
        "type": "Point",
        "coordinates": [52.419753524790103, 29.830052026790721]
      }
    },
    {
      "type": "Feature",
      "properties": {
        "fid": 605.0,
        "handle": "5034",
        "block": "-1",
        "etype": "25",
        "space": "0",
        "layer": "pelak",
        "olinetype": "continuous",
        "linetype": null,
        "color": "255,0,255,255",
        "ocolor": "256",
        "color24": "-1",
        "transparen": "0",
        "lweight": "0",
        "linewidth": 0.0,
        "ltscale": 1.0,
        "visible": "1",
        "thickness": 0.0,
        "ext": "(3:0,0,1)",
        "height": 2.1676,
        "text": "14",
        "angle": 358.74818,
        "widthscale": 1.0,
        "oblique": 0.0,
        "style": "STYLE2",
        "textgen": "0",
        "alignh": "0",
        "alignv": "0",
        "interlin": -1.0
      },
      "geometry": {
        "type": "Point",
        "coordinates": [52.419570709503851, 29.830149622008076]
      }
    },
    {
      "type": "Feature",
      "properties": {
        "fid": 606.0,
        "handle": "5037",
        "block": "-1",
        "etype": "25",
        "space": "0",
        "layer": "pelak",
        "olinetype": "continuous",
        "linetype": null,
        "color": "255,0,255,255",
        "ocolor": "256",
        "color24": "-1",
        "transparen": "0",
        "lweight": "0",
        "linewidth": 0.0,
        "ltscale": 1.0,
        "visible": "1",
        "thickness": 0.0,
        "ext": "(3:0,0,1)",
        "height": 2.1676,
        "text": "15",
        "angle": 358.74818,
        "widthscale": 1.0,
        "oblique": 0.0,
        "style": "STYLE2",
        "textgen": "0",
        "alignh": "0",
        "alignv": "0",
        "interlin": -1.0
      },
      "geometry": {
        "type": "Point",
        "coordinates": [52.419393047615529, 29.830243135876554]
      }
    },
    {
      "type": "Feature",
      "properties": {
        "fid": 607.0,
        "handle": "5040",
        "block": "-1",
        "etype": "25",
        "space": "0",
        "layer": "pelak",
        "olinetype": "continuous",
        "linetype": null,
        "color": "255,0,255,255",
        "ocolor": "256",
        "color24": "-1",
        "transparen": "0",
        "lweight": "0",
        "linewidth": 0.0,
        "ltscale": 1.0,
        "visible": "1",
        "thickness": 0.0,
        "ext": "(3:0,0,1)",
        "height": 2.1676,
        "text": "16",
        "angle": 358.74818,
        "widthscale": 1.0,
        "oblique": 0.0,
        "style": "STYLE2",
        "textgen": "0",
        "alignh": "0",
        "alignv": "0",
        "interlin": -1.0
      },
      "geometry": {
        "type": "Point",
        "coordinates": [52.419207891985614, 29.830332906192581]
      }
    },
    {
      "type": "Feature",
      "properties": {
        "fid": 608.0,
        "handle": "5043",
        "block": "-1",
        "etype": "25",
        "space": "0",
        "layer": "pelak",
        "olinetype": "continuous",
        "linetype": null,
        "color": "255,0,255,255",
        "ocolor": "256",
        "color24": "-1",
        "transparen": "0",
        "lweight": "0",
        "linewidth": 0.0,
        "ltscale": 1.0,
        "visible": "1",
        "thickness": 0.0,
        "ext": "(3:0,0,1)",
        "height": 2.1676,
        "text": "17",
        "angle": 358.74818,
        "widthscale": 1.0,
        "oblique": 0.0,
        "style": "STYLE2",
        "textgen": "0",
        "alignh": "0",
        "alignv": "0",
        "interlin": -1.0
      },
      "geometry": {
        "type": "Point",
        "coordinates": [52.419028318948456, 29.830437934072155]
      }
    },
    {
      "type": "Feature",
      "properties": {
        "fid": 609.0,
        "handle": "5046",
        "block": "-1",
        "etype": "25",
        "space": "0",
        "layer": "pelak",
        "olinetype": "continuous",
        "linetype": null,
        "color": "255,0,255,255",
        "ocolor": "256",
        "color24": "-1",
        "transparen": "0",
        "lweight": "0",
        "linewidth": 0.0,
        "ltscale": 1.0,
        "visible": "1",
        "thickness": 0.0,
        "ext": "(3:0,0,1)",
        "height": 2.1676,
        "text": "18",
        "angle": 358.74818,
        "widthscale": 1.0,
        "oblique": 0.0,
        "style": "STYLE2",
        "textgen": "0",
        "alignh": "0",
        "alignv": "0",
        "interlin": -1.0
      },
      "geometry": {
        "type": "Point",
        "coordinates": [52.418826759890727, 29.830466899475176]
      }
    },
    {
      "type": "Feature",
      "properties": {
        "fid": 610.0,
        "handle": "5052",
        "block": "-1",
        "etype": "25",
        "space": "0",
        "layer": "pelak",
        "olinetype": "continuous",
        "linetype": null,
        "color": "255,0,255,255",
        "ocolor": "256",
        "color24": "-1",
        "transparen": "0",
        "lweight": "0",
        "linewidth": 0.0,
        "ltscale": 1.0,
        "visible": "1",
        "thickness": 0.0,
        "ext": "(3:0,0,1)",
        "height": 2.1676,
        "text": "19",
        "angle": 358.74818,
        "widthscale": 1.0,
        "oblique": 0.0,
        "style": "STYLE2",
        "textgen": "0",
        "alignh": "0",
        "alignv": "0",
        "interlin": -1.0
      },
      "geometry": {
        "type": "Point",
        "coordinates": [52.418458911301173, 29.830714848077452]
      }
    },
    {
      "type": "Feature",
      "properties": {
        "fid": 611.0,
        "handle": "5055",
        "block": "-1",
        "etype": "25",
        "space": "0",
        "layer": "pelak",
        "olinetype": "continuous",
        "linetype": null,
        "color": "255,0,255,255",
        "ocolor": "256",
        "color24": "-1",
        "transparen": "0",
        "lweight": "0",
        "linewidth": 0.0,
        "ltscale": 1.0,
        "visible": "1",
        "thickness": 0.0,
        "ext": "(3:0,0,1)",
        "height": 2.1676,
        "text": "20",
        "angle": 358.74818,
        "widthscale": 1.0,
        "oblique": 0.0,
        "style": "STYLE2",
        "textgen": "0",
        "alignh": "0",
        "alignv": "0",
        "interlin": -1.0
      },
      "geometry": {
        "type": "Point",
        "coordinates": [52.418276945347039, 29.830784796113171]
      }
    },
    {
      "type": "Feature",
      "properties": {
        "fid": 612.0,
        "handle": "5058",
        "block": "-1",
        "etype": "25",
        "space": "0",
        "layer": "pelak",
        "olinetype": "continuous",
        "linetype": null,
        "color": "255,0,255,255",
        "ocolor": "256",
        "color24": "-1",
        "transparen": "0",
        "lweight": "0",
        "linewidth": 0.0,
        "ltscale": 1.0,
        "visible": "1",
        "thickness": 0.0,
        "ext": "(3:0,0,1)",
        "height": 2.1676,
        "text": "21",
        "angle": 358.74818,
        "widthscale": 1.0,
        "oblique": 0.0,
        "style": "STYLE2",
        "textgen": "0",
        "alignh": "0",
        "alignv": "0",
        "interlin": -1.0
      },
      "geometry": {
        "type": "Point",
        "coordinates": [52.41806597676689, 29.830837632632093]
      }
    },
    {
      "type": "Feature",
      "properties": {
        "fid": 613.0,
        "handle": "5063",
        "block": "-1",
        "etype": "25",
        "space": "0",
        "layer": "pelak",
        "olinetype": "continuous",
        "linetype": null,
        "color": "255,0,255,255",
        "ocolor": "256",
        "color24": "-1",
        "transparen": "0",
        "lweight": "0",
        "linewidth": 0.0,
        "ltscale": 1.0,
        "visible": "1",
        "thickness": 0.0,
        "ext": "(3:0,0,1)",
        "height": 2.1676,
        "text": "22",
        "angle": 358.74818,
        "widthscale": 1.0,
        "oblique": 0.0,
        "style": "STYLE2",
        "textgen": "0",
        "alignh": "0",
        "alignv": "0",
        "interlin": -1.0
      },
      "geometry": {
        "type": "Point",
        "coordinates": [52.417616203203423, 29.83113867742653]
      }
    },
    {
      "type": "Feature",
      "properties": {
        "fid": 614.0,
        "handle": "5066",
        "block": "-1",
        "etype": "25",
        "space": "0",
        "layer": "pelak",
        "olinetype": "continuous",
        "linetype": null,
        "color": "255,0,255,255",
        "ocolor": "256",
        "color24": "-1",
        "transparen": "0",
        "lweight": "0",
        "linewidth": 0.0,
        "ltscale": 1.0,
        "visible": "1",
        "thickness": 0.0,
        "ext": "(3:0,0,1)",
        "height": 2.1676,
        "text": "23",
        "angle": 358.74818,
        "widthscale": 1.0,
        "oblique": 0.0,
        "style": "STYLE2",
        "textgen": "0",
        "alignh": "0",
        "alignv": "0",
        "interlin": -1.0
      },
      "geometry": {
        "type": "Point",
        "coordinates": [52.417367412008829, 29.831250174708774]
      }
    },
    {
      "type": "Feature",
      "properties": {
        "fid": 615.0,
        "handle": "5069",
        "block": "-1",
        "etype": "25",
        "space": "0",
        "layer": "pelak",
        "olinetype": "continuous",
        "linetype": null,
        "color": "255,0,255,255",
        "ocolor": "256",
        "color24": "-1",
        "transparen": "0",
        "lweight": "0",
        "linewidth": 0.0,
        "ltscale": 1.0,
        "visible": "1",
        "thickness": 0.0,
        "ext": "(3:0,0,1)",
        "height": 2.1676,
        "text": "24",
        "angle": 358.74818,
        "widthscale": 1.0,
        "oblique": 0.0,
        "style": "STYLE2",
        "textgen": "0",
        "alignh": "0",
        "alignv": "0",
        "interlin": -1.0
      },
      "geometry": {
        "type": "Point",
        "coordinates": [52.417185087315332, 29.831343851622741]
      }
    },
    {
      "type": "Feature",
      "properties": {
        "fid": 616.0,
        "handle": "5072",
        "block": "-1",
        "etype": "25",
        "space": "0",
        "layer": "pelak",
        "olinetype": "continuous",
        "linetype": null,
        "color": "255,0,255,255",
        "ocolor": "256",
        "color24": "-1",
        "transparen": "0",
        "lweight": "0",
        "linewidth": 0.0,
        "ltscale": 1.0,
        "visible": "1",
        "thickness": 0.0,
        "ext": "(3:0,0,1)",
        "height": 2.1676,
        "text": "25",
        "angle": 358.74818,
        "widthscale": 1.0,
        "oblique": 0.0,
        "style": "STYLE2",
        "textgen": "0",
        "alignh": "0",
        "alignv": "0",
        "interlin": -1.0
      },
      "geometry": {
        "type": "Point",
        "coordinates": [52.417029029828086, 29.831459552951195]
      }
    },
    {
      "type": "Feature",
      "properties": {
        "fid": 617.0,
        "handle": "5082",
        "block": "-1",
        "etype": "25",
        "space": "0",
        "layer": "pelak",
        "olinetype": "continuous",
        "linetype": null,
        "color": "255,0,255,255",
        "ocolor": "256",
        "color24": "-1",
        "transparen": "0",
        "lweight": "0",
        "linewidth": 0.0,
        "ltscale": 1.0,
        "visible": "1",
        "thickness": 0.0,
        "ext": "(3:0,0,1)",
        "height": 2.1676,
        "text": "32",
        "angle": 358.74818,
        "widthscale": 1.0,
        "oblique": 0.0,
        "style": "STYLE2",
        "textgen": "0",
        "alignh": "0",
        "alignv": "0",
        "interlin": -1.0
      },
      "geometry": {
        "type": "Point",
        "coordinates": [52.417208093146002, 29.831714841190887]
      }
    },
    {
      "type": "Feature",
      "properties": {
        "fid": 618.0,
        "handle": "5085",
        "block": "-1",
        "etype": "25",
        "space": "0",
        "layer": "pelak",
        "olinetype": "continuous",
        "linetype": null,
        "color": "255,0,255,255",
        "ocolor": "256",
        "color24": "-1",
        "transparen": "0",
        "lweight": "0",
        "linewidth": 0.0,
        "ltscale": 1.0,
        "visible": "1",
        "thickness": 0.0,
        "ext": "(3:0,0,1)",
        "height": 2.1676,
        "text": "33",
        "angle": 358.74818,
        "widthscale": 1.0,
        "oblique": 0.0,
        "style": "STYLE2",
        "textgen": "0",
        "alignh": "0",
        "alignv": "0",
        "interlin": -1.0
      },
      "geometry": {
        "type": "Point",
        "coordinates": [52.417371145293892, 29.831614162635315]
      }
    },
    {
      "type": "Feature",
      "properties": {
        "fid": 619.0,
        "handle": "5088",
        "block": "-1",
        "etype": "25",
        "space": "0",
        "layer": "pelak",
        "olinetype": "continuous",
        "linetype": null,
        "color": "255,0,255,255",
        "ocolor": "256",
        "color24": "-1",
        "transparen": "0",
        "lweight": "0",
        "linewidth": 0.0,
        "ltscale": 1.0,
        "visible": "1",
        "thickness": 0.0,
        "ext": "(3:0,0,1)",
        "height": 2.1676,
        "text": "34",
        "angle": 358.74818,
        "widthscale": 1.0,
        "oblique": 0.0,
        "style": "STYLE2",
        "textgen": "0",
        "alignh": "0",
        "alignv": "0",
        "interlin": -1.0
      },
      "geometry": {
        "type": "Point",
        "coordinates": [52.41755410341321, 29.831516664311149]
      }
    },
    {
      "type": "Feature",
      "properties": {
        "fid": 620.0,
        "handle": "5091",
        "block": "-1",
        "etype": "25",
        "space": "0",
        "layer": "pelak",
        "olinetype": "continuous",
        "linetype": null,
        "color": "255,0,255,255",
        "ocolor": "256",
        "color24": "-1",
        "transparen": "0",
        "lweight": "0",
        "linewidth": 0.0,
        "ltscale": 1.0,
        "visible": "1",
        "thickness": 0.0,
        "ext": "(3:0,0,1)",
        "height": 2.1676,
        "text": "35",
        "angle": 358.74818,
        "widthscale": 1.0,
        "oblique": 0.0,
        "style": "STYLE2",
        "textgen": "0",
        "alignh": "0",
        "alignv": "0",
        "interlin": -1.0
      },
      "geometry": {
        "type": "Point",
        "coordinates": [52.41773046010465, 29.831427154241332]
      }
    },
    {
      "type": "Feature",
      "properties": {
        "fid": 621.0,
        "handle": "5094",
        "block": "-1",
        "etype": "25",
        "space": "0",
        "layer": "pelak",
        "olinetype": "continuous",
        "linetype": null,
        "color": "255,0,255,255",
        "ocolor": "256",
        "color24": "-1",
        "transparen": "0",
        "lweight": "0",
        "linewidth": 0.0,
        "ltscale": 1.0,
        "visible": "1",
        "thickness": 0.0,
        "ext": "(3:0,0,1)",
        "height": 2.1676,
        "text": "36",
        "angle": 358.74818,
        "widthscale": 1.0,
        "oblique": 0.0,
        "style": "STYLE2",
        "textgen": "0",
        "alignh": "0",
        "alignv": "0",
        "interlin": -1.0
      },
      "geometry": {
        "type": "Point",
        "coordinates": [52.417907690343334, 29.831333921708723]
      }
    },
    {
      "type": "Feature",
      "properties": {
        "fid": 622.0,
        "handle": "5097",
        "block": "-1",
        "etype": "25",
        "space": "0",
        "layer": "pelak",
        "olinetype": "continuous",
        "linetype": null,
        "color": "255,0,255,255",
        "ocolor": "256",
        "color24": "-1",
        "transparen": "0",
        "lweight": "0",
        "linewidth": 0.0,
        "ltscale": 1.0,
        "visible": "1",
        "thickness": 0.0,
        "ext": "(3:0,0,1)",
        "height": 2.1676,
        "text": "37",
        "angle": 358.74818,
        "widthscale": 1.0,
        "oblique": 0.0,
        "style": "STYLE2",
        "textgen": "0",
        "alignh": "0",
        "alignv": "0",
        "interlin": -1.0
      },
      "geometry": {
        "type": "Point",
        "coordinates": [52.41815822839655, 29.831309778131022]
      }
    },
    {
      "type": "Feature",
      "properties": {
        "fid": 623.0,
        "handle": "5100",
        "block": "-1",
        "etype": "25",
        "space": "0",
        "layer": "pelak",
        "olinetype": "continuous",
        "linetype": null,
        "color": "255,0,255,255",
        "ocolor": "256",
        "color24": "-1",
        "transparen": "0",
        "lweight": "0",
        "linewidth": 0.0,
        "ltscale": 1.0,
        "visible": "1",
        "thickness": 0.0,
        "ext": "(3:0,0,1)",
        "height": 2.1676,
        "text": "38",
        "angle": 358.74818,
        "widthscale": 1.0,
        "oblique": 0.0,
        "style": "STYLE2",
        "textgen": "0",
        "alignh": "0",
        "alignv": "0",
        "interlin": -1.0
      },
      "geometry": {
        "type": "Point",
        "coordinates": [52.418628800589566, 29.83100361209187]
      }
    },
    {
      "type": "Feature",
      "properties": {
        "fid": 624.0,
        "handle": "5103",
        "block": "-1",
        "etype": "25",
        "space": "0",
        "layer": "pelak",
        "olinetype": "continuous",
        "linetype": null,
        "color": "255,0,255,255",
        "ocolor": "256",
        "color24": "-1",
        "transparen": "0",
        "lweight": "0",
        "linewidth": 0.0,
        "ltscale": 1.0,
        "visible": "1",
        "thickness": 0.0,
        "ext": "(3:0,0,1)",
        "height": 2.1676,
        "text": "39",
        "angle": 358.74818,
        "widthscale": 1.0,
        "oblique": 0.0,
        "style": "STYLE2",
        "textgen": "0",
        "alignh": "0",
        "alignv": "0",
        "interlin": -1.0
      },
      "geometry": {
        "type": "Point",
        "coordinates": [52.418914110815066, 29.830932949272928]
      }
    },
    {
      "type": "Feature",
      "properties": {
        "fid": 625.0,
        "handle": "5106",
        "block": "-1",
        "etype": "25",
        "space": "0",
        "layer": "pelak",
        "olinetype": "continuous",
        "linetype": null,
        "color": "255,0,255,255",
        "ocolor": "256",
        "color24": "-1",
        "transparen": "0",
        "lweight": "0",
        "linewidth": 0.0,
        "ltscale": 1.0,
        "visible": "1",
        "thickness": 0.0,
        "ext": "(3:0,0,1)",
        "height": 2.1676,
        "text": "40",
        "angle": 358.74818,
        "widthscale": 1.0,
        "oblique": 0.0,
        "style": "STYLE2",
        "textgen": "0",
        "alignh": "0",
        "alignv": "0",
        "interlin": -1.0
      },
      "geometry": {
        "type": "Point",
        "coordinates": [52.419341961267044, 29.83058256088211]
      }
    },
    {
      "type": "Feature",
      "properties": {
        "fid": 626.0,
        "handle": "5109",
        "block": "-1",
        "etype": "25",
        "space": "0",
        "layer": "pelak",
        "olinetype": "continuous",
        "linetype": null,
        "color": "255,0,255,255",
        "ocolor": "256",
        "color24": "-1",
        "transparen": "0",
        "lweight": "0",
        "linewidth": 0.0,
        "ltscale": 1.0,
        "visible": "1",
        "thickness": 0.0,
        "ext": "(3:0,0,1)",
        "height": 2.1676,
        "text": "41",
        "angle": 358.74818,
        "widthscale": 1.0,
        "oblique": 0.0,
        "style": "STYLE2",
        "textgen": "0",
        "alignh": "0",
        "alignv": "0",
        "interlin": -1.0
      },
      "geometry": {
        "type": "Point",
        "coordinates": [52.419584487418305, 29.830512979183883]
      }
    },
    {
      "type": "Feature",
      "properties": {
        "fid": 627.0,
        "handle": "5112",
        "block": "-1",
        "etype": "25",
        "space": "0",
        "layer": "pelak",
        "olinetype": "continuous",
        "linetype": null,
        "color": "255,0,255,255",
        "ocolor": "256",
        "color24": "-1",
        "transparen": "0",
        "lweight": "0",
        "linewidth": 0.0,
        "ltscale": 1.0,
        "visible": "1",
        "thickness": 0.0,
        "ext": "(3:0,0,1)",
        "height": 2.1676,
        "text": "42",
        "angle": 358.74818,
        "widthscale": 1.0,
        "oblique": 0.0,
        "style": "STYLE2",
        "textgen": "0",
        "alignh": "0",
        "alignv": "0",
        "interlin": -1.0
      },
      "geometry": {
        "type": "Point",
        "coordinates": [52.419739363650763, 29.830418780977144]
      }
    },
    {
      "type": "Feature",
      "properties": {
        "fid": 628.0,
        "handle": "5115",
        "block": "-1",
        "etype": "25",
        "space": "0",
        "layer": "pelak",
        "olinetype": "continuous",
        "linetype": null,
        "color": "255,0,255,255",
        "ocolor": "256",
        "color24": "-1",
        "transparen": "0",
        "lweight": "0",
        "linewidth": 0.0,
        "ltscale": 1.0,
        "visible": "1",
        "thickness": 0.0,
        "ext": "(3:0,0,1)",
        "height": 2.1676,
        "text": "43",
        "angle": 358.74818,
        "widthscale": 1.0,
        "oblique": 0.0,
        "style": "STYLE2",
        "textgen": "0",
        "alignh": "0",
        "alignv": "0",
        "interlin": -1.0
      },
      "geometry": {
        "type": "Point",
        "coordinates": [52.419934564478744, 29.830326961126506]
      }
    },
    {
      "type": "Feature",
      "properties": {
        "fid": 629.0,
        "handle": "5118",
        "block": "-1",
        "etype": "25",
        "space": "0",
        "layer": "pelak",
        "olinetype": "continuous",
        "linetype": null,
        "color": "255,0,255,255",
        "ocolor": "256",
        "color24": "-1",
        "transparen": "0",
        "lweight": "0",
        "linewidth": 0.0,
        "ltscale": 1.0,
        "visible": "1",
        "thickness": 0.0,
        "ext": "(3:0,0,1)",
        "height": 2.1676,
        "text": "44",
        "angle": 358.74818,
        "widthscale": 1.0,
        "oblique": 0.0,
        "style": "STYLE2",
        "textgen": "0",
        "alignh": "0",
        "alignv": "0",
        "interlin": -1.0
      },
      "geometry": {
        "type": "Point",
        "coordinates": [52.420111255705216, 29.83026471828919]
      }
    },
    {
      "type": "Feature",
      "properties": {
        "fid": 630.0,
        "handle": "5121",
        "block": "-1",
        "etype": "25",
        "space": "0",
        "layer": "pelak",
        "olinetype": "continuous",
        "linetype": null,
        "color": "255,0,255,255",
        "ocolor": "256",
        "color24": "-1",
        "transparen": "0",
        "lweight": "0",
        "linewidth": 0.0,
        "ltscale": 1.0,
        "visible": "1",
        "thickness": 0.0,
        "ext": "(3:0,0,1)",
        "height": 2.1676,
        "text": "52",
        "angle": 358.74818,
        "widthscale": 1.0,
        "oblique": 0.0,
        "style": "STYLE2",
        "textgen": "0",
        "alignh": "0",
        "alignv": "0",
        "interlin": -1.0
      },
      "geometry": {
        "type": "Point",
        "coordinates": [52.420507975318003, 29.831023779724909]
      }
    },
    {
      "type": "Feature",
      "properties": {
        "fid": 631.0,
        "handle": "5124",
        "block": "-1",
        "etype": "25",
        "space": "0",
        "layer": "pelak",
        "olinetype": "continuous",
        "linetype": null,
        "color": "255,0,255,255",
        "ocolor": "256",
        "color24": "-1",
        "transparen": "0",
        "lweight": "0",
        "linewidth": 0.0,
        "ltscale": 1.0,
        "visible": "1",
        "thickness": 0.0,
        "ext": "(3:0,0,1)",
        "height": 2.1676,
        "text": "53",
        "angle": 358.74818,
        "widthscale": 1.0,
        "oblique": 0.0,
        "style": "STYLE2",
        "textgen": "0",
        "alignh": "0",
        "alignv": "0",
        "interlin": -1.0
      },
      "geometry": {
        "type": "Point",
        "coordinates": [52.420322613097873, 29.831111649641162]
      }
    },
    {
      "type": "Feature",
      "properties": {
        "fid": 632.0,
        "handle": "5127",
        "block": "-1",
        "etype": "25",
        "space": "0",
        "layer": "pelak",
        "olinetype": "continuous",
        "linetype": null,
        "color": "255,0,255,255",
        "ocolor": "256",
        "color24": "-1",
        "transparen": "0",
        "lweight": "0",
        "linewidth": 0.0,
        "ltscale": 1.0,
        "visible": "1",
        "thickness": 0.0,
        "ext": "(3:0,0,1)",
        "height": 2.1676,
        "text": "54",
        "angle": 358.74818,
        "widthscale": 1.0,
        "oblique": 0.0,
        "style": "STYLE2",
        "textgen": "0",
        "alignh": "0",
        "alignv": "0",
        "interlin": -1.0
      },
      "geometry": {
        "type": "Point",
        "coordinates": [52.420150942419646, 29.831207454399625]
      }
    },
    {
      "type": "Feature",
      "properties": {
        "fid": 633.0,
        "handle": "5130",
        "block": "-1",
        "etype": "25",
        "space": "0",
        "layer": "pelak",
        "olinetype": "continuous",
        "linetype": null,
        "color": "255,0,255,255",
        "ocolor": "256",
        "color24": "-1",
        "transparen": "0",
        "lweight": "0",
        "linewidth": 0.0,
        "ltscale": 1.0,
        "visible": "1",
        "thickness": 0.0,
        "ext": "(3:0,0,1)",
        "height": 2.1676,
        "text": "55",
        "angle": 358.74818,
        "widthscale": 1.0,
        "oblique": 0.0,
        "style": "STYLE2",
        "textgen": "0",
        "alignh": "0",
        "alignv": "0",
        "interlin": -1.0
      },
      "geometry": {
        "type": "Point",
        "coordinates": [52.419962718833688, 29.831296115965706]
      }
    },
    {
      "type": "Feature",
      "properties": {
        "fid": 634.0,
        "handle": "5133",
        "block": "-1",
        "etype": "25",
        "space": "0",
        "layer": "pelak",
        "olinetype": "continuous",
        "linetype": null,
        "color": "255,0,255,255",
        "ocolor": "256",
        "color24": "-1",
        "transparen": "0",
        "lweight": "0",
        "linewidth": 0.0,
        "ltscale": 1.0,
        "visible": "1",
        "thickness": 0.0,
        "ext": "(3:0,0,1)",
        "height": 2.1676,
        "text": "56",
        "angle": 358.74818,
        "widthscale": 1.0,
        "oblique": 0.0,
        "style": "STYLE2",
        "textgen": "0",
        "alignh": "0",
        "alignv": "0",
        "interlin": -1.0
      },
      "geometry": {
        "type": "Point",
        "coordinates": [52.419735200360819, 29.831374407455609]
      }
    },
    {
      "type": "Feature",
      "properties": {
        "fid": 635.0,
        "handle": "5136",
        "block": "-1",
        "etype": "25",
        "space": "0",
        "layer": "pelak",
        "olinetype": "continuous",
        "linetype": null,
        "color": "255,0,255,255",
        "ocolor": "256",
        "color24": "-1",
        "transparen": "0",
        "lweight": "0",
        "linewidth": 0.0,
        "ltscale": 1.0,
        "visible": "1",
        "thickness": 0.0,
        "ext": "(3:0,0,1)",
        "height": 2.1676,
        "text": "57",
        "angle": 358.74818,
        "widthscale": 1.0,
        "oblique": 0.0,
        "style": "STYLE2",
        "textgen": "0",
        "alignh": "0",
        "alignv": "0",
        "interlin": -1.0
      },
      "geometry": {
        "type": "Point",
        "coordinates": [52.419323480315242, 29.831631899549965]
      }
    },
    {
      "type": "Feature",
      "properties": {
        "fid": 636.0,
        "handle": "5139",
        "block": "-1",
        "etype": "25",
        "space": "0",
        "layer": "pelak",
        "olinetype": "continuous",
        "linetype": null,
        "color": "255,0,255,255",
        "ocolor": "256",
        "color24": "-1",
        "transparen": "0",
        "lweight": "0",
        "linewidth": 0.0,
        "ltscale": 1.0,
        "visible": "1",
        "thickness": 0.0,
        "ext": "(3:0,0,1)",
        "height": 2.1676,
        "text": "58",
        "angle": 358.74818,
        "widthscale": 1.0,
        "oblique": 0.0,
        "style": "STYLE2",
        "textgen": "0",
        "alignh": "0",
        "alignv": "0",
        "interlin": -1.0
      },
      "geometry": {
        "type": "Point",
        "coordinates": [52.419114362063091, 29.831728474479934]
      }
    },
    {
      "type": "Feature",
      "properties": {
        "fid": 637.0,
        "handle": "5142",
        "block": "-1",
        "etype": "25",
        "space": "0",
        "layer": "pelak",
        "olinetype": "continuous",
        "linetype": null,
        "color": "255,0,255,255",
        "ocolor": "256",
        "color24": "-1",
        "transparen": "0",
        "lweight": "0",
        "linewidth": 0.0,
        "ltscale": 1.0,
        "visible": "1",
        "thickness": 0.0,
        "ext": "(3:0,0,1)",
        "height": 2.1676,
        "text": "59",
        "angle": 358.74818,
        "widthscale": 1.0,
        "oblique": 0.0,
        "style": "STYLE2",
        "textgen": "0",
        "alignh": "0",
        "alignv": "0",
        "interlin": -1.0
      },
      "geometry": {
        "type": "Point",
        "coordinates": [52.418934931385927, 29.831819747925277]
      }
    },
    {
      "type": "Feature",
      "properties": {
        "fid": 638.0,
        "handle": "5145",
        "block": "-1",
        "etype": "25",
        "space": "0",
        "layer": "pelak",
        "olinetype": "continuous",
        "linetype": null,
        "color": "255,0,255,255",
        "ocolor": "256",
        "color24": "-1",
        "transparen": "0",
        "lweight": "0",
        "linewidth": 0.0,
        "ltscale": 1.0,
        "visible": "1",
        "thickness": 0.0,
        "ext": "(3:0,0,1)",
        "height": 2.1676,
        "text": "60",
        "angle": 358.74818,
        "widthscale": 1.0,
        "oblique": 0.0,
        "style": "STYLE2",
        "textgen": "0",
        "alignh": "0",
        "alignv": "0",
        "interlin": -1.0
      },
      "geometry": {
        "type": "Point",
        "coordinates": [52.418755434241341, 29.83191433950326]
      }
    },
    {
      "type": "Feature",
      "properties": {
        "fid": 639.0,
        "handle": "5148",
        "block": "-1",
        "etype": "25",
        "space": "0",
        "layer": "pelak",
        "olinetype": "continuous",
        "linetype": null,
        "color": "255,0,255,255",
        "ocolor": "256",
        "color24": "-1",
        "transparen": "0",
        "lweight": "0",
        "linewidth": 0.0,
        "ltscale": 1.0,
        "visible": "1",
        "thickness": 0.0,
        "ext": "(3:0,0,1)",
        "height": 2.1676,
        "text": "61",
        "angle": 358.74818,
        "widthscale": 1.0,
        "oblique": 0.0,
        "style": "STYLE2",
        "textgen": "0",
        "alignh": "0",
        "alignv": "0",
        "interlin": -1.0
      },
      "geometry": {
        "type": "Point",
        "coordinates": [52.418581736479034, 29.8320063159032]
      }
    },
    {
      "type": "Feature",
      "properties": {
        "fid": 640.0,
        "handle": "5151",
        "block": "-1",
        "etype": "25",
        "space": "0",
        "layer": "pelak",
        "olinetype": "continuous",
        "linetype": null,
        "color": "255,0,255,255",
        "ocolor": "256",
        "color24": "-1",
        "transparen": "0",
        "lweight": "0",
        "linewidth": 0.0,
        "ltscale": 1.0,
        "visible": "1",
        "thickness": 0.0,
        "ext": "(3:0,0,1)",
        "height": 2.1676,
        "text": "62",
        "angle": 358.74818,
        "widthscale": 1.0,
        "oblique": 0.0,
        "style": "STYLE2",
        "textgen": "0",
        "alignh": "0",
        "alignv": "0",
        "interlin": -1.0
      },
      "geometry": {
        "type": "Point",
        "coordinates": [52.418405653417238, 29.832099638016953]
      }
    },
    {
      "type": "Feature",
      "properties": {
        "fid": 641.0,
        "handle": "5154",
        "block": "-1",
        "etype": "25",
        "space": "0",
        "layer": "pelak",
        "olinetype": "continuous",
        "linetype": null,
        "color": "255,0,255,255",
        "ocolor": "256",
        "color24": "-1",
        "transparen": "0",
        "lweight": "0",
        "linewidth": 0.0,
        "ltscale": 1.0,
        "visible": "1",
        "thickness": 0.0,
        "ext": "(3:0,0,1)",
        "height": 2.1676,
        "text": "63",
        "angle": 358.74818,
        "widthscale": 1.0,
        "oblique": 0.0,
        "style": "STYLE2",
        "textgen": "0",
        "alignh": "0",
        "alignv": "0",
        "interlin": -1.0
      },
      "geometry": {
        "type": "Point",
        "coordinates": [52.418231955001225, 29.832191613975294]
      }
    },
    {
      "type": "Feature",
      "properties": {
        "fid": 642.0,
        "handle": "5157",
        "block": "-1",
        "etype": "25",
        "space": "0",
        "layer": "pelak",
        "olinetype": "continuous",
        "linetype": null,
        "color": "255,0,255,255",
        "ocolor": "256",
        "color24": "-1",
        "transparen": "0",
        "lweight": "0",
        "linewidth": 0.0,
        "ltscale": 1.0,
        "visible": "1",
        "thickness": 0.0,
        "ext": "(3:0,0,1)",
        "height": 2.1676,
        "text": "64",
        "angle": 358.74818,
        "widthscale": 1.0,
        "oblique": 0.0,
        "style": "STYLE2",
        "textgen": "0",
        "alignh": "0",
        "alignv": "0",
        "interlin": -1.0
      },
      "geometry": {
        "type": "Point",
        "coordinates": [52.418050275583262, 29.832286208238983]
      }
    },
    {
      "type": "Feature",
      "properties": {
        "fid": 643.0,
        "handle": "5160",
        "block": "-1",
        "etype": "25",
        "space": "0",
        "layer": "pelak",
        "olinetype": "continuous",
        "linetype": null,
        "color": "255,0,255,255",
        "ocolor": "256",
        "color24": "-1",
        "transparen": "0",
        "lweight": "0",
        "linewidth": 0.0,
        "ltscale": 1.0,
        "visible": "1",
        "thickness": 0.0,
        "ext": "(3:0,0,1)",
        "height": 2.1676,
        "text": "65",
        "angle": 358.74818,
        "widthscale": 1.0,
        "oblique": 0.0,
        "style": "STYLE2",
        "textgen": "0",
        "alignh": "0",
        "alignv": "0",
        "interlin": -1.0
      },
      "geometry": {
        "type": "Point",
        "coordinates": [52.417884455576143, 29.832376796450994]
      }
    },
    {
      "type": "Feature",
      "properties": {
        "fid": 644.0,
        "handle": "5163",
        "block": "-1",
        "etype": "25",
        "space": "0",
        "layer": "pelak",
        "olinetype": "continuous",
        "linetype": null,
        "color": "255,0,255,255",
        "ocolor": "256",
        "color24": "-1",
        "transparen": "0",
        "lweight": "0",
        "linewidth": 0.0,
        "ltscale": 1.0,
        "visible": "1",
        "thickness": 0.0,
        "ext": "(3:0,0,1)",
        "height": 2.1676,
        "text": "66",
        "angle": 358.74818,
        "widthscale": 1.0,
        "oblique": 0.0,
        "style": "STYLE2",
        "textgen": "0",
        "alignh": "0",
        "alignv": "0",
        "interlin": -1.0
      },
      "geometry": {
        "type": "Point",
        "coordinates": [52.417685280597283, 29.832478896665325]
      }
    },
    {
      "type": "Feature",
      "properties": {
        "fid": 645.0,
        "handle": "5169",
        "block": "-1",
        "etype": "25",
        "space": "0",
        "layer": "pelak",
        "olinetype": "continuous",
        "linetype": null,
        "color": "255,0,255,255",
        "ocolor": "256",
        "color24": "-1",
        "transparen": "0",
        "lweight": "0",
        "linewidth": 0.0,
        "ltscale": 1.0,
        "visible": "1",
        "thickness": 0.0,
        "ext": "(3:0,0,1)",
        "height": 2.1676,
        "text": "70",
        "angle": 358.74818,
        "widthscale": 1.0,
        "oblique": 0.0,
        "style": "STYLE2",
        "textgen": "0",
        "alignh": "0",
        "alignv": "0",
        "interlin": -1.0
      },
      "geometry": {
        "type": "Point",
        "coordinates": [52.417986240954214, 29.832682636234999]
      }
    },
    {
      "type": "Feature",
      "properties": {
        "fid": 646.0,
        "handle": "5173",
        "block": "-1",
        "etype": "25",
        "space": "0",
        "layer": "pelak",
        "olinetype": "continuous",
        "linetype": null,
        "color": "255,0,255,255",
        "ocolor": "256",
        "color24": "-1",
        "transparen": "0",
        "lweight": "0",
        "linewidth": 0.0,
        "ltscale": 1.0,
        "visible": "1",
        "thickness": 0.0,
        "ext": "(3:0,0,1)",
        "height": 2.1676,
        "text": "71",
        "angle": 358.74818,
        "widthscale": 1.0,
        "oblique": 0.0,
        "style": "STYLE2",
        "textgen": "0",
        "alignh": "0",
        "alignv": "0",
        "interlin": -1.0
      },
      "geometry": {
        "type": "Point",
        "coordinates": [52.418221491482285, 29.832546400258931]
      }
    },
    {
      "type": "Feature",
      "properties": {
        "fid": 647.0,
        "handle": "5176",
        "block": "-1",
        "etype": "25",
        "space": "0",
        "layer": "pelak",
        "olinetype": "continuous",
        "linetype": null,
        "color": "255,0,255,255",
        "ocolor": "256",
        "color24": "-1",
        "transparen": "0",
        "lweight": "0",
        "linewidth": 0.0,
        "ltscale": 1.0,
        "visible": "1",
        "thickness": 0.0,
        "ext": "(3:0,0,1)",
        "height": 2.1676,
        "text": "72",
        "angle": 358.74818,
        "widthscale": 1.0,
        "oblique": 0.0,
        "style": "STYLE2",
        "textgen": "0",
        "alignh": "0",
        "alignv": "0",
        "interlin": -1.0
      },
      "geometry": {
        "type": "Point",
        "coordinates": [52.418403716979199, 29.832452754681242]
      }
    },
    {
      "type": "Feature",
      "properties": {
        "fid": 648.0,
        "handle": "5179",
        "block": "-1",
        "etype": "25",
        "space": "0",
        "layer": "pelak",
        "olinetype": "continuous",
        "linetype": null,
        "color": "255,0,255,255",
        "ocolor": "256",
        "color24": "-1",
        "transparen": "0",
        "lweight": "0",
        "linewidth": 0.0,
        "ltscale": 1.0,
        "visible": "1",
        "thickness": 0.0,
        "ext": "(3:0,0,1)",
        "height": 2.1676,
        "text": "73",
        "angle": 358.74818,
        "widthscale": 1.0,
        "oblique": 0.0,
        "style": "STYLE2",
        "textgen": "0",
        "alignh": "0",
        "alignv": "0",
        "interlin": -1.0
      },
      "geometry": {
        "type": "Point",
        "coordinates": [52.418581044740939, 29.832360094111952]
      }
    },
    {
      "type": "Feature",
      "properties": {
        "fid": 649.0,
        "handle": "5182",
        "block": "-1",
        "etype": "25",
        "space": "0",
        "layer": "pelak",
        "olinetype": "continuous",
        "linetype": null,
        "color": "255,0,255,255",
        "ocolor": "256",
        "color24": "-1",
        "transparen": "0",
        "lweight": "0",
        "linewidth": 0.0,
        "ltscale": 1.0,
        "visible": "1",
        "thickness": 0.0,
        "ext": "(3:0,0,1)",
        "height": 2.1676,
        "text": "74",
        "angle": 358.74818,
        "widthscale": 1.0,
        "oblique": 0.0,
        "style": "STYLE2",
        "textgen": "0",
        "alignh": "0",
        "alignv": "0",
        "interlin": -1.0
      },
      "geometry": {
        "type": "Point",
        "coordinates": [52.418755923595597, 29.832268149209725]
      }
    },
    {
      "type": "Feature",
      "properties": {
        "fid": 650.0,
        "handle": "5185",
        "block": "-1",
        "etype": "25",
        "space": "0",
        "layer": "pelak",
        "olinetype": "continuous",
        "linetype": null,
        "color": "255,0,255,255",
        "ocolor": "256",
        "color24": "-1",
        "transparen": "0",
        "lweight": "0",
        "linewidth": 0.0,
        "ltscale": 1.0,
        "visible": "1",
        "thickness": 0.0,
        "ext": "(3:0,0,1)",
        "height": 2.1676,
        "text": "75",
        "angle": 358.74818,
        "widthscale": 1.0,
        "oblique": 0.0,
        "style": "STYLE2",
        "textgen": "0",
        "alignh": "0",
        "alignv": "0",
        "interlin": -1.0
      },
      "geometry": {
        "type": "Point",
        "coordinates": [52.418936934634239, 29.832175855597995]
      }
    },
    {
      "type": "Feature",
      "properties": {
        "fid": 651.0,
        "handle": "5188",
        "block": "-1",
        "etype": "25",
        "space": "0",
        "layer": "pelak",
        "olinetype": "continuous",
        "linetype": null,
        "color": "255,0,255,255",
        "ocolor": "256",
        "color24": "-1",
        "transparen": "0",
        "lweight": "0",
        "linewidth": 0.0,
        "ltscale": 1.0,
        "visible": "1",
        "thickness": 0.0,
        "ext": "(3:0,0,1)",
        "height": 2.1676,
        "text": "76",
        "angle": 358.74818,
        "widthscale": 1.0,
        "oblique": 0.0,
        "style": "STYLE2",
        "textgen": "0",
        "alignh": "0",
        "alignv": "0",
        "interlin": -1.0
      },
      "geometry": {
        "type": "Point",
        "coordinates": [52.419114184702757, 29.832084691730408]
      }
    },
    {
      "type": "Feature",
      "properties": {
        "fid": 652.0,
        "handle": "5191",
        "block": "-1",
        "etype": "25",
        "space": "0",
        "layer": "pelak",
        "olinetype": "continuous",
        "linetype": null,
        "color": "255,0,255,255",
        "ocolor": "256",
        "color24": "-1",
        "transparen": "0",
        "lweight": "0",
        "linewidth": 0.0,
        "ltscale": 1.0,
        "visible": "1",
        "thickness": 0.0,
        "ext": "(3:0,0,1)",
        "height": 2.1676,
        "text": "77",
        "angle": 358.74818,
        "widthscale": 1.0,
        "oblique": 0.0,
        "style": "STYLE2",
        "textgen": "0",
        "alignh": "0",
        "alignv": "0",
        "interlin": -1.0
      },
      "geometry": {
        "type": "Point",
        "coordinates": [52.419289187498961, 29.831991203448091]
      }
    },
    {
      "type": "Feature",
      "properties": {
        "fid": 653.0,
        "handle": "5194",
        "block": "-1",
        "etype": "25",
        "space": "0",
        "layer": "pelak",
        "olinetype": "continuous",
        "linetype": null,
        "color": "255,0,255,255",
        "ocolor": "256",
        "color24": "-1",
        "transparen": "0",
        "lweight": "0",
        "linewidth": 0.0,
        "ltscale": 1.0,
        "visible": "1",
        "thickness": 0.0,
        "ext": "(3:0,0,1)",
        "height": 2.1676,
        "text": "78",
        "angle": 358.74818,
        "widthscale": 1.0,
        "oblique": 0.0,
        "style": "STYLE2",
        "textgen": "0",
        "alignh": "0",
        "alignv": "0",
        "interlin": -1.0
      },
      "geometry": {
        "type": "Point",
        "coordinates": [52.419468054483247, 29.831897270995174]
      }
    },
    {
      "type": "Feature",
      "properties": {
        "fid": 654.0,
        "handle": "5197",
        "block": "-1",
        "etype": "25",
        "space": "0",
        "layer": "pelak",
        "olinetype": "continuous",
        "linetype": null,
        "color": "255,0,255,255",
        "ocolor": "256",
        "color24": "-1",
        "transparen": "0",
        "lweight": "0",
        "linewidth": 0.0,
        "ltscale": 1.0,
        "visible": "1",
        "thickness": 0.0,
        "ext": "(3:0,0,1)",
        "height": 2.1676,
        "text": "79",
        "angle": 358.74818,
        "widthscale": 1.0,
        "oblique": 0.0,
        "style": "STYLE2",
        "textgen": "0",
        "alignh": "0",
        "alignv": "0",
        "interlin": -1.0
      },
      "geometry": {
        "type": "Point",
        "coordinates": [52.419643091485192, 29.831806197671874]
      }
    },
    {
      "type": "Feature",
      "properties": {
        "fid": 655.0,
        "handle": "5200",
        "block": "-1",
        "etype": "25",
        "space": "0",
        "layer": "pelak",
        "olinetype": "continuous",
        "linetype": null,
        "color": "255,0,255,255",
        "ocolor": "256",
        "color24": "-1",
        "transparen": "0",
        "lweight": "0",
        "linewidth": 0.0,
        "ltscale": 1.0,
        "visible": "1",
        "thickness": 0.0,
        "ext": "(3:0,0,1)",
        "height": 2.1676,
        "text": "80",
        "angle": 358.74818,
        "widthscale": 1.0,
        "oblique": 0.0,
        "style": "STYLE2",
        "textgen": "0",
        "alignh": "0",
        "alignv": "0",
        "interlin": -1.0
      },
      "geometry": {
        "type": "Point",
        "coordinates": [52.41992944988408, 29.831825879070713]
      }
    },
    {
      "type": "Feature",
      "properties": {
        "fid": 657.0,
        "handle": "5207",
        "block": "-1",
        "etype": "25",
        "space": "0",
        "layer": "pelak",
        "olinetype": "continuous",
        "linetype": null,
        "color": "255,0,255,255",
        "ocolor": "256",
        "color24": "-1",
        "transparen": "0",
        "lweight": "0",
        "linewidth": 0.0,
        "ltscale": 1.0,
        "visible": "1",
        "thickness": 0.0,
        "ext": "(3:0,0,1)",
        "height": 2.1676,
        "text": "81",
        "angle": 358.74818,
        "widthscale": 1.0,
        "oblique": 0.0,
        "style": "STYLE2",
        "textgen": "0",
        "alignh": "0",
        "alignv": "0",
        "interlin": -1.0
      },
      "geometry": {
        "type": "Point",
        "coordinates": [52.420287563153813, 29.831536172690818]
      }
    },
    {
      "type": "Feature",
      "properties": {
        "fid": 658.0,
        "handle": "5210",
        "block": "-1",
        "etype": "25",
        "space": "0",
        "layer": "pelak",
        "olinetype": "continuous",
        "linetype": null,
        "color": "255,0,255,255",
        "ocolor": "256",
        "color24": "-1",
        "transparen": "0",
        "lweight": "0",
        "linewidth": 0.0,
        "ltscale": 1.0,
        "visible": "1",
        "thickness": 0.0,
        "ext": "(3:0,0,1)",
        "height": 2.1676,
        "text": "82",
        "angle": 358.74818,
        "widthscale": 1.0,
        "oblique": 0.0,
        "style": "STYLE2",
        "textgen": "0",
        "alignh": "0",
        "alignv": "0",
        "interlin": -1.0
      },
      "geometry": {
        "type": "Point",
        "coordinates": [52.420503681914788, 29.831379109026976]
      }
    },
    {
      "type": "Feature",
      "properties": {
        "fid": 659.0,
        "handle": "5213",
        "block": "-1",
        "etype": "25",
        "space": "0",
        "layer": "pelak",
        "olinetype": "continuous",
        "linetype": null,
        "color": "255,0,255,255",
        "ocolor": "256",
        "color24": "-1",
        "transparen": "0",
        "lweight": "0",
        "linewidth": 0.0,
        "ltscale": 1.0,
        "visible": "1",
        "thickness": 0.0,
        "ext": "(3:0,0,1)",
        "height": 2.1676,
        "text": "83",
        "angle": 358.74818,
        "widthscale": 1.0,
        "oblique": 0.0,
        "style": "STYLE2",
        "textgen": "0",
        "alignh": "0",
        "alignv": "0",
        "interlin": -1.0
      },
      "geometry": {
        "type": "Point",
        "coordinates": [52.420698153699384, 29.831285654578078]
      }
    },
    {
      "type": "Feature",
      "properties": {
        "fid": 660.0,
        "handle": "5214",
        "block": "-1",
        "etype": "25",
        "space": "0",
        "layer": "pelak",
        "olinetype": "continuous",
        "linetype": null,
        "color": "255,0,255,255",
        "ocolor": "256",
        "color24": "-1",
        "transparen": "0",
        "lweight": "0",
        "linewidth": 0.0,
        "ltscale": 1.0,
        "visible": "1",
        "thickness": 0.0,
        "ext": "(3:0,0,1)",
        "height": 2.1676,
        "text": "89",
        "angle": 358.74818,
        "widthscale": 1.0,
        "oblique": 0.0,
        "style": "STYLE2",
        "textgen": "0",
        "alignh": "0",
        "alignv": "0",
        "interlin": -1.0
      },
      "geometry": {
        "type": "Point",
        "coordinates": [52.421081522824537, 29.831761019448226]
      }
    },
    {
      "type": "Feature",
      "properties": {
        "fid": 661.0,
        "handle": "5217",
        "block": "-1",
        "etype": "25",
        "space": "0",
        "layer": "pelak",
        "olinetype": "continuous",
        "linetype": null,
        "color": "255,0,255,255",
        "ocolor": "256",
        "color24": "-1",
        "transparen": "0",
        "lweight": "0",
        "linewidth": 0.0,
        "ltscale": 1.0,
        "visible": "1",
        "thickness": 0.0,
        "ext": "(3:0,0,1)",
        "height": 2.1676,
        "text": "91",
        "angle": 358.74818,
        "widthscale": 1.0,
        "oblique": 0.0,
        "style": "STYLE2",
        "textgen": "0",
        "alignh": "0",
        "alignv": "0",
        "interlin": -1.0
      },
      "geometry": {
        "type": "Point",
        "coordinates": [52.420375602185196, 29.832276909424927]
      }
    },
    {
      "type": "Feature",
      "properties": {
        "fid": 662.0,
        "handle": "5220",
        "block": "-1",
        "etype": "25",
        "space": "0",
        "layer": "pelak",
        "olinetype": "continuous",
        "linetype": null,
        "color": "255,0,255,255",
        "ocolor": "256",
        "color24": "-1",
        "transparen": "0",
        "lweight": "0",
        "linewidth": 0.0,
        "ltscale": 1.0,
        "visible": "1",
        "thickness": 0.0,
        "ext": "(3:0,0,1)",
        "height": 2.1676,
        "text": "92",
        "angle": 358.74818,
        "widthscale": 1.0,
        "oblique": 0.0,
        "style": "STYLE2",
        "textgen": "0",
        "alignh": "0",
        "alignv": "0",
        "interlin": -1.0
      },
      "geometry": {
        "type": "Point",
        "coordinates": [52.420203549919307, 29.832372617328939]
      }
    },
    {
      "type": "Feature",
      "properties": {
        "fid": 663.0,
        "handle": "5223",
        "block": "-1",
        "etype": "25",
        "space": "0",
        "layer": "pelak",
        "olinetype": "continuous",
        "linetype": null,
        "color": "255,0,255,255",
        "ocolor": "256",
        "color24": "-1",
        "transparen": "0",
        "lweight": "0",
        "linewidth": 0.0,
        "ltscale": 1.0,
        "visible": "1",
        "thickness": 0.0,
        "ext": "(3:0,0,1)",
        "height": 2.1676,
        "text": "93",
        "angle": 358.74818,
        "widthscale": 1.0,
        "oblique": 0.0,
        "style": "STYLE2",
        "textgen": "0",
        "alignh": "0",
        "alignv": "0",
        "interlin": -1.0
      },
      "geometry": {
        "type": "Point",
        "coordinates": [52.420015287829081, 29.832455745688897]
      }
    },
    {
      "type": "Feature",
      "properties": {
        "fid": 664.0,
        "handle": "5226",
        "block": "-1",
        "etype": "25",
        "space": "0",
        "layer": "pelak",
        "olinetype": "continuous",
        "linetype": null,
        "color": "255,0,255,255",
        "ocolor": "256",
        "color24": "-1",
        "transparen": "0",
        "lweight": "0",
        "linewidth": 0.0,
        "ltscale": 1.0,
        "visible": "1",
        "thickness": 0.0,
        "ext": "(3:0,0,1)",
        "height": 2.1676,
        "text": "94",
        "angle": 358.74818,
        "widthscale": 1.0,
        "oblique": 0.0,
        "style": "STYLE2",
        "textgen": "0",
        "alignh": "0",
        "alignv": "0",
        "interlin": -1.0
      },
      "geometry": {
        "type": "Point",
        "coordinates": [52.419800375072981, 29.83251972185392]
      }
    },
    {
      "type": "Feature",
      "properties": {
        "fid": 665.0,
        "handle": "5229",
        "block": "-1",
        "etype": "25",
        "space": "0",
        "layer": "pelak",
        "olinetype": "continuous",
        "linetype": null,
        "color": "255,0,255,255",
        "ocolor": "256",
        "color24": "-1",
        "transparen": "0",
        "lweight": "0",
        "linewidth": 0.0,
        "ltscale": 1.0,
        "visible": "1",
        "thickness": 0.0,
        "ext": "(3:0,0,1)",
        "height": 2.1676,
        "text": "95",
        "angle": 358.74818,
        "widthscale": 1.0,
        "oblique": 0.0,
        "style": "STYLE2",
        "textgen": "0",
        "alignh": "0",
        "alignv": "0",
        "interlin": -1.0
      },
      "geometry": {
        "type": "Point",
        "coordinates": [52.419501845122191, 29.832592125289025]
      }
    },
    {
      "type": "Feature",
      "properties": {
        "fid": 666.0,
        "handle": "5232",
        "block": "-1",
        "etype": "25",
        "space": "0",
        "layer": "pelak",
        "olinetype": "continuous",
        "linetype": null,
        "color": "255,0,255,255",
        "ocolor": "256",
        "color24": "-1",
        "transparen": "0",
        "lweight": "0",
        "linewidth": 0.0,
        "ltscale": 1.0,
        "visible": "1",
        "thickness": 0.0,
        "ext": "(3:0,0,1)",
        "height": 2.1676,
        "text": "90",
        "angle": 358.74818,
        "widthscale": 1.0,
        "oblique": 0.0,
        "style": "STYLE2",
        "textgen": "0",
        "alignh": "0",
        "alignv": "0",
        "interlin": -1.0
      },
      "geometry": {
        "type": "Point",
        "coordinates": [52.420635807203091, 29.832198682126428]
      }
    },
    {
      "type": "Feature",
      "properties": {
        "fid": 708.0,
        "handle": "5551",
        "block": "-1",
        "etype": "25",
        "space": "0",
        "layer": "pelak",
        "olinetype": "continuous",
        "linetype": null,
        "color": "255,0,255,255",
        "ocolor": "256",
        "color24": "-1",
        "transparen": "0",
        "lweight": "0",
        "linewidth": 0.0,
        "ltscale": 1.0,
        "visible": "1",
        "thickness": 0.0,
        "ext": "(3:0,0,1)",
        "height": 2.1676,
        "text": "3",
        "angle": 358.74818,
        "widthscale": 1.0,
        "oblique": 0.0,
        "style": "STYLE2",
        "textgen": "0",
        "alignh": "0",
        "alignv": "0",
        "interlin": -1.0
      },
      "geometry": {
        "type": "Point",
        "coordinates": [52.416562251087264, 29.831083146524914]
      }
    },
    {
      "type": "Feature",
      "properties": {
        "fid": 709.0,
        "handle": "5552",
        "block": "-1",
        "etype": "25",
        "space": "0",
        "layer": "pelak",
        "olinetype": "continuous",
        "linetype": null,
        "color": "255,0,255,255",
        "ocolor": "256",
        "color24": "-1",
        "transparen": "0",
        "lweight": "0",
        "linewidth": 0.0,
        "ltscale": 1.0,
        "visible": "1",
        "thickness": 0.0,
        "ext": "(3:0,0,1)",
        "height": 2.1676,
        "text": "2",
        "angle": 358.74818,
        "widthscale": 1.0,
        "oblique": 0.0,
        "style": "STYLE2",
        "textgen": "0",
        "alignh": "0",
        "alignv": "0",
        "interlin": -1.0
      },
      "geometry": {
        "type": "Point",
        "coordinates": [52.416388928680199, 29.831176104956501]
      }
    },
    {
      "type": "Feature",
      "properties": {
        "fid": 710.0,
        "handle": "5553",
        "block": "-1",
        "etype": "25",
        "space": "0",
        "layer": "pelak",
        "olinetype": "continuous",
        "linetype": null,
        "color": "255,0,255,255",
        "ocolor": "256",
        "color24": "-1",
        "transparen": "0",
        "lweight": "0",
        "linewidth": 0.0,
        "ltscale": 1.0,
        "visible": "1",
        "thickness": 0.0,
        "ext": "(3:0,0,1)",
        "height": 2.1676,
        "text": "1",
        "angle": 358.74818,
        "widthscale": 1.0,
        "oblique": 0.0,
        "style": "STYLE2",
        "textgen": "0",
        "alignh": "0",
        "alignv": "0",
        "interlin": -1.0
      },
      "geometry": {
        "type": "Point",
        "coordinates": [52.416181519791351, 29.831267726242345]
      }
    },
    {
      "type": "Feature",
      "properties": {
        "fid": 711.0,
        "handle": "5554",
        "block": "-1",
        "etype": "25",
        "space": "0",
        "layer": "pelak",
        "olinetype": "continuous",
        "linetype": null,
        "color": "255,0,255,255",
        "ocolor": "256",
        "color24": "-1",
        "transparen": "0",
        "lweight": "0",
        "linewidth": 0.0,
        "ltscale": 1.0,
        "visible": "1",
        "thickness": 0.0,
        "ext": "(3:0,0,1)",
        "height": 2.1676,
        "text": "45",
        "angle": 358.74818,
        "widthscale": 1.0,
        "oblique": 0.0,
        "style": "STYLE2",
        "textgen": "0",
        "alignh": "0",
        "alignv": "0",
        "interlin": -1.0
      },
      "geometry": {
        "type": "Point",
        "coordinates": [52.420286205156017, 29.830172552367372]
      }
    },
    {
      "type": "Feature",
      "properties": {
        "fid": 712.0,
        "handle": "5555",
        "block": "-1",
        "etype": "25",
        "space": "0",
        "layer": "pelak",
        "olinetype": "continuous",
        "linetype": null,
        "color": "255,0,255,255",
        "ocolor": "256",
        "color24": "-1",
        "transparen": "0",
        "lweight": "0",
        "linewidth": 0.0,
        "ltscale": 1.0,
        "visible": "1",
        "thickness": 0.0,
        "ext": "(3:0,0,1)",
        "height": 2.1676,
        "text": "11",
        "angle": 358.74818,
        "widthscale": 1.0,
        "oblique": 0.0,
        "style": "STYLE2",
        "textgen": "0",
        "alignh": "0",
        "alignv": "0",
        "interlin": -1.0
      },
      "geometry": {
        "type": "Point",
        "coordinates": [52.420113872191941, 29.829878700096721]
      }
    },
    {
      "type": "Feature",
      "properties": {
        "fid": 713.0,
        "handle": "5556",
        "block": "-1",
        "etype": "25",
        "space": "0",
        "layer": "pelak",
        "olinetype": "continuous",
        "linetype": null,
        "color": "255,0,255,255",
        "ocolor": "256",
        "color24": "-1",
        "transparen": "0",
        "lweight": "0",
        "linewidth": 0.0,
        "ltscale": 1.0,
        "visible": "1",
        "thickness": 0.0,
        "ext": "(3:0,0,1)",
        "height": 2.1676,
        "text": "10",
        "angle": 358.74818,
        "widthscale": 1.0,
        "oblique": 0.0,
        "style": "STYLE2",
        "textgen": "0",
        "alignh": "0",
        "alignv": "0",
        "interlin": -1.0
      },
      "geometry": {
        "type": "Point",
        "coordinates": [52.420289971333375, 29.829787356364562]
      }
    },
    {
      "type": "Feature",
      "properties": {
        "fid": 714.0,
        "handle": "5557",
        "block": "-1",
        "etype": "25",
        "space": "0",
        "layer": "pelak",
        "olinetype": "continuous",
        "linetype": null,
        "color": "255,0,255,255",
        "ocolor": "256",
        "color24": "-1",
        "transparen": "0",
        "lweight": "0",
        "linewidth": 0.0,
        "ltscale": 1.0,
        "visible": "1",
        "thickness": 0.0,
        "ext": "(3:0,0,1)",
        "height": 2.1676,
        "text": "9",
        "angle": 358.74818,
        "widthscale": 1.0,
        "oblique": 0.0,
        "style": "STYLE2",
        "textgen": "0",
        "alignh": "0",
        "alignv": "0",
        "interlin": -1.0
      },
      "geometry": {
        "type": "Point",
        "coordinates": [52.420465601674898, 29.829699880843744]
      }
    },
    {
      "type": "Feature",
      "properties": {
        "fid": 715.0,
        "handle": "5558",
        "block": "-1",
        "etype": "25",
        "space": "0",
        "layer": "pelak",
        "olinetype": "continuous",
        "linetype": null,
        "color": "255,0,255,255",
        "ocolor": "256",
        "color24": "-1",
        "transparen": "0",
        "lweight": "0",
        "linewidth": 0.0,
        "ltscale": 1.0,
        "visible": "1",
        "thickness": 0.0,
        "ext": "(3:0,0,1)",
        "height": 2.1676,
        "text": "47",
        "angle": 358.74818,
        "widthscale": 1.0,
        "oblique": 0.0,
        "style": "STYLE2",
        "textgen": "0",
        "alignh": "0",
        "alignv": "0",
        "interlin": -1.0
      },
      "geometry": {
        "type": "Point",
        "coordinates": [52.420635898491177, 29.829991526476615]
      }
    },
    {
      "type": "Feature",
      "properties": {
        "fid": 716.0,
        "handle": "5559",
        "block": "-1",
        "etype": "25",
        "space": "0",
        "layer": "pelak",
        "olinetype": "continuous",
        "linetype": null,
        "color": "255,0,255,255",
        "ocolor": "256",
        "color24": "-1",
        "transparen": "0",
        "lweight": "0",
        "linewidth": 0.0,
        "ltscale": 1.0,
        "visible": "1",
        "thickness": 0.0,
        "ext": "(3:0,0,1)",
        "height": 2.1676,
        "text": "46",
        "angle": 358.74818,
        "widthscale": 1.0,
        "oblique": 0.0,
        "style": "STYLE2",
        "textgen": "0",
        "alignh": "0",
        "alignv": "0",
        "interlin": -1.0
      },
      "geometry": {
        "type": "Point",
        "coordinates": [52.420464438588645, 29.830080623527255]
      }
    },
    {
      "type": "Feature",
      "properties": {
        "fid": 717.0,
        "handle": "5560",
        "block": "-1",
        "etype": "25",
        "space": "0",
        "layer": "pelak",
        "olinetype": "continuous",
        "linetype": null,
        "color": "255,0,255,255",
        "ocolor": "256",
        "color24": "-1",
        "transparen": "0",
        "lweight": "0",
        "linewidth": 0.0,
        "ltscale": 1.0,
        "visible": "1",
        "thickness": 0.0,
        "ext": "(3:0,0,1)",
        "height": 2.1676,
        "text": "28",
        "angle": 358.74818,
        "widthscale": 1.0,
        "oblique": 0.0,
        "style": "STYLE2",
        "textgen": "0",
        "alignh": "0",
        "alignv": "0",
        "interlin": -1.0
      },
      "geometry": {
        "type": "Point",
        "coordinates": [52.416447207246236, 29.831718389892387]
      }
    },
    {
      "type": "Feature",
      "properties": {
        "fid": 718.0,
        "handle": "5561",
        "block": "-1",
        "etype": "25",
        "space": "0",
        "layer": "pelak",
        "olinetype": "continuous",
        "linetype": null,
        "color": "255,0,255,255",
        "ocolor": "256",
        "color24": "-1",
        "transparen": "0",
        "lweight": "0",
        "linewidth": 0.0,
        "ltscale": 1.0,
        "visible": "1",
        "thickness": 0.0,
        "ext": "(3:0,0,1)",
        "height": 2.1676,
        "text": "27",
        "angle": 358.74818,
        "widthscale": 1.0,
        "oblique": 0.0,
        "style": "STYLE2",
        "textgen": "0",
        "alignh": "0",
        "alignv": "0",
        "interlin": -1.0
      },
      "geometry": {
        "type": "Point",
        "coordinates": [52.416668010045512, 29.83161877983374]
      }
    },
    {
      "type": "Feature",
      "properties": {
        "fid": 719.0,
        "handle": "5562",
        "block": "-1",
        "etype": "25",
        "space": "0",
        "layer": "pelak",
        "olinetype": "continuous",
        "linetype": null,
        "color": "255,0,255,255",
        "ocolor": "256",
        "color24": "-1",
        "transparen": "0",
        "lweight": "0",
        "linewidth": 0.0,
        "ltscale": 1.0,
        "visible": "1",
        "thickness": 0.0,
        "ext": "(3:0,0,1)",
        "height": 2.1676,
        "text": "26",
        "angle": 358.74818,
        "widthscale": 1.0,
        "oblique": 0.0,
        "style": "STYLE2",
        "textgen": "0",
        "alignh": "0",
        "alignv": "0",
        "interlin": -1.0
      },
      "geometry": {
        "type": "Point",
        "coordinates": [52.416844391239984, 29.831529177963571]
      }
    },
    {
      "type": "Feature",
      "properties": {
        "fid": 720.0,
        "handle": "5563",
        "block": "-1",
        "etype": "25",
        "space": "0",
        "layer": "pelak",
        "olinetype": "continuous",
        "linetype": null,
        "color": "255,0,255,255",
        "ocolor": "256",
        "color24": "-1",
        "transparen": "0",
        "lweight": "0",
        "linewidth": 0.0,
        "ltscale": 1.0,
        "visible": "1",
        "thickness": 0.0,
        "ext": "(3:0,0,1)",
        "height": 2.1676,
        "text": "31",
        "angle": 358.74818,
        "widthscale": 1.0,
        "oblique": 0.0,
        "style": "STYLE2",
        "textgen": "0",
        "alignh": "0",
        "alignv": "0",
        "interlin": -1.0
      },
      "geometry": {
        "type": "Point",
        "coordinates": [52.417026477248584, 29.831795367518023]
      }
    },
    {
      "type": "Feature",
      "properties": {
        "fid": 721.0,
        "handle": "5564",
        "block": "-1",
        "etype": "25",
        "space": "0",
        "layer": "pelak",
        "olinetype": "continuous",
        "linetype": null,
        "color": "255,0,255,255",
        "ocolor": "256",
        "color24": "-1",
        "transparen": "0",
        "lweight": "0",
        "linewidth": 0.0,
        "ltscale": 1.0,
        "visible": "1",
        "thickness": 0.0,
        "ext": "(3:0,0,1)",
        "height": 2.1676,
        "text": "30",
        "angle": 358.74818,
        "widthscale": 1.0,
        "oblique": 0.0,
        "style": "STYLE2",
        "textgen": "0",
        "alignh": "0",
        "alignv": "0",
        "interlin": -1.0
      },
      "geometry": {
        "type": "Point",
        "coordinates": [52.41684651628988, 29.831889862005639]
      }
    },
    {
      "type": "Feature",
      "properties": {
        "fid": 722.0,
        "handle": "5565",
        "block": "-1",
        "etype": "25",
        "space": "0",
        "layer": "pelak",
        "olinetype": "continuous",
        "linetype": null,
        "color": "255,0,255,255",
        "ocolor": "256",
        "color24": "-1",
        "transparen": "0",
        "lweight": "0",
        "linewidth": 0.0,
        "ltscale": 1.0,
        "visible": "1",
        "thickness": 0.0,
        "ext": "(3:0,0,1)",
        "height": 2.1676,
        "text": "29",
        "angle": 358.74818,
        "widthscale": 1.0,
        "oblique": 0.0,
        "style": "STYLE2",
        "textgen": "0",
        "alignh": "0",
        "alignv": "0",
        "interlin": -1.0
      },
      "geometry": {
        "type": "Point",
        "coordinates": [52.416642911745491, 29.832002236808254]
      }
    },
    {
      "type": "Feature",
      "properties": {
        "fid": 723.0,
        "handle": "5566",
        "block": "-1",
        "etype": "25",
        "space": "0",
        "layer": "pelak",
        "olinetype": "continuous",
        "linetype": null,
        "color": "255,0,255,255",
        "ocolor": "256",
        "color24": "-1",
        "transparen": "0",
        "lweight": "0",
        "linewidth": 0.0,
        "ltscale": 1.0,
        "visible": "1",
        "thickness": 0.0,
        "ext": "(3:0,0,1)",
        "height": 2.1676,
        "text": "69",
        "angle": 358.74818,
        "widthscale": 1.0,
        "oblique": 0.0,
        "style": "STYLE2",
        "textgen": "0",
        "alignh": "0",
        "alignv": "0",
        "interlin": -1.0
      },
      "geometry": {
        "type": "Point",
        "coordinates": [52.417162156539256, 29.832752190403923]
      }
    },
    {
      "type": "Feature",
      "properties": {
        "fid": 724.0,
        "handle": "5567",
        "block": "-1",
        "etype": "25",
        "space": "0",
        "layer": "pelak",
        "olinetype": "continuous",
        "linetype": null,
        "color": "255,0,255,255",
        "ocolor": "256",
        "color24": "-1",
        "transparen": "0",
        "lweight": "0",
        "linewidth": 0.0,
        "ltscale": 1.0,
        "visible": "1",
        "thickness": 0.0,
        "ext": "(3:0,0,1)",
        "height": 2.1676,
        "text": "68",
        "angle": 358.74818,
        "widthscale": 1.0,
        "oblique": 0.0,
        "style": "STYLE2",
        "textgen": "0",
        "alignh": "0",
        "alignv": "0",
        "interlin": -1.0
      },
      "geometry": {
        "type": "Point",
        "coordinates": [52.41736445388009, 29.832689736689929]
      }
    },
    {
      "type": "Feature",
      "properties": {
        "fid": 725.0,
        "handle": "5568",
        "block": "-1",
        "etype": "25",
        "space": "0",
        "layer": "pelak",
        "olinetype": "continuous",
        "linetype": null,
        "color": "255,0,255,255",
        "ocolor": "256",
        "color24": "-1",
        "transparen": "0",
        "lweight": "0",
        "linewidth": 0.0,
        "ltscale": 1.0,
        "visible": "1",
        "thickness": 0.0,
        "ext": "(3:0,0,1)",
        "height": 2.1676,
        "text": "67",
        "angle": 358.74818,
        "widthscale": 1.0,
        "oblique": 0.0,
        "style": "STYLE2",
        "textgen": "0",
        "alignh": "0",
        "alignv": "0",
        "interlin": -1.0
      },
      "geometry": {
        "type": "Point",
        "coordinates": [52.417564427006447, 29.83263656187404]
      }
    },
    {
      "type": "Feature",
      "properties": {
        "fid": 726.0,
        "handle": "5569",
        "block": "-1",
        "etype": "25",
        "space": "0",
        "layer": "pelak",
        "olinetype": "continuous",
        "linetype": null,
        "color": "255,0,255,255",
        "ocolor": "256",
        "color24": "-1",
        "transparen": "0",
        "lweight": "0",
        "linewidth": 0.0,
        "ltscale": 1.0,
        "visible": "1",
        "thickness": 0.0,
        "ext": "(3:0,0,1)",
        "height": 2.1676,
        "text": "87",
        "angle": 358.74818,
        "widthscale": 1.0,
        "oblique": 0.0,
        "style": "STYLE2",
        "textgen": "0",
        "alignh": "0",
        "alignv": "0",
        "interlin": -1.0
      },
      "geometry": {
        "type": "Point",
        "coordinates": [52.421521051224353, 29.831640360983045]
      }
    },
    {
      "type": "Feature",
      "properties": {
        "fid": 727.0,
        "handle": "5570",
        "block": "-1",
        "etype": "25",
        "space": "0",
        "layer": "pelak",
        "olinetype": "continuous",
        "linetype": null,
        "color": "255,0,255,255",
        "ocolor": "256",
        "color24": "-1",
        "transparen": "0",
        "lweight": "0",
        "linewidth": 0.0,
        "ltscale": 1.0,
        "visible": "1",
        "thickness": 0.0,
        "ext": "(3:0,0,1)",
        "height": 2.1676,
        "text": "88",
        "angle": 358.74818,
        "widthscale": 1.0,
        "oblique": 0.0,
        "style": "STYLE2",
        "textgen": "0",
        "alignh": "0",
        "alignv": "0",
        "interlin": -1.0
      },
      "geometry": {
        "type": "Point",
        "coordinates": [52.421312269343247, 29.831715422095655]
      }
    },
    {
      "type": "Feature",
      "properties": {
        "fid": 728.0,
        "handle": "5571",
        "block": "-1",
        "etype": "25",
        "space": "0",
        "layer": "pelak",
        "olinetype": "continuous",
        "linetype": null,
        "color": "255,0,255,255",
        "ocolor": "256",
        "color24": "-1",
        "transparen": "0",
        "lweight": "0",
        "linewidth": 0.0,
        "ltscale": 1.0,
        "visible": "1",
        "thickness": 0.0,
        "ext": "(3:0,0,1)",
        "height": 2.1676,
        "text": "86",
        "angle": 358.74818,
        "widthscale": 1.0,
        "oblique": 0.0,
        "style": "STYLE2",
        "textgen": "0",
        "alignh": "0",
        "alignv": "0",
        "interlin": -1.0
      },
      "geometry": {
        "type": "Point",
        "coordinates": [52.421298012336216, 29.830998361624129]
      }
    },
    {
      "type": "Feature",
      "properties": {
        "fid": 729.0,
        "handle": "5572",
        "block": "-1",
        "etype": "25",
        "space": "0",
        "layer": "pelak",
        "olinetype": "continuous",
        "linetype": null,
        "color": "255,0,255,255",
        "ocolor": "256",
        "color24": "-1",
        "transparen": "0",
        "lweight": "0",
        "linewidth": 0.0,
        "ltscale": 1.0,
        "visible": "1",
        "thickness": 0.0,
        "ext": "(3:0,0,1)",
        "height": 2.1676,
        "text": "48",
        "angle": 358.74818,
        "widthscale": 1.0,
        "oblique": 0.0,
        "style": "STYLE2",
        "textgen": "0",
        "alignh": "0",
        "alignv": "0",
        "interlin": -1.0
      },
      "geometry": {
        "type": "Point",
        "coordinates": [52.421255654820555, 29.830642199077403]
      }
    },
    {
      "type": "Feature",
      "properties": {
        "fid": 730.0,
        "handle": "5573",
        "block": "-1",
        "etype": "25",
        "space": "0",
        "layer": "pelak",
        "olinetype": "continuous",
        "linetype": null,
        "color": "255,0,255,255",
        "ocolor": "256",
        "color24": "-1",
        "transparen": "0",
        "lweight": "0",
        "linewidth": 0.0,
        "ltscale": 1.0,
        "visible": "1",
        "thickness": 0.0,
        "ext": "(3:0,0,1)",
        "height": 2.1676,
        "text": "49",
        "angle": 358.74818,
        "widthscale": 1.0,
        "oblique": 0.0,
        "style": "STYLE2",
        "textgen": "0",
        "alignh": "0",
        "alignv": "0",
        "interlin": -1.0
      },
      "geometry": {
        "type": "Point",
        "coordinates": [52.42107247496935, 29.830741470339134]
      }
    },
    {
      "type": "Feature",
      "properties": {
        "fid": 731.0,
        "handle": "5574",
        "block": "-1",
        "etype": "25",
        "space": "0",
        "layer": "pelak",
        "olinetype": "continuous",
        "linetype": null,
        "color": "255,0,255,255",
        "ocolor": "256",
        "color24": "-1",
        "transparen": "0",
        "lweight": "0",
        "linewidth": 0.0,
        "ltscale": 1.0,
        "visible": "1",
        "thickness": 0.0,
        "ext": "(3:0,0,1)",
        "height": 2.1676,
        "text": "50",
        "angle": 358.74818,
        "widthscale": 1.0,
        "oblique": 0.0,
        "style": "STYLE2",
        "textgen": "0",
        "alignh": "0",
        "alignv": "0",
        "interlin": -1.0
      },
      "geometry": {
        "type": "Point",
        "coordinates": [52.420882824596312, 29.83082807510063]
      }
    },
    {
      "type": "Feature",
      "properties": {
        "fid": 732.0,
        "handle": "5575",
        "block": "-1",
        "etype": "25",
        "space": "0",
        "layer": "pelak",
        "olinetype": "continuous",
        "linetype": null,
        "color": "255,0,255,255",
        "ocolor": "256",
        "color24": "-1",
        "transparen": "0",
        "lweight": "0",
        "linewidth": 0.0,
        "ltscale": 1.0,
        "visible": "1",
        "thickness": 0.0,
        "ext": "(3:0,0,1)",
        "height": 2.1676,
        "text": "51",
        "angle": 358.74818,
        "widthscale": 1.0,
        "oblique": 0.0,
        "style": "STYLE2",
        "textgen": "0",
        "alignh": "0",
        "alignv": "0",
        "interlin": -1.0
      },
      "geometry": {
        "type": "Point",
        "coordinates": [52.420693975398088, 29.830930759210009]
      }
    },
    {
      "type": "Feature",
      "properties": {
        "fid": 733.0,
        "handle": "5576",
        "block": "-1",
        "etype": "25",
        "space": "0",
        "layer": "pelak",
        "olinetype": "continuous",
        "linetype": null,
        "color": "255,0,255,255",
        "ocolor": "256",
        "color24": "-1",
        "transparen": "0",
        "lweight": "0",
        "linewidth": 0.0,
        "ltscale": 1.0,
        "visible": "1",
        "thickness": 0.0,
        "ext": "(3:0,0,1)",
        "height": 2.1676,
        "text": "85",
        "angle": 358.74818,
        "widthscale": 1.0,
        "oblique": 0.0,
        "style": "STYLE2",
        "textgen": "0",
        "alignh": "0",
        "alignv": "0",
        "interlin": -1.0
      },
      "geometry": {
        "type": "Point",
        "coordinates": [52.421047379133284, 29.831132315657271]
      }
    },
    {
      "type": "Feature",
      "properties": {
        "fid": 734.0,
        "handle": "5577",
        "block": "-1",
        "etype": "25",
        "space": "0",
        "layer": "pelak",
        "olinetype": "continuous",
        "linetype": null,
        "color": "255,0,255,255",
        "ocolor": "256",
        "color24": "-1",
        "transparen": "0",
        "lweight": "0",
        "linewidth": 0.0,
        "ltscale": 1.0,
        "visible": "1",
        "thickness": 0.0,
        "ext": "(3:0,0,1)",
        "height": 2.1676,
        "text": "84",
        "angle": 358.74818,
        "widthscale": 1.0,
        "oblique": 0.0,
        "style": "STYLE2",
        "textgen": "0",
        "alignh": "0",
        "alignv": "0",
        "interlin": -1.0
      },
      "geometry": {
        "type": "Point",
        "coordinates": [52.420870621292018, 29.831225588047666]
      }
    }
  ]
}
