{
  "type": "FeatureCollection",
  "name": "_3",
  "crs": {
    "type": "name",
    "properties": { "name": "urn:ogc:def:crs:OGC:1.3:CRS84" }
  },
  "features": [
    {
      "type": "Feature",
      "properties": {
        "OBJECTID": "5",
        "plaquejado": "69",
        "lat": 29.77671,
        "lon": 52.48637
      },
      "geometry": {
        "type": "MultiPolygon",
        "coordinates": [
          [
            [
              [52.486481567670239, 29.776489214305855],
              [52.486477092643781, 29.77648906861566],
              [52.486275111207476, 29.776482457699331],
              [52.486274993396307, 29.776485195235637],
              [52.486255788373967, 29.776932726664029],
              [52.486462243937467, 29.77693948327061],
              [52.486481457952948, 29.776491757588587],
              [52.486481567670239, 29.776489214305855]
            ]
          ]
        ]
      }
    },
    {
      "type": "Feature",
      "properties": {
        "OBJECTID": "6",
        "plaquejado": "7",
        "lat": 29.77712,
        "lon": 52.48635
      },
      "geometry": {
        "type": "MultiPolygon",
        "coordinates": [
          [
            [
              [52.486462243937467, 29.77693948327061],
              [52.486255788373967, 29.776932726664029],
              [52.486239837098879, 29.777304451539237],
              [52.486446244098943, 29.777312301721395],
              [52.486462243937467, 29.77693948327061]
            ]
          ]
        ]
      }
    },
    {
      "type": "Feature",
      "properties": {
        "OBJECTID": "7",
        "plaquejado": "70",
        "lat": 29.7767,
        "lon": 52.48616
      },
      "geometry": {
        "type": "MultiPolygon",
        "coordinates": [
          [
            [
              [52.486275111207476, 29.776482457699331],
              [52.486269178379928, 29.776482264345077],
              [52.486068656543296, 29.776475701092807],
              [52.486068465887058, 29.776480150938255],
              [52.486049332810524, 29.776925968258865],
              [52.486255788373967, 29.776932726664029],
              [52.486274993396307, 29.776485195235637],
              [52.486275111207476, 29.776482457699331]
            ]
          ]
        ]
      }
    },
    {
      "type": "Feature",
      "properties": {
        "OBJECTID": "8",
        "plaquejado": "6",
        "lat": 29.77711,
        "lon": 52.48614
      },
      "geometry": {
        "type": "MultiPolygon",
        "coordinates": [
          [
            [
              [52.486255788373967, 29.776932726664029],
              [52.486049332810524, 29.776925968258865],
              [52.486033427400798, 29.777296600457817],
              [52.486239837098879, 29.777304451539237],
              [52.486255788373967, 29.776932726664029]
            ]
          ]
        ]
      }
    },
    {
      "type": "Feature",
      "properties": {
        "OBJECTID": "9",
        "plaquejado": "71",
        "lat": 29.7767,
        "lon": 52.48596
      },
      "geometry": {
        "type": "MultiPolygon",
        "coordinates": [
          [
            [
              [52.486068656543296, 29.776475701092807],
              [52.485871517956241, 29.77646924755777],
              [52.485862200080533, 29.776468942687586],
              [52.485861964458138, 29.776474428552092],
              [52.485861884418512, 29.776476298242642],
              [52.485842877247023, 29.776919211652341],
              [52.486049332810524, 29.776925968258865],
              [52.486068465887058, 29.776480150938255],
              [52.486068656543296, 29.776475701092807]
            ]
          ]
        ]
      }
    },
    {
      "type": "Feature",
      "properties": {
        "OBJECTID": "10",
        "plaquejado": "5",
        "lat": 29.77711,
        "lon": 52.48594
      },
      "geometry": {
        "type": "MultiPolygon",
        "coordinates": [
          [
            [
              [52.486049332810524, 29.776925968258865],
              [52.485842877247023, 29.776919211652341],
              [52.485827018602095, 29.777288749376339],
              [52.486033427400798, 29.777296600457817],
              [52.486049332810524, 29.776925968258865]
            ]
          ]
        ]
      }
    },
    {
      "type": "Feature",
      "properties": {
        "OBJECTID": "122",
        "plaquejado": "67",
        "lat": 29.77672,
        "lon": 52.48678
      },
      "geometry": {
        "type": "MultiPolygon",
        "coordinates": [
          [
            [
              [52.48689447879724, 29.776502727518903],
              [52.486688023233739, 29.776495971811698],
              [52.486687955784589, 29.776497530336826],
              [52.48666870040023, 29.776946239877134],
              [52.486875151467132, 29.776952997382978],
              [52.486894192812827, 29.776509378005414],
              [52.48689447879724, 29.776502727518903]
            ]
          ]
        ]
      }
    },
    {
      "type": "Feature",
      "properties": {
        "OBJECTID": "123",
        "plaquejado": "9",
        "lat": 29.77714,
        "lon": 52.48676
      },
      "geometry": {
        "type": "MultiPolygon",
        "coordinates": [
          [
            [
              [52.486875151467132, 29.776952997382978],
              [52.48666870040023, 29.776946239877134],
              [52.486652652897646, 29.777320151903552],
              [52.486859055401112, 29.777328001186333],
              [52.486875151467132, 29.776952997382978]
            ]
          ]
        ]
      }
    },
    {
      "type": "Feature",
      "properties": {
        "OBJECTID": "124",
        "plaquejado": "68",
        "lat": 29.77672,
        "lon": 52.48658
      },
      "geometry": {
        "type": "MultiPolygon",
        "coordinates": [
          [
            [
              [52.486688023233739, 29.776495971811698],
              [52.486481567670239, 29.776489214305855],
              [52.486481457952948, 29.776491757588587],
              [52.486462243937467, 29.77693948327061],
              [52.48666870040023, 29.776946239877134],
              [52.486687955784589, 29.776497530336826],
              [52.486688023233739, 29.776495971811698]
            ]
          ]
        ]
      }
    },
    {
      "type": "Feature",
      "properties": {
        "OBJECTID": "125",
        "plaquejado": "8",
        "lat": 29.77713,
        "lon": 52.48656
      },
      "geometry": {
        "type": "MultiPolygon",
        "coordinates": [
          [
            [
              [52.48666870040023, 29.776946239877134],
              [52.486462243937467, 29.77693948327061],
              [52.486446244098943, 29.777312301721395],
              [52.486652652897646, 29.777320151903552],
              [52.48666870040023, 29.776946239877134]
            ]
          ]
        ]
      }
    },
    {
      "type": "Feature",
      "properties": {
        "OBJECTID": "126",
        "plaquejado": "72",
        "lat": 29.77675,
        "lon": 52.48564
      },
      "geometry": {
        "type": "MultiPolygon",
        "coordinates": [
          [
            [
              [52.485862200080533, 29.776468942687586],
              [52.485854237483125, 29.776468682783559],
              [52.485820142385705, 29.776467566724875],
              [52.485223448503405, 29.776900146924277],
              [52.485280638190943, 29.776901682966354],
              [52.485429958026202, 29.776905694842014],
              [52.4856363776168, 29.776912452347858],
              [52.485842877247023, 29.776919211652341],
              [52.485861884418512, 29.776476298242642],
              [52.485861964458138, 29.776474428552092],
              [52.485862200080533, 29.776468942687586]
            ]
          ]
        ]
      }
    },
    {
      "type": "Feature",
      "properties": {
        "OBJECTID": "127",
        "plaquejado": "4",
        "lat": 29.7771,
        "lon": 52.48573
      },
      "geometry": {
        "type": "MultiPolygon",
        "coordinates": [
          [
            [
              [52.485842877247023, 29.776919211652341],
              [52.4856363776168, 29.776912452347858],
              [52.485620606206055, 29.777280897395542],
              [52.485827018602095, 29.777288749376339],
              [52.485842877247023, 29.776919211652341]
            ]
          ]
        ]
      }
    },
    {
      "type": "Feature",
      "properties": {
        "OBJECTID": "128",
        "plaquejado": "3",
        "lat": 29.77709,
        "lon": 52.48553
      },
      "geometry": {
        "type": "MultiPolygon",
        "coordinates": [
          [
            [
              [52.4856363776168, 29.776912452347858],
              [52.485429958026202, 29.776905694842014],
              [52.485414219890401, 29.777273047213384],
              [52.485620606206055, 29.777280897395542],
              [52.4856363776168, 29.776912452347858]
            ]
          ]
        ]
      }
    },
    {
      "type": "Feature",
      "properties": {
        "OBJECTID": "129",
        "plaquejado": "2",
        "lat": 29.77709,
        "lon": 52.48532
      },
      "geometry": {
        "type": "MultiPolygon",
        "coordinates": [
          [
            [
              [52.485429958026202, 29.776905694842014],
              [52.485280638190943, 29.776901682966354],
              [52.485223448503405, 29.776900146924277],
              [52.485221528450836, 29.77694494215541],
              [52.485207797601845, 29.777265194333324],
              [52.485414219890401, 29.777273047213384],
              [52.485429958026202, 29.776905694842014]
            ]
          ]
        ]
      }
    },
    {
      "type": "Feature",
      "properties": {
        "OBJECTID": "130",
        "plaquejado": "1",
        "lat": 29.77713,
        "lon": 52.48508
      },
      "geometry": {
        "type": "MultiPolygon",
        "coordinates": [
          [
            [
              [52.485223448503405, 29.776900146924277],
              [52.484903344713643, 29.777132207085742],
              [52.484901319440382, 29.777179283896885],
              [52.484898130444435, 29.777253414113829],
              [52.485207797601845, 29.777265194333324],
              [52.485221528450836, 29.77694494215541],
              [52.485223448503405, 29.776900146924277]
            ]
          ]
        ]
      }
    },
    {
      "type": "Feature",
      "properties": {
        "OBJECTID": "140",
        "plaquejado": "60",
        "lat": 29.77678,
        "lon": 52.48845
      },
      "geometry": {
        "type": "MultiPolygon",
        "coordinates": [
          [
            [
              [52.488561571859123, 29.776557272300352],
              [52.488355116295622, 29.776550518391787],
              [52.488354906753614, 29.776555390019269],
              [52.488335761985866, 29.777000785557846],
              [52.488542218448686, 29.77700753946641],
              [52.48856139828996, 29.77656131205498],
              [52.488561571859123, 29.776557272300352]
            ]
          ]
        ]
      }
    },
    {
      "type": "Feature",
      "properties": {
        "OBJECTID": "141",
        "plaquejado": "61",
        "lat": 29.77677,
        "lon": 52.48824
      },
      "geometry": {
        "type": "MultiPolygon",
        "coordinates": [
          [
            [
              [52.488355116295622, 29.776550518391787],
              [52.488148660732179, 29.776543765382542],
              [52.488148371150487, 29.776550502203975],
              [52.488129304623783, 29.7769940325486],
              [52.488335761985866, 29.777000785557846],
              [52.488354906753614, 29.776555390019269],
              [52.488355116295622, 29.776550518391787]
            ]
          ]
        ]
      }
    },
    {
      "type": "Feature",
      "properties": {
        "OBJECTID": "150",
        "plaquejado": "15",
        "lat": 29.77719,
        "lon": 52.48822
      },
      "geometry": {
        "type": "MultiPolygon",
        "coordinates": [
          [
            [
              [52.488335761985866, 29.777000785557846],
              [52.488129304623783, 29.7769940325486],
              [52.488113626742518, 29.777358773288825],
              [52.488113131216096, 29.777370276517104],
              [52.48811283264115, 29.77737723007516],
              [52.488319284607371, 29.777384089204418],
              [52.488319656027386, 29.777375449417491],
              [52.488320013058228, 29.77736715407093],
              [52.488335761985866, 29.777000785557846]
            ]
          ]
        ]
      }
    },
    {
      "type": "Feature",
      "properties": {
        "OBJECTID": "151",
        "plaquejado": "62",
        "lat": 29.77677,
        "lon": 52.48804
      },
      "geometry": {
        "type": "MultiPolygon",
        "coordinates": [
          [
            [
              [52.488148660732179, 29.776543765382542],
              [52.487971453819569, 29.776537966553974],
              [52.487965928384938, 29.776542438882473],
              [52.48794114217003, 29.776562495562757],
              [52.48793570576828, 29.776688754982104],
              [52.487926406778286, 29.776904669614851],
              [52.487926195437637, 29.776909566423399],
              [52.487924343733539, 29.776952560312452],
              [52.487924112607743, 29.776957921171174],
              [52.487923828422026, 29.77696453568484],
              [52.487922848160963, 29.776987276841396],
              [52.488129304623783, 29.7769940325486],
              [52.488148371150487, 29.776550502203975],
              [52.488148660732179, 29.776543765382542]
            ]
          ]
        ]
      }
    },
    {
      "type": "Feature",
      "properties": {
        "OBJECTID": "152",
        "plaquejado": "14",
        "lat": 29.77718,
        "lon": 52.48802
      },
      "geometry": {
        "type": "MultiPolygon",
        "coordinates": [
          [
            [
              [52.488129304623783, 29.7769940325486],
              [52.487922848160963, 29.776987276841396],
              [52.487907104629244, 29.777354305456868],
              [52.487906553344828, 29.777367164862824],
              [52.487906415748569, 29.777370370945903],
              [52.48811283264115, 29.77737723007516],
              [52.488113131216096, 29.777370276517104],
              [52.488113626742518, 29.777358773288825],
              [52.488129304623783, 29.7769940325486]
            ]
          ]
        ]
      }
    },
    {
      "type": "Feature",
      "properties": {
        "OBJECTID": "153",
        "plaquejado": "63",
        "lat": 29.77675,
        "lon": 52.48761
      },
      "geometry": {
        "type": "MultiPolygon",
        "coordinates": [
          [
            [
              [52.487513844588307, 29.776522994640516],
              [52.487494506466362, 29.776973263605271],
              [52.487700957533207, 29.776980018413155],
              [52.487719204777534, 29.776555235335877],
              [52.487691086574443, 29.776528794368403],
              [52.487513844588307, 29.776522994640516]
            ]
          ]
        ]
      }
    },
    {
      "type": "Feature",
      "properties": {
        "OBJECTID": "154",
        "plaquejado": "13",
        "lat": 29.77717,
        "lon": 52.48759
      },
      "geometry": {
        "type": "MultiPolygon",
        "coordinates": [
          [
            [
              [52.487700957533207, 29.776980018413155],
              [52.487494506466362, 29.776973263605271],
              [52.487478257515647, 29.777351548135471],
              [52.487684660019113, 29.777359396518989],
              [52.487697962790776, 29.777049705079889],
              [52.487699986265397, 29.777002632765345],
              [52.487700957533207, 29.776980018413155]
            ]
          ]
        ]
      }
    },
    {
      "type": "Feature",
      "properties": {
        "OBJECTID": "155",
        "plaquejado": "64",
        "lat": 29.77674,
        "lon": 52.4874
      },
      "geometry": {
        "type": "MultiPolygon",
        "coordinates": [
          [
            [
              [52.487513844588307, 29.776522994640516],
              [52.487308561740804, 29.776516277604173],
              [52.487307389924183, 29.776516239832631],
              [52.487307279307572, 29.776518800202496],
              [52.487288054500141, 29.776966507898067],
              [52.487494506466362, 29.776973263605271],
              [52.487513844588307, 29.776522994640516]
            ]
          ]
        ]
      }
    },
    {
      "type": "Feature",
      "properties": {
        "OBJECTID": "156",
        "plaquejado": "12",
        "lat": 29.77716,
        "lon": 52.48738
      },
      "geometry": {
        "type": "MultiPolygon",
        "coordinates": [
          [
            [
              [52.487494506466362, 29.776973263605271],
              [52.487288054500141, 29.776966507898067],
              [52.487271856810821, 29.77734369885269],
              [52.487478257515647, 29.777351548135471],
              [52.487494506466362, 29.776973263605271]
            ]
          ]
        ]
      }
    },
    {
      "type": "Feature",
      "properties": {
        "OBJECTID": "157",
        "plaquejado": "65",
        "lat": 29.77674,
        "lon": 52.48719
      },
      "geometry": {
        "type": "MultiPolygon",
        "coordinates": [
          [
            [
              [52.487307389924183, 29.776516239832631],
              [52.487150104793557, 29.776511093012573],
              [52.487100934360683, 29.776509484125427],
              [52.487081603433296, 29.776959753090182],
              [52.487288054500141, 29.776966507898067],
              [52.487307279307572, 29.776518800202496],
              [52.487307389924183, 29.776516239832631]
            ]
          ]
        ]
      }
    },
    {
      "type": "Feature",
      "properties": {
        "OBJECTID": "158",
        "plaquejado": "11",
        "lat": 29.77715,
        "lon": 52.48718
      },
      "geometry": {
        "type": "MultiPolygon",
        "coordinates": [
          [
            [
              [52.487288054500141, 29.776966507898067],
              [52.487081603433296, 29.776959753090182],
              [52.487065456105995, 29.777335850469171],
              [52.487271856810821, 29.77734369885269],
              [52.487288054500141, 29.776966507898067]
            ]
          ]
        ]
      }
    },
    {
      "type": "Feature",
      "properties": {
        "OBJECTID": "159",
        "plaquejado": "66",
        "lat": 29.77673,
        "lon": 52.48699
      },
      "geometry": {
        "type": "MultiPolygon",
        "coordinates": [
          [
            [
              [52.487100934360683, 29.776509484125427],
              [52.487099778731874, 29.776509446353941],
              [52.48689447879724, 29.776502727518903],
              [52.486894192812827, 29.776509378005414],
              [52.486875151467132, 29.776952997382978],
              [52.487081603433296, 29.776959753090182],
              [52.487100934360683, 29.776509484125427]
            ]
          ]
        ]
      }
    },
    {
      "type": "Feature",
      "properties": {
        "OBJECTID": "160",
        "plaquejado": "10",
        "lat": 29.77714,
        "lon": 52.48697
      },
      "geometry": {
        "type": "MultiPolygon",
        "coordinates": [
          [
            [
              [52.487081603433296, 29.776959753090182],
              [52.486875151467132, 29.776952997382978],
              [52.486859055401112, 29.777328001186333],
              [52.487065456105995, 29.777335850469171],
              [52.487081603433296, 29.776959753090182]
            ]
          ]
        ]
      }
    },
    {
      "type": "Feature",
      "properties": {
        "OBJECTID": "161",
        "plaquejado": "59",
        "lat": 29.77679,
        "lon": 52.48866
      },
      "geometry": {
        "type": "MultiPolygon",
        "coordinates": [
          [
            [
              [52.488768027422566, 29.776564026208916],
              [52.488561571859123, 29.776557272300352],
              [52.48856139828996, 29.77656131205498],
              [52.488542218448686, 29.77700753946641],
              [52.488748674911449, 29.777014293374975],
              [52.488767823276476, 29.776568789917746],
              [52.488768027422566, 29.776564026208916]
            ]
          ]
        ]
      }
    },
    {
      "type": "Feature",
      "properties": {
        "OBJECTID": "162",
        "plaquejado": "18",
        "lat": 29.77721,
        "lon": 52.48884
      },
      "geometry": {
        "type": "MultiPolygon",
        "coordinates": [
          [
            [
              [52.488955131374269, 29.777021045484901],
              [52.488748674911449, 29.777014293374975],
              [52.488732797380749, 29.777383697099992],
              [52.488732421464135, 29.777392428617759],
              [52.488732132781763, 29.777399164539872],
              [52.488938525392712, 29.777407436504063],
              [52.488938727740162, 29.777402729452433],
              [52.488939049697422, 29.77739524979097],
              [52.488955131374269, 29.777021045484901]
            ]
          ]
        ]
      }
    },
    {
      "type": "Feature",
      "properties": {
        "OBJECTID": "163",
        "plaquejado": "17",
        "lat": 29.7772,
        "lon": 52.48864
      },
      "geometry": {
        "type": "MultiPolygon",
        "coordinates": [
          [
            [
              [52.488748674911449, 29.777014293374975],
              [52.488542218448686, 29.77700753946641],
              [52.488526469520991, 29.777373927764586],
              [52.488526057631532, 29.777383509141657],
              [52.488525737472855, 29.777390948333675],
              [52.488534067892999, 29.777391224425514],
              [52.488732132781763, 29.777399164539872],
              [52.488732421464135, 29.777392428617759],
              [52.488732797380749, 29.777383697099992],
              [52.488748674911449, 29.777014293374975]
            ]
          ]
        ]
      }
    },
    {
      "type": "Feature",
      "properties": {
        "OBJECTID": "164",
        "plaquejado": "16",
        "lat": 29.7772,
        "lon": 52.48843
      },
      "geometry": {
        "type": "MultiPolygon",
        "coordinates": [
          [
            [
              [52.488542218448686, 29.77700753946641],
              [52.488335761985866, 29.777000785557846],
              [52.488320013058228, 29.77736715407093],
              [52.488319656027386, 29.777375449417491],
              [52.488319284607371, 29.777384089204418],
              [52.488525737472855, 29.777390948333675],
              [52.488526057631532, 29.777383509141657],
              [52.488526469520991, 29.777373927764586],
              [52.488542218448686, 29.77700753946641]
            ]
          ]
        ]
      }
    },
    {
      "type": "Feature",
      "properties": {
        "OBJECTID": "184",
        "plaquejado": "53",
        "lat": 29.77683,
        "lon": 52.48989
      },
      "geometry": {
        "type": "MultiPolygon",
        "coordinates": [
          [
            [
              [52.489800307038593, 29.776597787657806],
              [52.489800142462684, 29.776601598085335],
              [52.489780958124754, 29.777048053924602],
              [52.489987413688254, 29.777054806034528],
              [52.490003472881995, 29.776681084664403],
              [52.490004827261032, 29.776649566124604],
              [52.490000854056234, 29.77664583034084],
              [52.489955148711203, 29.776602851740279],
              [52.489800307038593, 29.776597787657806]
            ]
          ]
        ]
      }
    },
    {
      "type": "Feature",
      "properties": {
        "OBJECTID": "185",
        "plaquejado": "23",
        "lat": 29.77725,
        "lon": 52.48988
      },
      "geometry": {
        "type": "MultiPolygon",
        "coordinates": [
          [
            [
              [52.489987413688254, 29.777054806034528],
              [52.489780958124754, 29.777048053924602],
              [52.489764094037753, 29.777440520763491],
              [52.489970484850062, 29.777448792727625],
              [52.489985520615335, 29.77709888540528],
              [52.489985965779738, 29.7770885126248],
              [52.489987413688254, 29.777054806034528]
            ]
          ]
        ]
      }
    },
    {
      "type": "Feature",
      "properties": {
        "OBJECTID": "186",
        "plaquejado": "54",
        "lat": 29.77682,
        "lon": 52.48969
      },
      "geometry": {
        "type": "MultiPolygon",
        "coordinates": [
          [
            [
              [52.489800307038593, 29.776597787657806],
              [52.489593851475092, 29.776591035547881],
              [52.489593683301905, 29.776594931411012],
              [52.489574501661991, 29.777041302713997],
              [52.489780958124754, 29.777048053924602],
              [52.489800142462684, 29.776601598085335],
              [52.489800307038593, 29.776597787657806]
            ]
          ]
        ]
      }
    },
    {
      "type": "Feature",
      "properties": {
        "OBJECTID": "187",
        "plaquejado": "22",
        "lat": 29.77724,
        "lon": 52.48967
      },
      "geometry": {
        "type": "MultiPolygon",
        "coordinates": [
          [
            [
              [52.489780958124754, 29.777048053924602],
              [52.489574501661991, 29.777041302713997],
              [52.489557701426861, 29.77743225059794],
              [52.489764094037753, 29.777440520763491],
              [52.489780958124754, 29.777048053924602]
            ]
          ]
        ]
      }
    },
    {
      "type": "Feature",
      "properties": {
        "OBJECTID": "188",
        "plaquejado": "55",
        "lat": 29.77681,
        "lon": 52.48948
      },
      "geometry": {
        "type": "MultiPolygon",
        "coordinates": [
          [
            [
              [52.489593851475092, 29.776591035547881],
              [52.489390468895067, 29.776584385061369],
              [52.48938739411301, 29.776584284337275],
              [52.489387224141126, 29.776588234159703],
              [52.489368044299852, 29.777034550604071],
              [52.489574501661991, 29.777041302713997],
              [52.489593683301905, 29.776594931411012],
              [52.489593851475092, 29.776591035547881]
            ]
          ]
        ]
      }
    },
    {
      "type": "Feature",
      "properties": {
        "OBJECTID": "189",
        "plaquejado": "21",
        "lat": 29.77723,
        "lon": 52.48946
      },
      "geometry": {
        "type": "MultiPolygon",
        "coordinates": [
          [
            [
              [52.489574501661991, 29.777041302713997],
              [52.489368044299852, 29.777034550604071],
              [52.489352325049822, 29.777400352544305],
              [52.489351535445053, 29.777418707707227],
              [52.489351308815912, 29.777423980432388],
              [52.48951556639031, 29.77743056257043],
              [52.489557532354297, 29.777432243403382],
              [52.489557701426861, 29.77743225059794],
              [52.489574501661991, 29.777041302713997]
            ]
          ]
        ]
      }
    },
    {
      "type": "Feature",
      "properties": {
        "OBJECTID": "190",
        "plaquejado": "56",
        "lat": 29.77681,
        "lon": 52.48927
      },
      "geometry": {
        "type": "MultiPolygon",
        "coordinates": [
          [
            [
              [52.48938739411301, 29.776584284337275],
              [52.489180938549509, 29.776577531328087],
              [52.489180784765438, 29.776581116925058],
              [52.489161588736408, 29.777027798494146],
              [52.489368044299852, 29.777034550604071],
              [52.489387224141126, 29.776588234159703],
              [52.48938739411301, 29.776584284337275]
            ]
          ]
        ]
      }
    },
    {
      "type": "Feature",
      "properties": {
        "OBJECTID": "191",
        "plaquejado": "20",
        "lat": 29.77723,
        "lon": 52.48926
      },
      "geometry": {
        "type": "MultiPolygon",
        "coordinates": [
          [
            [
              [52.489368044299852, 29.777034550604071],
              [52.489161588736408, 29.777027798494146],
              [52.489145608682975, 29.777399601610398],
              [52.489145072686995, 29.777412049126838],
              [52.489144916204964, 29.777415707568878],
              [52.489351308815912, 29.777423980432388],
              [52.489351535445053, 29.777418707707227],
              [52.489352325049822, 29.777400352544305],
              [52.489368044299852, 29.777034550604071]
            ]
          ]
        ]
      }
    },
    {
      "type": "Feature",
      "properties": {
        "OBJECTID": "192",
        "plaquejado": "57",
        "lat": 29.7768,
        "lon": 52.48907
      },
      "geometry": {
        "type": "MultiPolygon",
        "coordinates": [
          [
            [
              [52.489180938549509, 29.776577531328087],
              [52.488974483885386, 29.776570778318842],
              [52.488974345389806, 29.776574027569382],
              [52.488955131374269, 29.777021045484901],
              [52.489161588736408, 29.777027798494146],
              [52.489180784765438, 29.776581116925058],
              [52.489180938549509, 29.776577531328087]
            ]
          ]
        ]
      }
    },
    {
      "type": "Feature",
      "properties": {
        "OBJECTID": "193",
        "plaquejado": "19",
        "lat": 29.77722,
        "lon": 52.48905
      },
      "geometry": {
        "type": "MultiPolygon",
        "coordinates": [
          [
            [
              [52.489161588736408, 29.777027798494146],
              [52.488955131374269, 29.777021045484901],
              [52.488939049697422, 29.77739524979097],
              [52.488938727740162, 29.777402729452433],
              [52.488938525392712, 29.777407436504063],
              [52.489144916204964, 29.777415707568878],
              [52.489145072686995, 29.777412049126838],
              [52.489145608682975, 29.777399601610398],
              [52.489161588736408, 29.777027798494146]
            ]
          ]
        ]
      }
    },
    {
      "type": "Feature",
      "properties": {
        "OBJECTID": "225",
        "plaquejado": "58",
        "lat": 29.77679,
        "lon": 52.48886
      },
      "geometry": {
        "type": "MultiPolygon",
        "coordinates": [
          [
            [
              [52.488974483885386, 29.776570778318842],
              [52.488972673550109, 29.776570719862889],
              [52.488768027422566, 29.776564026208916],
              [52.488767823276476, 29.776568789917746],
              [52.488748674911449, 29.777014293374975],
              [52.488955131374269, 29.777021045484901],
              [52.488974345389806, 29.776574027569382],
              [52.488974483885386, 29.776570778318842]
            ]
          ]
        ]
      }
    }
  ]
}
