{
  "type": "FeatureCollection",
  "name": "_2",
  "crs": {
    "type": "name",
    "properties": { "name": "urn:ogc:def:crs:OGC:1.3:CRS84" }
  },
  "features": [
    {
      "type": "Feature",
      "properties": {
        "fid": 1.0,
        "handle": "2661",
        "block": "-1",
        "etype": "25",
        "space": "0",
        "layer": "Masahat",
        "olinetype": "BYLAYER",
        "linetype": null,
        "color": "byblock",
        "ocolor": "0",
        "color24": "-1",
        "transparen": "0",
        "lweight": "0",
        "linewidth": 0.0,
        "ltscale": 1.0,
        "visible": "1",
        "thickness": 0.0,
        "ext": "(3:0.1014852780926056,-0.0580825163961483,0.9931400503552144)",
        "height": 2.4,
        "text": "935",
        "angle": 297.81703,
        "widthscale": 1.0,
        "oblique": 0.0,
        "style": "STYLE2",
        "textgen": "0",
        "alignh": "0",
        "alignv": "0",
        "interlin": -1.0
      },
      "geometry": {
        "type": "Point",
        "coordinates": [52.434164395269804, 29.824276201972101]
      }
    },
    {
      "type": "Feature",
      "properties": {
        "fid": 2.0,
        "handle": "2662",
        "block": "-1",
        "etype": "25",
        "space": "0",
        "layer": "Masahat",
        "olinetype": "BYLAYER",
        "linetype": null,
        "color": "byblock",
        "ocolor": "0",
        "color24": "-1",
        "transparen": "0",
        "lweight": "0",
        "linewidth": 0.0,
        "ltscale": 1.0,
        "visible": "1",
        "thickness": 0.0,
        "ext": "(3:0.1014852780926056,-0.0580825163961483,0.9931400503552144)",
        "height": 2.4,
        "text": "907",
        "angle": 297.81703,
        "widthscale": 1.0,
        "oblique": 0.0,
        "style": "STYLE2",
        "textgen": "0",
        "alignh": "0",
        "alignv": "0",
        "interlin": -1.0
      },
      "geometry": {
        "type": "Point",
        "coordinates": [52.433974807264455, 29.824368285354559]
      }
    },
    {
      "type": "Feature",
      "properties": {
        "fid": 3.0,
        "handle": "2663",
        "block": "-1",
        "etype": "25",
        "space": "0",
        "layer": "Masahat",
        "olinetype": "BYLAYER",
        "linetype": null,
        "color": "byblock",
        "ocolor": "0",
        "color24": "-1",
        "transparen": "0",
        "lweight": "0",
        "linewidth": 0.0,
        "ltscale": 1.0,
        "visible": "1",
        "thickness": 0.0,
        "ext": "(3:0.1014852780926056,-0.0580825163961483,0.9931400503552144)",
        "height": 2.4,
        "text": "910",
        "angle": 297.81703,
        "widthscale": 1.0,
        "oblique": 0.0,
        "style": "STYLE2",
        "textgen": "0",
        "alignh": "0",
        "alignv": "0",
        "interlin": -1.0
      },
      "geometry": {
        "type": "Point",
        "coordinates": [52.433789728686001, 29.824457120710282]
      }
    },
    {
      "type": "Feature",
      "properties": {
        "fid": 4.0,
        "handle": "2664",
        "block": "-1",
        "etype": "25",
        "space": "0",
        "layer": "Masahat",
        "olinetype": "BYLAYER",
        "linetype": null,
        "color": "byblock",
        "ocolor": "0",
        "color24": "-1",
        "transparen": "0",
        "lweight": "0",
        "linewidth": 0.0,
        "ltscale": 1.0,
        "visible": "1",
        "thickness": 0.0,
        "ext": "(3:0.1014852780926056,-0.0580825163961483,0.9931400503552144)",
        "height": 2.4,
        "text": "953",
        "angle": 297.81703,
        "widthscale": 1.0,
        "oblique": 0.0,
        "style": "STYLE2",
        "textgen": "0",
        "alignh": "0",
        "alignv": "0",
        "interlin": -1.0
      },
      "geometry": {
        "type": "Point",
        "coordinates": [52.433633014128489, 29.824538258591982]
      }
    },
    {
      "type": "Feature",
      "properties": {
        "fid": 5.0,
        "handle": "2665",
        "block": "-1",
        "etype": "25",
        "space": "0",
        "layer": "Masahat",
        "olinetype": "BYLAYER",
        "linetype": null,
        "color": "byblock",
        "ocolor": "0",
        "color24": "-1",
        "transparen": "0",
        "lweight": "0",
        "linewidth": 0.0,
        "ltscale": 1.0,
        "visible": "1",
        "thickness": 0.0,
        "ext": "(3:0.1014852780926056,-0.0580825163961483,0.9931400503552144)",
        "height": 2.4,
        "text": "1324",
        "angle": 297.81703,
        "widthscale": 1.0,
        "oblique": 0.0,
        "style": "STYLE2",
        "textgen": "0",
        "alignh": "0",
        "alignv": "0",
        "interlin": -1.0
      },
      "geometry": {
        "type": "Point",
        "coordinates": [52.433400274613319, 29.824620002981433]
      }
    },
    {
      "type": "Feature",
      "properties": {
        "fid": 6.0,
        "handle": "2767",
        "block": "-1",
        "etype": "25",
        "space": "0",
        "layer": "Masahat",
        "olinetype": "BYLAYER",
        "linetype": null,
        "color": "byblock",
        "ocolor": "0",
        "color24": "-1",
        "transparen": "0",
        "lweight": "0",
        "linewidth": 0.0,
        "ltscale": 1.0,
        "visible": "1",
        "thickness": 0.0,
        "ext": "(3:0.1014852780926056,-0.0580825163961483,0.9931400503552144)",
        "height": 2.4,
        "text": "1401.75",
        "angle": 297.81703,
        "widthscale": 1.0,
        "oblique": 0.0,
        "style": "STYLE2",
        "textgen": "0",
        "alignh": "0",
        "alignv": "0",
        "interlin": -1.0
      },
      "geometry": {
        "type": "Point",
        "coordinates": [52.434089908106642, 29.823491760170914]
      }
    },
    {
      "type": "Feature",
      "properties": {
        "fid": 7.0,
        "handle": "2768",
        "block": "-1",
        "etype": "25",
        "space": "0",
        "layer": "Masahat",
        "olinetype": "BYLAYER",
        "linetype": null,
        "color": "byblock",
        "ocolor": "0",
        "color24": "-1",
        "transparen": "0",
        "lweight": "0",
        "linewidth": 0.0,
        "ltscale": 1.0,
        "visible": "1",
        "thickness": 0.0,
        "ext": "(3:0.1014852780926056,-0.0580825163961483,0.9931400503552144)",
        "height": 2.4,
        "text": "937.50",
        "angle": 297.81703,
        "widthscale": 1.0,
        "oblique": 0.0,
        "style": "STYLE2",
        "textgen": "0",
        "alignh": "0",
        "alignv": "0",
        "interlin": -1.0
      },
      "geometry": {
        "type": "Point",
        "coordinates": [52.433100656396547, 29.82387409512728]
      }
    },
    {
      "type": "Feature",
      "properties": {
        "fid": 8.0,
        "handle": "2769",
        "block": "-1",
        "etype": "25",
        "space": "0",
        "layer": "Masahat",
        "olinetype": "BYLAYER",
        "linetype": null,
        "color": "byblock",
        "ocolor": "0",
        "color24": "-1",
        "transparen": "0",
        "lweight": "0",
        "linewidth": 0.0,
        "ltscale": 1.0,
        "visible": "1",
        "thickness": 0.0,
        "ext": "(3:0.1014852780926056,-0.0580825163961483,0.9931400503552144)",
        "height": 2.4,
        "text": "1045.26",
        "angle": 297.81703,
        "widthscale": 1.0,
        "oblique": 0.0,
        "style": "STYLE2",
        "textgen": "0",
        "alignh": "0",
        "alignv": "0",
        "interlin": -1.0
      },
      "geometry": {
        "type": "Point",
        "coordinates": [52.433359394463189, 29.823142887816552]
      }
    },
    {
      "type": "Feature",
      "properties": {
        "fid": 9.0,
        "handle": "2770",
        "block": "-1",
        "etype": "25",
        "space": "0",
        "layer": "Masahat",
        "olinetype": "BYLAYER",
        "linetype": null,
        "color": "byblock",
        "ocolor": "0",
        "color24": "-1",
        "transparen": "0",
        "lweight": "0",
        "linewidth": 0.0,
        "ltscale": 1.0,
        "visible": "1",
        "thickness": 0.0,
        "ext": "(3:0.1014852780926056,-0.0580825163961483,0.9931400503552144)",
        "height": 2.4,
        "text": "1053",
        "angle": 297.81703,
        "widthscale": 1.0,
        "oblique": 0.0,
        "style": "STYLE2",
        "textgen": "0",
        "alignh": "0",
        "alignv": "0",
        "interlin": -1.0
      },
      "geometry": {
        "type": "Point",
        "coordinates": [52.433144265220442, 29.823219667323045]
      }
    },
    {
      "type": "Feature",
      "properties": {
        "fid": 10.0,
        "handle": "2771",
        "block": "-1",
        "etype": "25",
        "space": "0",
        "layer": "Masahat",
        "olinetype": "BYLAYER",
        "linetype": null,
        "color": "byblock",
        "ocolor": "0",
        "color24": "-1",
        "transparen": "0",
        "lweight": "0",
        "linewidth": 0.0,
        "ltscale": 1.0,
        "visible": "1",
        "thickness": 0.0,
        "ext": "(3:0.1014852780926056,-0.0580825163961483,0.9931400503552144)",
        "height": 2.4,
        "text": "1060",
        "angle": 297.81703,
        "widthscale": 1.0,
        "oblique": 0.0,
        "style": "STYLE2",
        "textgen": "0",
        "alignh": "0",
        "alignv": "0",
        "interlin": -1.0
      },
      "geometry": {
        "type": "Point",
        "coordinates": [52.432931031490305, 29.823276172165556]
      }
    },
    {
      "type": "Feature",
      "properties": {
        "fid": 11.0,
        "handle": "2772",
        "block": "-1",
        "etype": "25",
        "space": "0",
        "layer": "Masahat",
        "olinetype": "BYLAYER",
        "linetype": null,
        "color": "byblock",
        "ocolor": "0",
        "color24": "-1",
        "transparen": "0",
        "lweight": "0",
        "linewidth": 0.0,
        "ltscale": 1.0,
        "visible": "1",
        "thickness": 0.0,
        "ext": "(3:0.1014852780926056,-0.0580825163961483,0.9931400503552144)",
        "height": 2.4,
        "text": "746.4",
        "angle": 297.81703,
        "widthscale": 1.0,
        "oblique": 0.0,
        "style": "STYLE2",
        "textgen": "0",
        "alignh": "0",
        "alignv": "0",
        "interlin": -1.0
      },
      "geometry": {
        "type": "Point",
        "coordinates": [52.432921125288232, 29.823932467704548]
      }
    },
    {
      "type": "Feature",
      "properties": {
        "fid": 12.0,
        "handle": "2773",
        "block": "-1",
        "etype": "25",
        "space": "0",
        "layer": "Masahat",
        "olinetype": "BYLAYER",
        "linetype": null,
        "color": "byblock",
        "ocolor": "0",
        "color24": "-1",
        "transparen": "0",
        "lweight": "0",
        "linewidth": 0.0,
        "ltscale": 1.0,
        "visible": "1",
        "thickness": 0.0,
        "ext": "(3:0.1014852780926056,-0.0580825163961483,0.9931400503552144)",
        "height": 2.4,
        "text": "1524",
        "angle": 297.81703,
        "widthscale": 1.0,
        "oblique": 0.0,
        "style": "STYLE2",
        "textgen": "0",
        "alignh": "0",
        "alignv": "0",
        "interlin": -1.0
      },
      "geometry": {
        "type": "Point",
        "coordinates": [52.43393357382201, 29.822977898054788]
      }
    },
    {
      "type": "Feature",
      "properties": {
        "fid": 13.0,
        "handle": "2774",
        "block": "-1",
        "etype": "25",
        "space": "0",
        "layer": "Masahat",
        "olinetype": "BYLAYER",
        "linetype": null,
        "color": "byblock",
        "ocolor": "0",
        "color24": "-1",
        "transparen": "0",
        "lweight": "0",
        "linewidth": 0.0,
        "ltscale": 1.0,
        "visible": "1",
        "thickness": 0.0,
        "ext": "(3:0.1014852780926056,-0.0580825163961483,0.9931400503552144)",
        "height": 2.4,
        "text": "1553",
        "angle": 297.81703,
        "widthscale": 1.0,
        "oblique": 0.0,
        "style": "STYLE2",
        "textgen": "0",
        "alignh": "0",
        "alignv": "0",
        "interlin": -1.0
      },
      "geometry": {
        "type": "Point",
        "coordinates": [52.433619785024803, 29.823062252957094]
      }
    },
    {
      "type": "Feature",
      "properties": {
        "fid": 14.0,
        "handle": "2775",
        "block": "-1",
        "etype": "25",
        "space": "0",
        "layer": "Masahat",
        "olinetype": "BYLAYER",
        "linetype": null,
        "color": "byblock",
        "ocolor": "0",
        "color24": "-1",
        "transparen": "0",
        "lweight": "0",
        "linewidth": 0.0,
        "ltscale": 1.0,
        "visible": "1",
        "thickness": 0.0,
        "ext": "(3:0.1014852780926056,-0.0580825163961483,0.9931400503552144)",
        "height": 2.4,
        "text": "1008",
        "angle": 297.81703,
        "widthscale": 1.0,
        "oblique": 0.0,
        "style": "STYLE2",
        "textgen": "0",
        "alignh": "0",
        "alignv": "0",
        "interlin": -1.0
      },
      "geometry": {
        "type": "Point",
        "coordinates": [52.432701461478075, 29.823385008992339]
      }
    },
    {
      "type": "Feature",
      "properties": {
        "fid": 15.0,
        "handle": "2783",
        "block": "-1",
        "etype": "25",
        "space": "0",
        "layer": "Masahat",
        "olinetype": "BYLAYER",
        "linetype": null,
        "color": "byblock",
        "ocolor": "0",
        "color24": "-1",
        "transparen": "0",
        "lweight": "0",
        "linewidth": 0.0,
        "ltscale": 1.0,
        "visible": "1",
        "thickness": 0.0,
        "ext": "(3:0.1014852780926056,-0.0580825163961483,0.9931400503552144)",
        "height": 2.4,
        "text": "937.50",
        "angle": 297.81703,
        "widthscale": 1.0,
        "oblique": 0.0,
        "style": "STYLE2",
        "textgen": "0",
        "alignh": "0",
        "alignv": "0",
        "interlin": -1.0
      },
      "geometry": {
        "type": "Point",
        "coordinates": [52.433316823397689, 29.823777664769732]
      }
    },
    {
      "type": "Feature",
      "properties": {
        "fid": 16.0,
        "handle": "2784",
        "block": "-1",
        "etype": "25",
        "space": "0",
        "layer": "Masahat",
        "olinetype": "BYLAYER",
        "linetype": null,
        "color": "byblock",
        "ocolor": "0",
        "color24": "-1",
        "transparen": "0",
        "lweight": "0",
        "linewidth": 0.0,
        "ltscale": 1.0,
        "visible": "1",
        "thickness": 0.0,
        "ext": "(3:0.1014852780926056,-0.0580825163961483,0.9931400503552144)",
        "height": 2.4,
        "text": "937.50",
        "angle": 297.81703,
        "widthscale": 1.0,
        "oblique": 0.0,
        "style": "STYLE2",
        "textgen": "0",
        "alignh": "0",
        "alignv": "0",
        "interlin": -1.0
      },
      "geometry": {
        "type": "Point",
        "coordinates": [52.433525565571962, 29.823707950663064]
      }
    },
    {
      "type": "Feature",
      "properties": {
        "fid": 17.0,
        "handle": "2785",
        "block": "-1",
        "etype": "25",
        "space": "0",
        "layer": "Masahat",
        "olinetype": "BYLAYER",
        "linetype": null,
        "color": "byblock",
        "ocolor": "0",
        "color24": "-1",
        "transparen": "0",
        "lweight": "0",
        "linewidth": 0.0,
        "ltscale": 1.0,
        "visible": "1",
        "thickness": 0.0,
        "ext": "(3:0.1014852780926056,-0.0580825163961483,0.9931400503552144)",
        "height": 2.4,
        "text": "1406.25",
        "angle": 297.81703,
        "widthscale": 1.0,
        "oblique": 0.0,
        "style": "STYLE2",
        "textgen": "0",
        "alignh": "0",
        "alignv": "0",
        "interlin": -1.0
      },
      "geometry": {
        "type": "Point",
        "coordinates": [52.433777986489922, 29.823586868715505]
      }
    },
    {
      "type": "Feature",
      "properties": {
        "fid": 18.0,
        "handle": "2811",
        "block": "-1",
        "etype": "25",
        "space": "0",
        "layer": "Masahat",
        "olinetype": "BYLAYER",
        "linetype": null,
        "color": "byblock",
        "ocolor": "0",
        "color24": "-1",
        "transparen": "0",
        "lweight": "0",
        "linewidth": 0.0,
        "ltscale": 1.0,
        "visible": "1",
        "thickness": 0.0,
        "ext": "(3:0.1014852780926056,-0.0580825163961483,0.9931400503552144)",
        "height": 2.4,
        "text": "1395",
        "angle": 297.81703,
        "widthscale": 1.0,
        "oblique": 0.0,
        "style": "STYLE2",
        "textgen": "0",
        "alignh": "0",
        "alignv": "0",
        "interlin": -1.0
      },
      "geometry": {
        "type": "Point",
        "coordinates": [52.433832642058483, 29.822642653104758]
      }
    },
    {
      "type": "Feature",
      "properties": {
        "fid": 19.0,
        "handle": "2812",
        "block": "-1",
        "etype": "25",
        "space": "0",
        "layer": "Masahat",
        "olinetype": "BYLAYER",
        "linetype": null,
        "color": "byblock",
        "ocolor": "0",
        "color24": "-1",
        "transparen": "0",
        "lweight": "0",
        "linewidth": 0.0,
        "ltscale": 1.0,
        "visible": "1",
        "thickness": 0.0,
        "ext": "(3:0.1014852780926056,-0.0580825163961483,0.9931400503552144)",
        "height": 2.4,
        "text": "1841.50",
        "angle": 297.81703,
        "widthscale": 1.0,
        "oblique": 0.0,
        "style": "STYLE2",
        "textgen": "0",
        "alignh": "0",
        "alignv": "0",
        "interlin": -1.0
      },
      "geometry": {
        "type": "Point",
        "coordinates": [52.434170690969054, 29.82381517931853]
      }
    },
    {
      "type": "Feature",
      "properties": {
        "fid": 20.0,
        "handle": "2814",
        "block": "-1",
        "etype": "25",
        "space": "0",
        "layer": "Masahat",
        "olinetype": "BYLAYER",
        "linetype": null,
        "color": "byblock",
        "ocolor": "0",
        "color24": "-1",
        "transparen": "0",
        "lweight": "0",
        "linewidth": 0.0,
        "ltscale": 1.0,
        "visible": "1",
        "thickness": 0.0,
        "ext": "(3:0.1014852780926056,-0.0580825163961483,0.9931400503552144)",
        "height": 2.4,
        "text": "1687.50",
        "angle": 297.81703,
        "widthscale": 1.0,
        "oblique": 0.0,
        "style": "STYLE2",
        "textgen": "0",
        "alignh": "0",
        "alignv": "0",
        "interlin": -1.0
      },
      "geometry": {
        "type": "Point",
        "coordinates": [52.433792733096482, 29.82396998050152]
      }
    },
    {
      "type": "Feature",
      "properties": {
        "fid": 21.0,
        "handle": "2818",
        "block": "-1",
        "etype": "25",
        "space": "0",
        "layer": "Masahat",
        "olinetype": "BYLAYER",
        "linetype": null,
        "color": "byblock",
        "ocolor": "0",
        "color24": "-1",
        "transparen": "0",
        "lweight": "0",
        "linewidth": 0.0,
        "ltscale": 1.0,
        "visible": "1",
        "thickness": 0.0,
        "ext": "(3:0.1014852780926056,-0.0580825163961483,0.9931400503552144)",
        "height": 2.4,
        "text": "1425.00",
        "angle": 297.81703,
        "widthscale": 1.0,
        "oblique": 0.0,
        "style": "STYLE2",
        "textgen": "0",
        "alignh": "0",
        "alignv": "0",
        "interlin": -1.0
      },
      "geometry": {
        "type": "Point",
        "coordinates": [52.433448104179739, 29.824097251168098]
      }
    },
    {
      "type": "Feature",
      "properties": {
        "fid": 22.0,
        "handle": "2819",
        "block": "-1",
        "etype": "25",
        "space": "0",
        "layer": "Masahat",
        "olinetype": "BYLAYER",
        "linetype": null,
        "color": "byblock",
        "ocolor": "0",
        "color24": "-1",
        "transparen": "0",
        "lweight": "0",
        "linewidth": 0.0,
        "ltscale": 1.0,
        "visible": "1",
        "thickness": 0.0,
        "ext": "(3:0.1014852780926056,-0.0580825163961483,0.9931400503552144)",
        "height": 2.4,
        "text": "1185.42",
        "angle": 297.81703,
        "widthscale": 1.0,
        "oblique": 0.0,
        "style": "STYLE2",
        "textgen": "0",
        "alignh": "0",
        "alignv": "0",
        "interlin": -1.0
      },
      "geometry": {
        "type": "Point",
        "coordinates": [52.4331557844353, 29.824205538527508]
      }
    },
    {
      "type": "Feature",
      "properties": {
        "fid": 24.0,
        "handle": "2836",
        "block": "-1",
        "etype": "25",
        "space": "0",
        "layer": "Masahat",
        "olinetype": "BYLAYER",
        "linetype": null,
        "color": "byblock",
        "ocolor": "0",
        "color24": "-1",
        "transparen": "0",
        "lweight": "0",
        "linewidth": 0.0,
        "ltscale": 1.0,
        "visible": "1",
        "thickness": 0.0,
        "ext": "(3:0.1014852780926056,-0.0580825163961483,0.9931400503552144)",
        "height": 2.4,
        "text": "1073",
        "angle": 297.81703,
        "widthscale": 1.0,
        "oblique": 0.0,
        "style": "STYLE2",
        "textgen": "0",
        "alignh": "0",
        "alignv": "0",
        "interlin": -1.0
      },
      "geometry": {
        "type": "Point",
        "coordinates": [52.433610105771429, 29.822738787907639]
      }
    },
    {
      "type": "Feature",
      "properties": {
        "fid": 25.0,
        "handle": "2839",
        "block": "-1",
        "etype": "25",
        "space": "0",
        "layer": "Masahat",
        "olinetype": "BYLAYER",
        "linetype": null,
        "color": "byblock",
        "ocolor": "0",
        "color24": "-1",
        "transparen": "0",
        "lweight": "0",
        "linewidth": 0.0,
        "ltscale": 1.0,
        "visible": "1",
        "thickness": 0.0,
        "ext": "(3:0.1014852780926056,-0.0580825163961483,0.9931400503552144)",
        "height": 2.4,
        "text": "1138",
        "angle": 297.81703,
        "widthscale": 1.0,
        "oblique": 0.0,
        "style": "STYLE2",
        "textgen": "0",
        "alignh": "0",
        "alignv": "0",
        "interlin": -1.0
      },
      "geometry": {
        "type": "Point",
        "coordinates": [52.433340206421576, 29.822886075560561]
      }
    },
    {
      "type": "Feature",
      "properties": {
        "fid": 52.0,
        "handle": "3025",
        "block": "-1",
        "etype": "25",
        "space": "0",
        "layer": "Masahat",
        "olinetype": "BYLAYER",
        "linetype": null,
        "color": "byblock",
        "ocolor": "0",
        "color24": "-1",
        "transparen": "0",
        "lweight": "0",
        "linewidth": 0.0,
        "ltscale": 1.0,
        "visible": "1",
        "thickness": 0.0,
        "ext": "(3:0.1014852780926056,-0.0580825163961483,0.9931400503552144)",
        "height": 2.4,
        "text": "912.00",
        "angle": 297.81703,
        "widthscale": 1.0,
        "oblique": 0.0,
        "style": "STYLE2",
        "textgen": "0",
        "alignh": "0",
        "alignv": "0",
        "interlin": -1.0
      },
      "geometry": {
        "type": "Point",
        "coordinates": [52.435595032155128, 29.82597553434568]
      }
    },
    {
      "type": "Feature",
      "properties": {
        "fid": 53.0,
        "handle": "3026",
        "block": "-1",
        "etype": "25",
        "space": "0",
        "layer": "Masahat",
        "olinetype": "BYLAYER",
        "linetype": null,
        "color": "byblock",
        "ocolor": "0",
        "color24": "-1",
        "transparen": "0",
        "lweight": "0",
        "linewidth": 0.0,
        "ltscale": 1.0,
        "visible": "1",
        "thickness": 0.0,
        "ext": "(3:0.1014852780926056,-0.0580825163961483,0.9931400503552144)",
        "height": 2.4,
        "text": "890.28",
        "angle": 297.81703,
        "widthscale": 1.0,
        "oblique": 0.0,
        "style": "STYLE2",
        "textgen": "0",
        "alignh": "0",
        "alignv": "0",
        "interlin": -1.0
      },
      "geometry": {
        "type": "Point",
        "coordinates": [52.43540372840971, 29.82608100326329]
      }
    },
    {
      "type": "Feature",
      "properties": {
        "fid": 54.0,
        "handle": "3027",
        "block": "-1",
        "etype": "25",
        "space": "0",
        "layer": "Masahat",
        "olinetype": "BYLAYER",
        "linetype": null,
        "color": "byblock",
        "ocolor": "0",
        "color24": "-1",
        "transparen": "0",
        "lweight": "0",
        "linewidth": 0.0,
        "ltscale": 1.0,
        "visible": "1",
        "thickness": 0.0,
        "ext": "(3:0.1014852780926056,-0.0580825163961483,0.9931400503552144)",
        "height": 2.4,
        "text": "843.62",
        "angle": 297.81703,
        "widthscale": 1.0,
        "oblique": 0.0,
        "style": "STYLE2",
        "textgen": "0",
        "alignh": "0",
        "alignv": "0",
        "interlin": -1.0
      },
      "geometry": {
        "type": "Point",
        "coordinates": [52.435247478949165, 29.826189564141728]
      }
    },
    {
      "type": "Feature",
      "properties": {
        "fid": 55.0,
        "handle": "3028",
        "block": "-1",
        "etype": "25",
        "space": "0",
        "layer": "Masahat",
        "olinetype": "BYLAYER",
        "linetype": null,
        "color": "byblock",
        "ocolor": "0",
        "color24": "-1",
        "transparen": "0",
        "lweight": "0",
        "linewidth": 0.0,
        "ltscale": 1.0,
        "visible": "1",
        "thickness": 0.0,
        "ext": "(3:0.1014852780926056,-0.0580825163961483,0.9931400503552144)",
        "height": 2.4,
        "text": "796.96",
        "angle": 297.81703,
        "widthscale": 1.0,
        "oblique": 0.0,
        "style": "STYLE2",
        "textgen": "0",
        "alignh": "0",
        "alignv": "0",
        "interlin": -1.0
      },
      "geometry": {
        "type": "Point",
        "coordinates": [52.435094333062231, 29.826270523359824]
      }
    },
    {
      "type": "Feature",
      "properties": {
        "fid": 56.0,
        "handle": "3029",
        "block": "-1",
        "etype": "25",
        "space": "0",
        "layer": "Masahat",
        "olinetype": "BYLAYER",
        "linetype": null,
        "color": "byblock",
        "ocolor": "0",
        "color24": "-1",
        "transparen": "0",
        "lweight": "0",
        "linewidth": 0.0,
        "ltscale": 1.0,
        "visible": "1",
        "thickness": 0.0,
        "ext": "(3:0.1014852780926056,-0.0580825163961483,0.9931400503552144)",
        "height": 2.4,
        "text": "750.30",
        "angle": 297.81703,
        "widthscale": 1.0,
        "oblique": 0.0,
        "style": "STYLE2",
        "textgen": "0",
        "alignh": "0",
        "alignv": "0",
        "interlin": -1.0
      },
      "geometry": {
        "type": "Point",
        "coordinates": [52.434936269192448, 29.826366727800917]
      }
    },
    {
      "type": "Feature",
      "properties": {
        "fid": 57.0,
        "handle": "3030",
        "block": "-1",
        "etype": "25",
        "space": "0",
        "layer": "Masahat",
        "olinetype": "BYLAYER",
        "linetype": null,
        "color": "byblock",
        "ocolor": "0",
        "color24": "-1",
        "transparen": "0",
        "lweight": "0",
        "linewidth": 0.0,
        "ltscale": 1.0,
        "visible": "1",
        "thickness": 0.0,
        "ext": "(3:0.1014852780926056,-0.0580825163961483,0.9931400503552144)",
        "height": 2.4,
        "text": "703.64",
        "angle": 297.81703,
        "widthscale": 1.0,
        "oblique": 0.0,
        "style": "STYLE2",
        "textgen": "0",
        "alignh": "0",
        "alignv": "0",
        "interlin": -1.0
      },
      "geometry": {
        "type": "Point",
        "coordinates": [52.43477941145435, 29.826445594965154]
      }
    },
    {
      "type": "Feature",
      "properties": {
        "fid": 58.0,
        "handle": "3031",
        "block": "-1",
        "etype": "25",
        "space": "0",
        "layer": "Masahat",
        "olinetype": "BYLAYER",
        "linetype": null,
        "color": "byblock",
        "ocolor": "0",
        "color24": "-1",
        "transparen": "0",
        "lweight": "0",
        "linewidth": 0.0,
        "ltscale": 1.0,
        "visible": "1",
        "thickness": 0.0,
        "ext": "(3:0.1014852780926056,-0.0580825163961483,0.9931400503552144)",
        "height": 2.4,
        "text": "565.72",
        "angle": 297.81703,
        "widthscale": 1.0,
        "oblique": 0.0,
        "style": "STYLE2",
        "textgen": "0",
        "alignh": "0",
        "alignv": "0",
        "interlin": -1.0
      },
      "geometry": {
        "type": "Point",
        "coordinates": [52.43455809446035, 29.826534027065129]
      }
    },
    {
      "type": "Feature",
      "properties": {
        "fid": 59.0,
        "handle": "3044",
        "block": "-1",
        "etype": "25",
        "space": "0",
        "layer": "Masahat",
        "olinetype": "BYLAYER",
        "linetype": null,
        "color": "byblock",
        "ocolor": "0",
        "color24": "-1",
        "transparen": "0",
        "lweight": "0",
        "linewidth": 0.0,
        "ltscale": 1.0,
        "visible": "1",
        "thickness": 0.0,
        "ext": "(3:0.1014852780926056,-0.0580825163961483,0.9931400503552144)",
        "height": 2.4,
        "text": "1078.2",
        "angle": 297.81703,
        "widthscale": 1.0,
        "oblique": 0.0,
        "style": "STYLE2",
        "textgen": "0",
        "alignh": "0",
        "alignv": "0",
        "interlin": -1.0
      },
      "geometry": {
        "type": "Point",
        "coordinates": [52.434992813369306, 29.825260208618783]
      }
    },
    {
      "type": "Feature",
      "properties": {
        "fid": 60.0,
        "handle": "3045",
        "block": "-1",
        "etype": "25",
        "space": "0",
        "layer": "Masahat",
        "olinetype": "BYLAYER",
        "linetype": null,
        "color": "byblock",
        "ocolor": "0",
        "color24": "-1",
        "transparen": "0",
        "lweight": "0",
        "linewidth": 0.0,
        "ltscale": 1.0,
        "visible": "1",
        "thickness": 0.0,
        "ext": "(3:0.1014852780926056,-0.0580825163961483,0.9931400503552144)",
        "height": 2.4,
        "text": "1000",
        "angle": 297.81703,
        "widthscale": 1.0,
        "oblique": 0.0,
        "style": "STYLE2",
        "textgen": "0",
        "alignh": "0",
        "alignv": "0",
        "interlin": -1.0
      },
      "geometry": {
        "type": "Point",
        "coordinates": [52.434537064125891, 29.825537091982099]
      }
    },
    {
      "type": "Feature",
      "properties": {
        "fid": 61.0,
        "handle": "3046",
        "block": "-1",
        "etype": "25",
        "space": "0",
        "layer": "Masahat",
        "olinetype": "BYLAYER",
        "linetype": null,
        "color": "byblock",
        "ocolor": "0",
        "color24": "-1",
        "transparen": "0",
        "lweight": "0",
        "linewidth": 0.0,
        "ltscale": 1.0,
        "visible": "1",
        "thickness": 0.0,
        "ext": "(3:0.1014852780926056,-0.0580825163961483,0.9931400503552144)",
        "height": 2.4,
        "text": "1000",
        "angle": 297.81703,
        "widthscale": 1.0,
        "oblique": 0.0,
        "style": "STYLE2",
        "textgen": "0",
        "alignh": "0",
        "alignv": "0",
        "interlin": -1.0
      },
      "geometry": {
        "type": "Point",
        "coordinates": [52.4346980031942, 29.825462375214702]
      }
    },
    {
      "type": "Feature",
      "properties": {
        "fid": 62.0,
        "handle": "3047",
        "block": "-1",
        "etype": "25",
        "space": "0",
        "layer": "Masahat",
        "olinetype": "BYLAYER",
        "linetype": null,
        "color": "byblock",
        "ocolor": "0",
        "color24": "-1",
        "transparen": "0",
        "lweight": "0",
        "linewidth": 0.0,
        "ltscale": 1.0,
        "visible": "1",
        "thickness": 0.0,
        "ext": "(3:0.1014852780926056,-0.0580825163961483,0.9931400503552144)",
        "height": 2.4,
        "text": "1000",
        "angle": 297.81703,
        "widthscale": 1.0,
        "oblique": 0.0,
        "style": "STYLE2",
        "textgen": "0",
        "alignh": "0",
        "alignv": "0",
        "interlin": -1.0
      },
      "geometry": {
        "type": "Point",
        "coordinates": [52.43484437777915, 29.825362995147465]
      }
    },
    {
      "type": "Feature",
      "properties": {
        "fid": 63.0,
        "handle": "3048",
        "block": "-1",
        "etype": "25",
        "space": "0",
        "layer": "Masahat",
        "olinetype": "BYLAYER",
        "linetype": null,
        "color": "byblock",
        "ocolor": "0",
        "color24": "-1",
        "transparen": "0",
        "lweight": "0",
        "linewidth": 0.0,
        "ltscale": 1.0,
        "visible": "1",
        "thickness": 0.0,
        "ext": "(3:0.1014852780926056,-0.0580825163961483,0.9931400503552144)",
        "height": 2.4,
        "text": "1000",
        "angle": 297.81703,
        "widthscale": 1.0,
        "oblique": 0.0,
        "style": "STYLE2",
        "textgen": "0",
        "alignh": "0",
        "alignv": "0",
        "interlin": -1.0
      },
      "geometry": {
        "type": "Point",
        "coordinates": [52.434953435080374, 29.825841704736032]
      }
    },
    {
      "type": "Feature",
      "properties": {
        "fid": 64.0,
        "handle": "3049",
        "block": "-1",
        "etype": "25",
        "space": "0",
        "layer": "Masahat",
        "olinetype": "BYLAYER",
        "linetype": null,
        "color": "byblock",
        "ocolor": "0",
        "color24": "-1",
        "transparen": "0",
        "lweight": "0",
        "linewidth": 0.0,
        "ltscale": 1.0,
        "visible": "1",
        "thickness": 0.0,
        "ext": "(3:0.1014852780926056,-0.0580825163961483,0.9931400503552144)",
        "height": 2.4,
        "text": "1000",
        "angle": 297.81703,
        "widthscale": 1.0,
        "oblique": 0.0,
        "style": "STYLE2",
        "textgen": "0",
        "alignh": "0",
        "alignv": "0",
        "interlin": -1.0
      },
      "geometry": {
        "type": "Point",
        "coordinates": [52.43479846440637, 29.8259357173091]
      }
    },
    {
      "type": "Feature",
      "properties": {
        "fid": 65.0,
        "handle": "3050",
        "block": "-1",
        "etype": "25",
        "space": "0",
        "layer": "Masahat",
        "olinetype": "BYLAYER",
        "linetype": null,
        "color": "byblock",
        "ocolor": "0",
        "color24": "-1",
        "transparen": "0",
        "lweight": "0",
        "linewidth": 0.0,
        "ltscale": 1.0,
        "visible": "1",
        "thickness": 0.0,
        "ext": "(3:0.1014852780926056,-0.0580825163961483,0.9931400503552144)",
        "height": 2.4,
        "text": "1000",
        "angle": 297.81703,
        "widthscale": 1.0,
        "oblique": 0.0,
        "style": "STYLE2",
        "textgen": "0",
        "alignh": "0",
        "alignv": "0",
        "interlin": -1.0
      },
      "geometry": {
        "type": "Point",
        "coordinates": [52.434660544289237, 29.826031989291547]
      }
    },
    {
      "type": "Feature",
      "properties": {
        "fid": 66.0,
        "handle": "3051",
        "block": "-1",
        "etype": "25",
        "space": "0",
        "layer": "Masahat",
        "olinetype": "BYLAYER",
        "linetype": null,
        "color": "byblock",
        "ocolor": "0",
        "color24": "-1",
        "transparen": "0",
        "lweight": "0",
        "linewidth": 0.0,
        "ltscale": 1.0,
        "visible": "1",
        "thickness": 0.0,
        "ext": "(3:0.1014852780926056,-0.0580825163961483,0.9931400503552144)",
        "height": 2.4,
        "text": "1000",
        "angle": 297.81703,
        "widthscale": 1.0,
        "oblique": 0.0,
        "style": "STYLE2",
        "textgen": "0",
        "alignh": "0",
        "alignv": "0",
        "interlin": -1.0
      },
      "geometry": {
        "type": "Point",
        "coordinates": [52.434509440678774, 29.826135573469465]
      }
    },
    {
      "type": "Feature",
      "properties": {
        "fid": 67.0,
        "handle": "3052",
        "block": "-1",
        "etype": "25",
        "space": "0",
        "layer": "Masahat",
        "olinetype": "BYLAYER",
        "linetype": null,
        "color": "byblock",
        "ocolor": "0",
        "color24": "-1",
        "transparen": "0",
        "lweight": "0",
        "linewidth": 0.0,
        "ltscale": 1.0,
        "visible": "1",
        "thickness": 0.0,
        "ext": "(3:0.1014852780926056,-0.0580825163961483,0.9931400503552144)",
        "height": 2.4,
        "text": "1000",
        "angle": 297.81703,
        "widthscale": 1.0,
        "oblique": 0.0,
        "style": "STYLE2",
        "textgen": "0",
        "alignh": "0",
        "alignv": "0",
        "interlin": -1.0
      },
      "geometry": {
        "type": "Point",
        "coordinates": [52.434392694374473, 29.825639744950148]
      }
    },
    {
      "type": "Feature",
      "properties": {
        "fid": 68.0,
        "handle": "3053",
        "block": "-1",
        "etype": "25",
        "space": "0",
        "layer": "Masahat",
        "olinetype": "BYLAYER",
        "linetype": null,
        "color": "byblock",
        "ocolor": "0",
        "color24": "-1",
        "transparen": "0",
        "lweight": "0",
        "linewidth": 0.0,
        "ltscale": 1.0,
        "visible": "1",
        "thickness": 0.0,
        "ext": "(3:0.1014852780926056,-0.0580825163961483,0.9931400503552144)",
        "height": 2.4,
        "text": "1000",
        "angle": 297.81703,
        "widthscale": 1.0,
        "oblique": 0.0,
        "style": "STYLE2",
        "textgen": "0",
        "alignh": "0",
        "alignv": "0",
        "interlin": -1.0
      },
      "geometry": {
        "type": "Point",
        "coordinates": [52.43423976937418, 29.825730418989515]
      }
    },
    {
      "type": "Feature",
      "properties": {
        "fid": 69.0,
        "handle": "3054",
        "block": "-1",
        "etype": "25",
        "space": "0",
        "layer": "Masahat",
        "olinetype": "BYLAYER",
        "linetype": null,
        "color": "byblock",
        "ocolor": "0",
        "color24": "-1",
        "transparen": "0",
        "lweight": "0",
        "linewidth": 0.0,
        "ltscale": 1.0,
        "visible": "1",
        "thickness": 0.0,
        "ext": "(3:0.1014852780926056,-0.0580825163961483,0.9931400503552144)",
        "height": 2.4,
        "text": "900.5",
        "angle": 297.81703,
        "widthscale": 1.0,
        "oblique": 0.0,
        "style": "STYLE2",
        "textgen": "0",
        "alignh": "0",
        "alignv": "0",
        "interlin": -1.0
      },
      "geometry": {
        "type": "Point",
        "coordinates": [52.434094908078563, 29.825825746718756]
      }
    },
    {
      "type": "Feature",
      "properties": {
        "fid": 70.0,
        "handle": "3055",
        "block": "-1",
        "etype": "25",
        "space": "0",
        "layer": "Masahat",
        "olinetype": "BYLAYER",
        "linetype": null,
        "color": "byblock",
        "ocolor": "0",
        "color24": "-1",
        "transparen": "0",
        "lweight": "0",
        "linewidth": 0.0,
        "ltscale": 1.0,
        "visible": "1",
        "thickness": 0.0,
        "ext": "(3:0.1014852780926056,-0.0580825163961483,0.9931400503552144)",
        "height": 2.4,
        "text": "921.6",
        "angle": 297.81703,
        "widthscale": 1.0,
        "oblique": 0.0,
        "style": "STYLE2",
        "textgen": "0",
        "alignh": "0",
        "alignv": "0",
        "interlin": -1.0
      },
      "geometry": {
        "type": "Point",
        "coordinates": [52.434361460955564, 29.826235431473343]
      }
    },
    {
      "type": "Feature",
      "properties": {
        "fid": 71.0,
        "handle": "3142",
        "block": "-1",
        "etype": "25",
        "space": "0",
        "layer": "Masahat",
        "olinetype": "BYLAYER",
        "linetype": null,
        "color": "byblock",
        "ocolor": "0",
        "color24": "-1",
        "transparen": "0",
        "lweight": "0",
        "linewidth": 0.0,
        "ltscale": 1.0,
        "visible": "1",
        "thickness": 0.0,
        "ext": "(3:0.1014852780926056,-0.0580825163961483,0.9931400503552144)",
        "height": 2.4,
        "text": "935.36",
        "angle": 297.81703,
        "widthscale": 1.0,
        "oblique": 0.0,
        "style": "STYLE2",
        "textgen": "0",
        "alignh": "0",
        "alignv": "0",
        "interlin": -1.0
      },
      "geometry": {
        "type": "Point",
        "coordinates": [52.43437627367588, 29.824197183850856]
      }
    },
    {
      "type": "Feature",
      "properties": {
        "fid": 72.0,
        "handle": "3149",
        "block": "-1",
        "etype": "25",
        "space": "0",
        "layer": "Masahat",
        "olinetype": "BYLAYER",
        "linetype": null,
        "color": "byblock",
        "ocolor": "0",
        "color24": "-1",
        "transparen": "0",
        "lweight": "0",
        "linewidth": 0.0,
        "ltscale": 1.0,
        "visible": "1",
        "thickness": 0.0,
        "ext": "(3:0.1014852780926056,-0.0580825163961483,0.9931400503552144)",
        "height": 2.4,
        "text": "816.07",
        "angle": 297.81703,
        "widthscale": 1.0,
        "oblique": 0.0,
        "style": "STYLE2",
        "textgen": "0",
        "alignh": "0",
        "alignv": "0",
        "interlin": -1.0
      },
      "geometry": {
        "type": "Point",
        "coordinates": [52.434495041647722, 29.824549052030669]
      }
    },
    {
      "type": "Feature",
      "properties": {
        "fid": 73.0,
        "handle": "3150",
        "block": "-1",
        "etype": "25",
        "space": "0",
        "layer": "Masahat",
        "olinetype": "BYLAYER",
        "linetype": null,
        "color": "byblock",
        "ocolor": "0",
        "color24": "-1",
        "transparen": "0",
        "lweight": "0",
        "linewidth": 0.0,
        "ltscale": 1.0,
        "visible": "1",
        "thickness": 0.0,
        "ext": "(3:0.1014852780926056,-0.0580825163961483,0.9931400503552144)",
        "height": 2.4,
        "text": "838.27",
        "angle": 297.81703,
        "widthscale": 1.0,
        "oblique": 0.0,
        "style": "STYLE2",
        "textgen": "0",
        "alignh": "0",
        "alignv": "0",
        "interlin": -1.0
      },
      "geometry": {
        "type": "Point",
        "coordinates": [52.434285108420667, 29.824670782202944]
      }
    },
    {
      "type": "Feature",
      "properties": {
        "fid": 74.0,
        "handle": "3151",
        "block": "-1",
        "etype": "25",
        "space": "0",
        "layer": "Masahat",
        "olinetype": "BYLAYER",
        "linetype": null,
        "color": "byblock",
        "ocolor": "0",
        "color24": "-1",
        "transparen": "0",
        "lweight": "0",
        "linewidth": 0.0,
        "ltscale": 1.0,
        "visible": "1",
        "thickness": 0.0,
        "ext": "(3:0.1014852780926056,-0.0580825163961483,0.9931400503552144)",
        "height": 2.4,
        "text": "839.28",
        "angle": 297.81703,
        "widthscale": 1.0,
        "oblique": 0.0,
        "style": "STYLE2",
        "textgen": "0",
        "alignh": "0",
        "alignv": "0",
        "interlin": -1.0
      },
      "geometry": {
        "type": "Point",
        "coordinates": [52.43408996041849, 29.824792546378948]
      }
    },
    {
      "type": "Feature",
      "properties": {
        "fid": 75.0,
        "handle": "3152",
        "block": "-1",
        "etype": "25",
        "space": "0",
        "layer": "Masahat",
        "olinetype": "BYLAYER",
        "linetype": null,
        "color": "byblock",
        "ocolor": "0",
        "color24": "-1",
        "transparen": "0",
        "lweight": "0",
        "linewidth": 0.0,
        "ltscale": 1.0,
        "visible": "1",
        "thickness": 0.0,
        "ext": "(3:0.1014852780926056,-0.0580825163961483,0.9931400503552144)",
        "height": 2.4,
        "text": "863.30",
        "angle": 297.81703,
        "widthscale": 1.0,
        "oblique": 0.0,
        "style": "STYLE2",
        "textgen": "0",
        "alignh": "0",
        "alignv": "0",
        "interlin": -1.0
      },
      "geometry": {
        "type": "Point",
        "coordinates": [52.433909191323337, 29.824888958730046]
      }
    },
    {
      "type": "Feature",
      "properties": {
        "fid": 76.0,
        "handle": "3153",
        "block": "-1",
        "etype": "25",
        "space": "0",
        "layer": "Masahat",
        "olinetype": "BYLAYER",
        "linetype": null,
        "color": "byblock",
        "ocolor": "0",
        "color24": "-1",
        "transparen": "0",
        "lweight": "0",
        "linewidth": 0.0,
        "ltscale": 1.0,
        "visible": "1",
        "thickness": 0.0,
        "ext": "(3:0.1014852780926056,-0.0580825163961483,0.9931400503552144)",
        "height": 2.4,
        "text": "879.79",
        "angle": 297.81703,
        "widthscale": 1.0,
        "oblique": 0.0,
        "style": "STYLE2",
        "textgen": "0",
        "alignh": "0",
        "alignv": "0",
        "interlin": -1.0
      },
      "geometry": {
        "type": "Point",
        "coordinates": [52.433721882453042, 29.824995348361817]
      }
    },
    {
      "type": "Feature",
      "properties": {
        "fid": 77.0,
        "handle": "3154",
        "block": "-1",
        "etype": "25",
        "space": "0",
        "layer": "Masahat",
        "olinetype": "BYLAYER",
        "linetype": null,
        "color": "byblock",
        "ocolor": "0",
        "color24": "-1",
        "transparen": "0",
        "lweight": "0",
        "linewidth": 0.0,
        "ltscale": 1.0,
        "visible": "1",
        "thickness": 0.0,
        "ext": "(3:0.1014852780926056,-0.0580825163961483,0.9931400503552144)",
        "height": 2.4,
        "text": "833.78",
        "angle": 297.81703,
        "widthscale": 1.0,
        "oblique": 0.0,
        "style": "STYLE2",
        "textgen": "0",
        "alignh": "0",
        "alignv": "0",
        "interlin": -1.0
      },
      "geometry": {
        "type": "Point",
        "coordinates": [52.433579081964403, 29.825094437678985]
      }
    },
    {
      "type": "Feature",
      "properties": {
        "fid": 78.0,
        "handle": "3155",
        "block": "-1",
        "etype": "25",
        "space": "0",
        "layer": "Masahat",
        "olinetype": "BYLAYER",
        "linetype": null,
        "color": "byblock",
        "ocolor": "0",
        "color24": "-1",
        "transparen": "0",
        "lweight": "0",
        "linewidth": 0.0,
        "ltscale": 1.0,
        "visible": "1",
        "thickness": 0.0,
        "ext": "(3:0.1014852780926056,-0.0580825163961483,0.9931400503552144)",
        "height": 2.4,
        "text": "759.12",
        "angle": 297.81703,
        "widthscale": 1.0,
        "oblique": 0.0,
        "style": "STYLE2",
        "textgen": "0",
        "alignh": "0",
        "alignv": "0",
        "interlin": -1.0
      },
      "geometry": {
        "type": "Point",
        "coordinates": [52.43460817101807, 29.824763842884337]
      }
    },
    {
      "type": "Feature",
      "properties": {
        "fid": 79.0,
        "handle": "3156",
        "block": "-1",
        "etype": "25",
        "space": "0",
        "layer": "Masahat",
        "olinetype": "BYLAYER",
        "linetype": null,
        "color": "byblock",
        "ocolor": "0",
        "color24": "-1",
        "transparen": "0",
        "lweight": "0",
        "linewidth": 0.0,
        "ltscale": 1.0,
        "visible": "1",
        "thickness": 0.0,
        "ext": "(3:0.1014852780926056,-0.0580825163961483,0.9931400503552144)",
        "height": 2.4,
        "text": "806.00",
        "angle": 297.81703,
        "widthscale": 1.0,
        "oblique": 0.0,
        "style": "STYLE2",
        "textgen": "0",
        "alignh": "0",
        "alignv": "0",
        "interlin": -1.0
      },
      "geometry": {
        "type": "Point",
        "coordinates": [52.434448371965985, 29.824902564763978]
      }
    },
    {
      "type": "Feature",
      "properties": {
        "fid": 80.0,
        "handle": "3157",
        "block": "-1",
        "etype": "25",
        "space": "0",
        "layer": "Masahat",
        "olinetype": "BYLAYER",
        "linetype": null,
        "color": "byblock",
        "ocolor": "0",
        "color24": "-1",
        "transparen": "0",
        "lweight": "0",
        "linewidth": 0.0,
        "ltscale": 1.0,
        "visible": "1",
        "thickness": 0.0,
        "ext": "(3:0.1014852780926056,-0.0580825163961483,0.9931400503552144)",
        "height": 2.4,
        "text": "806.00",
        "angle": 297.81703,
        "widthscale": 1.0,
        "oblique": 0.0,
        "style": "STYLE2",
        "textgen": "0",
        "alignh": "0",
        "alignv": "0",
        "interlin": -1.0
      },
      "geometry": {
        "type": "Point",
        "coordinates": [52.434254340826442, 29.825030821299841]
      }
    },
    {
      "type": "Feature",
      "properties": {
        "fid": 81.0,
        "handle": "3158",
        "block": "-1",
        "etype": "25",
        "space": "0",
        "layer": "Masahat",
        "olinetype": "BYLAYER",
        "linetype": null,
        "color": "byblock",
        "ocolor": "0",
        "color24": "-1",
        "transparen": "0",
        "lweight": "0",
        "linewidth": 0.0,
        "ltscale": 1.0,
        "visible": "1",
        "thickness": 0.0,
        "ext": "(3:0.1014852780926056,-0.0580825163961483,0.9931400503552144)",
        "height": 2.4,
        "text": "806.00",
        "angle": 297.81703,
        "widthscale": 1.0,
        "oblique": 0.0,
        "style": "STYLE2",
        "textgen": "0",
        "alignh": "0",
        "alignv": "0",
        "interlin": -1.0
      },
      "geometry": {
        "type": "Point",
        "coordinates": [52.434081831607514, 29.825155610851812]
      }
    },
    {
      "type": "Feature",
      "properties": {
        "fid": 82.0,
        "handle": "3159",
        "block": "-1",
        "etype": "25",
        "space": "0",
        "layer": "Masahat",
        "olinetype": "BYLAYER",
        "linetype": null,
        "color": "byblock",
        "ocolor": "0",
        "color24": "-1",
        "transparen": "0",
        "lweight": "0",
        "linewidth": 0.0,
        "ltscale": 1.0,
        "visible": "1",
        "thickness": 0.0,
        "ext": "(3:0.1014852780926056,-0.0580825163961483,0.9931400503552144)",
        "height": 2.4,
        "text": "1251.27",
        "angle": 297.81703,
        "widthscale": 1.0,
        "oblique": 0.0,
        "style": "STYLE2",
        "textgen": "0",
        "alignh": "0",
        "alignv": "0",
        "interlin": -1.0
      },
      "geometry": {
        "type": "Point",
        "coordinates": [52.433822035980285, 29.825321004484209]
      }
    },
    {
      "type": "Feature",
      "properties": {
        "fid": 83.0,
        "handle": "3241",
        "block": "-1",
        "etype": "25",
        "space": "0",
        "layer": "Masahat",
        "olinetype": "BYLAYER",
        "linetype": null,
        "color": "byblock",
        "ocolor": "0",
        "color24": "-1",
        "transparen": "0",
        "lweight": "0",
        "linewidth": 0.0,
        "ltscale": 1.0,
        "visible": "1",
        "thickness": 0.0,
        "ext": "(3:0.1014852780926056,-0.0580825163961483,0.9931400503552144)",
        "height": 2.4,
        "text": "791",
        "angle": 297.81703,
        "widthscale": 1.0,
        "oblique": 0.0,
        "style": "STYLE2",
        "textgen": "0",
        "alignh": "0",
        "alignv": "0",
        "interlin": -1.0
      },
      "geometry": {
        "type": "Point",
        "coordinates": [52.435235749688474, 29.825644184175761]
      }
    },
    {
      "type": "Feature",
      "properties": {
        "fid": 84.0,
        "handle": "3242",
        "block": "-1",
        "etype": "25",
        "space": "0",
        "layer": "Masahat",
        "olinetype": "BYLAYER",
        "linetype": null,
        "color": "byblock",
        "ocolor": "0",
        "color24": "-1",
        "transparen": "0",
        "lweight": "0",
        "linewidth": 0.0,
        "ltscale": 1.0,
        "visible": "1",
        "thickness": 0.0,
        "ext": "(3:0.1014852780926056,-0.0580825163961483,0.9931400503552144)",
        "height": 2.4,
        "text": "1000",
        "angle": 297.81703,
        "widthscale": 1.0,
        "oblique": 0.0,
        "style": "STYLE2",
        "textgen": "0",
        "alignh": "0",
        "alignv": "0",
        "interlin": -1.0
      },
      "geometry": {
        "type": "Point",
        "coordinates": [52.435103913792439, 29.825734989106213]
      }
    }
  ]
}
