{"type":"FeatureCollection","name":"3_2","crs":{"type":"name","properties":{"name":"urn:ogc:def:crs:OGC:1.3:CRS84"}},"features":[{"type":"Feature","properties":{"fid":2.0,"handle":"4288","block":"-1","etype":"18","space":"0","layer":"dadgostarifaz3","olinetype":"bylayer","linetype":null,"color":"0,0,0,159","ocolor":"256","color24":"-1","transparen":"0","lweight":"-1","linewidth":0.0,"ltscale":1.0,"visible":"1","width":0.0,"thickness":0.0,"ext":"(3:0,0,0.1)"},"geometry":{"type":"MultiLineString","coordinates":[[[52.420858519482906,29.830200789802397],[52.420265134039532,29.830459234015496],[52.419561612678514,29.830739034395542],[52.419029438927502,29.830677504245209],[52.419009230105992,29.830674673512412],[52.418989233213949,29.830670607337655],[52.418969523701882,29.830665321066586],[52.418950175941056,29.830658834643142],[52.418931262936887,29.830651172544091],[52.418912856051968,29.830642363679541],[52.418895024740493,29.830632441287438],[52.418877836284999,29.830621442809324],[52.418861355542255,29.830609409744255],[52.418698644296008,29.830480367386539],[52.418696376545412,29.830478539125824],[52.418694240416023,29.830476558675862],[52.418692246104904,29.830474435484572],[52.41869040312303,29.830472179682143],[52.418688720263155,29.830469802032891],[52.418687205559756,29.830467313880941],[52.418685866236039,29.830464727098839],[52.418684708685753,29.830462054028427],[52.41868373842771,29.830459307425368],[52.418682960096696,29.830456500393662],[52.41868237740163,29.830453646327438],[52.418681993125567,29.83045075884365],[52.418681809102047,29.830447851721143],[52.418681826207823,29.830444938829711],[52.418682044361042,29.830442034068252],[52.418682462523059,29.830439151297465],[52.418683078696624,29.83043630427073],[52.418683889942251,29.830433506574078],[52.41868489238913,29.830430771554344],[52.41868608125332,29.830428112263686],[52.418687450865029,29.830425541389555],[52.418688994686811,29.830423071199217],[52.418690705353576,29.830420713477903],[52.418692574701701,29.830418479475153],[52.418694593812681,29.830416379852064],[52.418696753053148,29.830414424625811],[52.418699042118526,29.830412623125081],[52.418701450089422,29.830410983946418],[52.418703965473703,29.830409514910123],[52.418706576272015,29.830408223026343],[52.418709270024671,29.830407114458833],[52.420493733069897,29.829584232573112],[52.420858472285722,29.830200806340233]]]}},{"type":"Feature","properties":{"fid":3.0,"handle":"5471","block":"-1","etype":"18","space":"0","layer":"dadgostarifaz3","olinetype":"bylayer","linetype":null,"color":"0,0,0,255","ocolor":"7","color24":"-1","transparen":"0","lweight":"0","linewidth":0.0,"ltscale":1.0,"visible":"1","width":0.0,"thickness":0.0,"ext":"(3:0,0,0.1)"},"geometry":{"type":"MultiLineString","coordinates":[[[52.421557147085203,29.831886176847654],[52.42132726103025,29.831552588755606]]]}},{"type":"Feature","properties":{"fid":4.0,"handle":"5472","block":"-1","etype":"18","space":"0","layer":"dadgostarifaz3","olinetype":"bylayer","linetype":null,"color":"0,0,0,255","ocolor":"7","color24":"-1","transparen":"0","lweight":"0","linewidth":0.0,"ltscale":1.0,"visible":"1","width":0.0,"thickness":0.0,"ext":"(3:0,0,0.1)"},"geometry":{"type":"MultiLineString","coordinates":[[[52.421379737964799,29.831979116418751],[52.4211483679845,29.831643374160979]]]}},{"type":"Feature","properties":{"fid":5.0,"handle":"9064","block":"-1","etype":"18","space":"0","layer":"dadgostarifaz3","olinetype":"bylayer","linetype":null,"color":"0,0,0,159","ocolor":"256","color24":"-1","transparen":"0","lweight":"-1","linewidth":0.0,"ltscale":1.0,"visible":"1","width":0.0,"thickness":0.0,"ext":"(3:0,0,0.1)"},"geometry":{"type":"MultiLineString","coordinates":[[[52.421350730796924,29.831994312407037],[52.420792638823499,29.831823899921282],[52.421600150804132,29.831414100718195],[52.421690927153726,29.831816093023267],[52.421350730796924,29.831994312407037]]]}},{"type":"Feature","properties":{"fid":6.0,"handle":"9065","block":"-1","etype":"18","space":"0","layer":"dadgostarifaz3","olinetype":"bylayer","linetype":null,"color":"0,0,0,159","ocolor":"256","color24":"-1","transparen":"0","lweight":"-1","linewidth":0.0,"ltscale":1.0,"visible":"1","width":0.0,"thickness":0.0,"ext":"(3:0,0,0.1)"},"geometry":{"type":"MultiLineString","coordinates":[[[52.420174253324319,29.831875283053328],[52.41915575865243,29.831539950263],[52.416906634180172,29.832618638903753],[52.417056964662017,29.832847687205085],[52.418320573993256,29.832765779781788],[52.420174540717937,29.831875738125781]]]}},{"type":"Feature","properties":{"fid":7.0,"handle":"9066","block":"-1","etype":"18","space":"0","layer":"dadgostarifaz3","olinetype":"bylayer","linetype":null,"color":"0,0,0,159","ocolor":"256","color24":"-1","transparen":"0","lweight":"-1","linewidth":0.0,"ltscale":1.0,"visible":"1","width":0.0,"thickness":0.0,"ext":"(3:0,0,0.1)"},"geometry":{"type":"MultiLineString","coordinates":[[[52.418496083931316,29.831323394733825],[52.417468595794006,29.831009623260456],[52.416238383712646,29.831633883439629],[52.416666882405046,29.832251616282655],[52.418496083931323,29.831323394733825]]]}},{"type":"Feature","properties":{"fid":8.0,"handle":"9067","block":"-1","etype":"18","space":"0","layer":"dadgostarifaz3","olinetype":"bylayer","linetype":null,"color":"0,0,0,159","ocolor":"256","color24":"-1","transparen":"0","lweight":"-1","linewidth":0.0,"ltscale":1.0,"visible":"1","width":0.0,"thickness":0.0,"ext":"(3:0,0,0.1)"},"geometry":{"type":"MultiLineString","coordinates":[[[52.41678971419946,29.830765669650386],[52.415860287778223,29.831069019391052],[52.416169993820176,29.831515505231753],[52.417325331901949,29.83092923989852],[52.41678971419946,29.830765669650386]]]}},{"type":"Feature","properties":{"fid":9.0,"handle":"9068","block":"-1","etype":"18","space":"0","layer":"dadgostarifaz3","olinetype":"bylayer","linetype":null,"color":"0,0,0,159","ocolor":"256","color24":"-1","transparen":"0","lweight":"-1","linewidth":0.0,"ltscale":1.0,"visible":"1","width":0.0,"thickness":0.0,"ext":"(3:0,0,0.1)"},"geometry":{"type":"MultiLineString","coordinates":[[[52.418965144319252,29.832751293528272],[52.4204721583856,29.831986536270701],[52.421078088320371,29.832326131048191],[52.421029260551705,29.832387575026992],[52.420547958534073,29.832615039280498],[52.418965144319422,29.832751293528247]]]}},{"type":"Feature","properties":{"fid":10.0,"handle":"9070","block":"-1","etype":"18","space":"0","layer":"dadgostarifaz3","olinetype":"bylayer","linetype":null,"color":"0,0,0,159","ocolor":"256","color24":"-1","transparen":"0","lweight":"-1","linewidth":0.0,"ltscale":1.0,"visible":"1","width":0.0,"thickness":0.0,"ext":"(3:0,0,0.1)"},"geometry":{"type":"MultiLineString","coordinates":[[[52.420458700738173,29.831721931040992],[52.419431202991902,29.831408175193541],[52.421381474265075,29.830418453391587],[52.421461571862167,29.830795398223394],[52.421425950663988,29.831231069272434],[52.420459603835184,29.831721929123251]]]}},{"type":"Feature","properties":{"fid":11.0,"handle":"9072","block":"-1","etype":"18","space":"0","layer":"dadgostarifaz3","olinetype":"continuous","linetype":null,"color":"0,0,0,159","ocolor":"256","color24":"-1","transparen":"0","lweight":"30","linewidth":0.3,"ltscale":1.0,"visible":"1","width":0.0,"thickness":0.0,"ext":"(3:0,0,0.1)"},"geometry":{"type":"MultiLineString","coordinates":[[[52.418274327506133,29.830450376635689],[52.418275485189554,29.830453586906405],[52.418276425772845,29.830456867357935],[52.418277145052336,29.830460203329491],[52.418277639811997,29.830463579906787],[52.418277907841905,29.830466981998139],[52.418277947941526,29.830470394394975],[52.4182777599326,29.83047380184507],[52.418277344657319,29.830477189117115],[52.418276703971053,29.830480541068933],[52.41827584073507,29.830483842718419],[52.418274758811087,29.830487079307201],[52.418273463033977,29.830490236367037],[52.41827195919722,29.830493299786209],[52.418270254021984,29.830496255871363],[52.418268355129833,29.830499091408452],[52.418266271008171,29.830501793722757],[52.418264010975683,29.830504350736188],[52.418261585133216,29.830506751017307],[52.418259004323765,29.830508983836804],[52.418256280083362,29.830511039215704],[52.418253424589992,29.830512907964003],[52.418250450607559,29.830514581731112],[52.418247371429949,29.830516053033346],[52.417657823360784,29.830815222342437],[52.417209842509905,29.830678416455925],[52.418229580596005,29.830345576959168],[52.418274327506118,29.830450376635664]]]}},{"type":"Feature","properties":{"fid":12.0,"handle":"9074","block":"-1","etype":"18","space":"0","layer":"dadgostarifaz3","olinetype":"continuous","linetype":null,"color":"0,0,0,159","ocolor":"256","color24":"-1","transparen":"0","lweight":"30","linewidth":0.3,"ltscale":1.0,"visible":"1","width":0.0,"thickness":0.0,"ext":"(3:0,0,0.1)"},"geometry":{"type":"MultiLineString","coordinates":[[[52.419224787455164,29.830969040649062],[52.419226374826778,29.830968230951942],[52.419227904071953,29.830967316197967],[52.41922936824448,29.830966300539327],[52.41923076069542,29.830965188586557],[52.419232075108077,29.830963985388731],[52.419233305508889,29.830962696408275],[52.419234446317198,29.830961327496876],[52.41923549235252,29.830959884869113],[52.419236438863656,29.830958375075166],[52.419237281554153,29.830956804968988],[52.419238016600495,29.830955181679197],[52.419238640663018,29.83095351257543],[52.419239150909554,29.830951805235596],[52.419239545024531,29.830950067411319],[52.419239821216244,29.830948306990646],[52.419239978233229,29.830946531967125],[52.419240015360621,29.830944750399791],[52.419239932432895,29.830942970375869],[52.419239729822941,29.830941199978039],[52.419239408451169,29.830939447241686],[52.419238969778227,29.830937720126709],[52.41923841579591,29.830936026472042],[52.419237749018059,29.830934373968372],[52.419236972471474,29.830932770118121],[52.419236089683174,29.830931222200885],[52.419235104658576,29.830929737246148],[52.41923402187421,29.830928321995085],[52.41923284624135,29.830926982872366],[52.419231583098728,29.830925725958874],[52.419230238181619,29.830924556958959],[52.419228817594551,29.83092348118134],[52.419227327789478,29.830922503510006],[52.419225775529405,29.83092162838329],[52.419224167859277,29.830920859773865],[52.419222512080516,29.830920201172372],[52.419220815709188,29.83091965556741],[52.419219086445075,29.830919225436443],[52.419217332142573,29.830918912733065],[52.419215560764563,29.830918718875619],[52.419213780351512,29.8309186447451],[52.419211998989617,29.830918690679095],[52.419213780351505,29.8309186447451],[52.419215560764563,29.830918718875619],[52.419217332142573,29.830918912733065],[52.419219086445075,29.830919225436443],[52.419220815709188,29.83091965556741],[52.419222512080516,29.830920201172372],[52.419224167859277,29.830920859773865],[52.419225775529405,29.83092162838329],[52.419227327789478,29.830922503510006],[52.419228817594551,29.83092348118134],[52.419230238181619,29.830924556958959],[52.419231583098728,29.830925725958874],[52.41923284624135,29.830926982872366],[52.41923402187421,29.830928321995085],[52.419235104658576,29.830929737246148],[52.419236089683174,29.830931222200885],[52.419236972471474,29.830932770118121],[52.419237749018059,29.830934373968372],[52.41923841579591,29.830936026472042],[52.419238969778227,29.830937720126709],[52.419239408451169,29.830939447241686],[52.419239729822941,29.830941199978039],[52.419239932432895,29.830942970375869],[52.419240015360621,29.830944750399791],[52.419239978233229,29.830946531967125],[52.419239821216244,29.830948306990646],[52.419239545024531,29.830950067411319],[52.419239150909554,29.830951805235596],[52.419238640663018,29.83095351257543],[52.419238016600495,29.830955181679197],[52.419237281554153,29.830956804968988],[52.419236438863656,29.830958375075166],[52.41923549235252,29.830959884869113],[52.419234446317198,29.830961327496876],[52.419233305508889,29.830962696408275],[52.419232075108077,29.830963985388731],[52.41923076069542,29.830965188586557],[52.41922936824448,29.830966300539327],[52.419227904071953,29.830967316197967],[52.419226374826771,29.830968230951942],[52.419224787455185,29.830969040649062],[52.418801884355055,29.831183648813788],[52.417774396813812,29.830869879698007],[52.418341030048531,29.830582338200664],[52.418344813100816,29.830580610078073],[52.418348710425953,29.83057915792369],[52.418352701924952,29.830577989225272],[52.41835676700429,29.830577110010378],[52.418360884703354,29.830576524815111],[52.418365033783623,29.830576236656267],[52.418369192844686,29.830576247020868],[52.418373340437022,29.830576555855256],[52.418377455167494,29.830577161566904],[52.418381515815774,29.830578061031698],[52.418385501438017,29.830579249609396],[52.418389391477824,29.830580721171824],[52.418393165868501,29.830582468126973],[52.418396805149428,29.830584481465962],[52.418400290547908,29.830586750805864],[52.418396805149428,29.830584481465962],[52.418393165868501,29.830582468126973],[52.418389391477824,29.830580721171824],[52.418385501438017,29.830579249609396],[52.418381515815774,29.830578061031698],[52.418377455167494,29.830577161566904],[52.418373340437022,29.830576555855256],[52.418369192844686,29.830576247020868],[52.418365033783623,29.830576236656267],[52.418360884703354,29.830576524815111],[52.41835676700429,29.830577110010378],[52.418352701924952,29.830577989225272],[52.418348710425953,29.83057915792369],[52.418344813100816,29.830580610078073],[52.418341030048531,29.830582338200664]]]}},{"type":"Feature","properties":{"fid":13.0,"handle":"9076","block":"-1","etype":"18","space":"0","layer":"dadgostarifaz3","olinetype":"bylayer","linetype":null,"color":"0,0,0,159","ocolor":"256","color24":"-1","transparen":"0","lweight":"-1","linewidth":0.0,"ltscale":1.0,"visible":"1","width":0.0,"thickness":0.0,"ext":"(3:0,0,0.1)"},"geometry":{"type":"MultiLineString","coordinates":[[[52.418541836090434,29.83037705721733],[52.418537765374403,29.830379043555322],[52.418533567796082,29.830380745498147],[52.418529263199154,29.830382154999821],[52.418524871925904,29.830383265399174],[52.418520414734296,29.830384071446129],[52.418515912691866,29.830384569331724],[52.418511387080791,29.830384756703094],[52.418506859290567,29.830384632673482],[52.418502350723422,29.830384197829513],[52.418497882690637,29.830383454226645],[52.418493476308861,29.830382405380075],[52.418489152409158,29.830381056246548],[52.418484931429695,29.830379413204351],[52.418480833319329,29.830377484017841],[52.418476877448477,29.83037527780743],[52.418473082519988,29.830372805001385],[52.41846946646546,29.830370077286712],[52.418466046381575,29.830367107557318],[52.418462838431871,29.830363909850345],[52.418459857781265,29.830360499280683],[52.418457118516351,29.830356891968691],[52.418454633585988,29.830353104965607],[52.418452414737253,29.830349156171046],[52.418431147037474,29.83029934628113],[52.419170584220289,29.830057988546233],[52.418541836090526,29.830377057217369]]]}},{"type":"Feature","properties":{"fid":14.0,"handle":"9093","block":"-1","etype":"18","space":"0","layer":"dadgostarifaz3","olinetype":"bylayer","linetype":null,"color":"0,0,0,255","ocolor":"7","color24":"-1","transparen":"0","lweight":"0","linewidth":0.0,"ltscale":1.0,"visible":"1","width":0.0,"thickness":0.0,"ext":"(3:0,0,0.1)"},"geometry":{"type":"MultiLineString","coordinates":[[[52.417753591404356,29.830500939665246],[52.417886067085803,29.830699399364224]]]}},{"type":"Feature","properties":{"fid":15.0,"handle":"9094","block":"-1","etype":"18","space":"0","layer":"dadgostarifaz3","olinetype":"bylayer","linetype":null,"color":"0,0,0,255","ocolor":"7","color24":"-1","transparen":"0","lweight":"0","linewidth":0.0,"ltscale":1.0,"visible":"1","width":0.0,"thickness":0.0,"ext":"(3:0,0,0.1)"},"geometry":{"type":"MultiLineString","coordinates":[[[52.417779013639297,29.83126968793653],[52.417987232328137,29.831581613803685]]]}},{"type":"Feature","properties":{"fid":16.0,"handle":"9095","block":"-1","etype":"18","space":"0","layer":"dadgostarifaz3","olinetype":"bylayer","linetype":null,"color":"0,0,0,255","ocolor":"7","color24":"-1","transparen":"0","lweight":"0","linewidth":0.0,"ltscale":1.0,"visible":"1","width":0.0,"thickness":0.0,"ext":"(3:0,0,0.1)"},"geometry":{"type":"MultiLineString","coordinates":[[[52.416156385859452,29.830972378669024],[52.416430639964553,29.831383244281909]]]}},{"type":"Feature","properties":{"fid":17.0,"handle":"9096","block":"-1","etype":"18","space":"0","layer":"dadgostarifaz3","olinetype":"bylayer","linetype":null,"color":"0,0,0,255","ocolor":"7","color24":"-1","transparen":"0","lweight":"0","linewidth":0.0,"ltscale":1.0,"visible":"1","width":0.0,"thickness":0.0,"ext":"(3:0,0,0.1)"},"geometry":{"type":"MultiLineString","coordinates":[[[52.416353016171406,29.830908201850328],[52.416609519758907,29.83129247393941]]]}},{"type":"Feature","properties":{"fid":18.0,"handle":"9097","block":"-1","etype":"18","space":"0","layer":"dadgostarifaz3","olinetype":"bylayer","linetype":null,"color":"0,0,0,255","ocolor":"7","color24":"-1","transparen":"0","lweight":"0","linewidth":0.0,"ltscale":1.0,"visible":"1","width":0.0,"thickness":0.0,"ext":"(3:0,0,0.1)"},"geometry":{"type":"MultiLineString","coordinates":[[[52.416549646221078,29.830844024746444],[52.416788399222831,29.831201703363963]]]}},{"type":"Feature","properties":{"fid":19.0,"handle":"9098","block":"-1","etype":"18","space":"0","layer":"dadgostarifaz3","olinetype":"bylayer","linetype":null,"color":"0,0,0,255","ocolor":"7","color24":"-1","transparen":"0","lweight":"0","linewidth":0.0,"ltscale":1.0,"visible":"1","width":0.0,"thickness":0.0,"ext":"(3:0,0,0.1)"},"geometry":{"type":"MultiLineString","coordinates":[[[52.41674627600846,29.830779847357391],[52.416967278356331,29.831110932555585]]]}},{"type":"Feature","properties":{"fid":20.0,"handle":"9099","block":"-1","etype":"18","space":"0","layer":"dadgostarifaz3","olinetype":"bylayer","linetype":null,"color":"0,0,0,255","ocolor":"7","color24":"-1","transparen":"0","lweight":"0","linewidth":0.0,"ltscale":1.0,"visible":"1","width":0.0,"thickness":0.0,"ext":"(3:0,0,0.1)"},"geometry":{"type":"MultiLineString","coordinates":[[[52.417301110298403,29.831006264652959],[52.417301312206341,29.831006567129812]]]}},{"type":"Feature","properties":{"fid":21.0,"handle":"9100","block":"-1","etype":"18","space":"0","layer":"dadgostarifaz3","olinetype":"bylayer","linetype":null,"color":"0,0,0,255","ocolor":"7","color24":"-1","transparen":"0","lweight":"0","linewidth":0.0,"ltscale":1.0,"visible":"1","width":0.0,"thickness":0.0,"ext":"(3:0,0,0.1)"},"geometry":{"type":"MultiLineString","coordinates":[[[52.418288139819317,29.831026765283465],[52.418711715317713,29.830811817793446]]]}},{"type":"Feature","properties":{"fid":22.0,"handle":"9101","block":"-1","etype":"18","space":"0","layer":"dadgostarifaz3","olinetype":"bylayer","linetype":null,"color":"0,0,0,255","ocolor":"7","color24":"-1","transparen":"0","lweight":"0","linewidth":0.0,"ltscale":1.0,"visible":"1","width":0.0,"thickness":0.0,"ext":"(3:0,0,0.1)"},"geometry":{"type":"MultiLineString","coordinates":[[[52.419944951099978,29.83156505414491],[52.421461571862167,29.830795398223394]]]}},{"type":"Feature","properties":{"fid":23.0,"handle":"9102","block":"-1","etype":"18","space":"0","layer":"dadgostarifaz3","olinetype":"bylayer","linetype":null,"color":"0,0,0,255","ocolor":"7","color24":"-1","transparen":"0","lweight":"0","linewidth":0.0,"ltscale":1.0,"visible":"1","width":0.0,"thickness":0.0,"ext":"(3:0,0,0.1)"},"geometry":{"type":"MultiLineString","coordinates":[[[52.419732654765703,29.831729890838552],[52.419905663408251,29.832004105285858]]]}},{"type":"Feature","properties":{"fid":24.0,"handle":"9113","block":"-1","etype":"18","space":"0","layer":"dadgostarifaz3","olinetype":"continuous","linetype":null,"color":"0,0,0,159","ocolor":"256","color24":"-1","transparen":"0","lweight":"30","linewidth":0.3,"ltscale":1.0,"visible":"1","width":0.0,"thickness":0.0,"ext":"(3:0,0,0.1)"},"geometry":{"type":"MultiLineString","coordinates":[[[52.41867188740887,29.830785190331575],[52.418400290547901,29.83058675080585],[52.41867188740887,29.830785190331575]]]}},{"type":"Feature","properties":{"fid":25.0,"handle":"9114","block":"-1","etype":"18","space":"0","layer":"dadgostarifaz3","olinetype":"continuous","linetype":null,"color":"0,0,0,159","ocolor":"256","color24":"-1","transparen":"0","lweight":"30","linewidth":0.3,"ltscale":1.0,"visible":"1","width":0.0,"thickness":0.0,"ext":"(3:0,0,0.1)"},"geometry":{"type":"MultiLineString","coordinates":[[[52.418671887408841,29.830785190331557],[52.418703609096568,29.830806521841456],[52.418736571872977,29.830825880406795],[52.418770653192034,29.830843194055884],[52.418805726345447,29.830858398419874],[52.418841660935861,29.830871436971389],[52.41887832336942,29.83088226123709],[52.418915577339611,29.830890830973207],[52.418953284344255,29.830897114321321],[52.418991304197704,29.830901087918225],[52.418953284344255,29.830897114321321],[52.418915577339611,29.830890830973207],[52.41887832336942,29.83088226123709],[52.418841660935861,29.830871436971389],[52.418805726345447,29.830858398419874],[52.418770653192034,29.830843194055884],[52.418736571872977,29.830825880406795],[52.418703609096568,29.830806521841456],[52.418671887408841,29.830785190331557]]]}},{"type":"Feature","properties":{"fid":26.0,"handle":"9115","block":"-1","etype":"18","space":"0","layer":"dadgostarifaz3","olinetype":"continuous","linetype":null,"color":"0,0,0,159","ocolor":"256","color24":"-1","transparen":"0","lweight":"30","linewidth":0.3,"ltscale":1.0,"visible":"1","width":0.0,"thickness":0.0,"ext":"(3:0,0,0.1)"},"geometry":{"type":"MultiLineString","coordinates":[[[52.41921199898961,29.830918690679095],[52.418991304197696,29.83090108791821],[52.41921199898961,29.830918690679095]]]}},{"type":"Feature","properties":{"fid":27.0,"handle":"9124","block":"-1","etype":"18","space":"0","layer":"dadgostarifaz3","olinetype":"bylayer","linetype":null,"color":"0,0,0,255","ocolor":"7","color24":"-1","transparen":"0","lweight":"0","linewidth":0.0,"ltscale":1.0,"visible":"1","width":0.0,"thickness":0.0,"ext":"(3:0,0,0.1)"},"geometry":{"type":"MultiLineString","coordinates":[[[52.419217981151419,29.830172532729872],[52.419561612678507,29.830739034395535]]]}},{"type":"Feature","properties":{"fid":28.0,"handle":"9125","block":"-1","etype":"18","space":"0","layer":"dadgostarifaz3","olinetype":"bylayer","linetype":null,"color":"0,0,0,255","ocolor":"7","color24":"-1","transparen":"0","lweight":"0","linewidth":0.0,"ltscale":1.0,"visible":"1","width":0.0,"thickness":0.0,"ext":"(3:0,0,0.1)"},"geometry":{"type":"MultiLineString","coordinates":[[[52.419035026126295,29.830256899043953],[52.419228548776793,29.830575937133432]]]}},{"type":"Feature","properties":{"fid":29.0,"handle":"9126","block":"-1","etype":"18","space":"0","layer":"dadgostarifaz3","olinetype":"bylayer","linetype":null,"color":"0,0,0,255","ocolor":"7","color24":"-1","transparen":"0","lweight":"0","linewidth":0.0,"ltscale":1.0,"visible":"1","width":0.0,"thickness":0.0,"ext":"(3:0,0,0.1)"},"geometry":{"type":"MultiLineString","coordinates":[[[52.418852070785746,29.830341265113585],[52.419045593040572,29.830660303481]]]}},{"type":"Feature","properties":{"fid":30.0,"handle":"9127","block":"-1","etype":"18","space":"0","layer":"dadgostarifaz3","olinetype":"bylayer","linetype":null,"color":"0,0,0,255","ocolor":"7","color24":"-1","transparen":"0","lweight":"0","linewidth":0.0,"ltscale":1.0,"visible":"1","width":0.0,"thickness":0.0,"ext":"(3:0,0,0.1)"},"geometry":{"type":"MultiLineString","coordinates":[[[52.418673402159769,29.830831260269004],[52.418881622598832,29.831143184684525]]]}},{"type":"Feature","properties":{"fid":31.0,"handle":"9128","block":"-1","etype":"18","space":"0","layer":"dadgostarifaz3","olinetype":"bylayer","linetype":null,"color":"0,0,0,255","ocolor":"7","color24":"-1","transparen":"0","lweight":"0","linewidth":0.0,"ltscale":1.0,"visible":"1","width":0.0,"thickness":0.0,"ext":"(3:0,0,0.1)"},"geometry":{"type":"MultiLineString","coordinates":[[[52.418286306382164,29.830610108234907],[52.418494525156284,29.830922033325493]]]}},{"type":"Feature","properties":{"fid":32.0,"handle":"9129","block":"-1","etype":"18","space":"0","layer":"dadgostarifaz3","olinetype":"bylayer","linetype":null,"color":"0,0,0,255","ocolor":"7","color24":"-1","transparen":"0","lweight":"0","linewidth":0.0,"ltscale":1.0,"visible":"1","width":0.0,"thickness":0.0,"ext":"(3:0,0,0.1)"},"geometry":{"type":"MultiLineString","coordinates":[[[52.418107429391462,29.830700880768493],[52.418315647822354,29.831012806149047]]]}},{"type":"Feature","properties":{"fid":33.0,"handle":"9130","block":"-1","etype":"18","space":"0","layer":"dadgostarifaz3","olinetype":"bylayer","linetype":null,"color":"0,0,0,255","ocolor":"7","color24":"-1","transparen":"0","lweight":"0","linewidth":0.0,"ltscale":1.0,"visible":"1","width":0.0,"thickness":0.0,"ext":"(3:0,0,0.1)"},"geometry":{"type":"MultiLineString","coordinates":[[[52.417957891937618,29.831178915812444],[52.4181661109697,29.83149084138963]]]}},{"type":"Feature","properties":{"fid":34.0,"handle":"9131","block":"-1","etype":"18","space":"0","layer":"dadgostarifaz3","olinetype":"bylayer","linetype":null,"color":"0,0,0,255","ocolor":"7","color24":"-1","transparen":"0","lweight":"0","linewidth":0.0,"ltscale":1.0,"visible":"1","width":0.0,"thickness":0.0,"ext":"(3:0,0,0.1)"},"geometry":{"type":"MultiLineString","coordinates":[[[52.417391917986677,29.83104853328549],[52.417808353356143,29.83167238598481]]]}},{"type":"Feature","properties":{"fid":35.0,"handle":"9132","block":"-1","etype":"18","space":"0","layer":"dadgostarifaz3","olinetype":"bylayer","linetype":null,"color":"0,0,0,255","ocolor":"7","color24":"-1","transparen":"0","lweight":"0","linewidth":0.0,"ltscale":1.0,"visible":"1","width":0.0,"thickness":0.0,"ext":"(3:0,0,0.1)"},"geometry":{"type":"MultiLineString","coordinates":[[[52.417213039370743,29.831139304653746],[52.417629474053697,29.831763157933022]]]}},{"type":"Feature","properties":{"fid":36.0,"handle":"9134","block":"-1","etype":"18","space":"0","layer":"dadgostarifaz3","olinetype":"bylayer","linetype":null,"color":"0,0,0,255","ocolor":"7","color24":"-1","transparen":"0","lweight":"0","linewidth":0.0,"ltscale":1.0,"visible":"1","width":0.0,"thickness":0.0,"ext":"(3:0,0,0.1)"},"geometry":{"type":"MultiLineString","coordinates":[[[52.419013195588171,29.830675242872097],[52.420683485225958,29.829905008656741]]]}},{"type":"Feature","properties":{"fid":37.0,"handle":"9135","block":"-1","etype":"18","space":"0","layer":"dadgostarifaz3","olinetype":"bylayer","linetype":null,"color":"0,0,0,255","ocolor":"7","color24":"-1","transparen":"0","lweight":"0","linewidth":0.0,"ltscale":1.0,"visible":"1","width":0.0,"thickness":0.0,"ext":"(3:0,0,0.1)"},"geometry":{"type":"MultiLineString","coordinates":[[[52.41645263238658,29.831942750063572],[52.417982339097527,29.831166510024715]]]}},{"type":"Feature","properties":{"fid":38.0,"handle":"9136","block":"-1","etype":"18","space":"0","layer":"dadgostarifaz3","olinetype":"bylayer","linetype":null,"color":"0,0,0,255","ocolor":"7","color24":"-1","transparen":"0","lweight":"0","linewidth":0.0,"ltscale":1.0,"visible":"1","width":0.0,"thickness":0.0,"ext":"(3:0,0,0.1)"},"geometry":{"type":"MultiLineString","coordinates":[[[52.417711358932479,29.8326446056547],[52.419665005174089,29.831707617670183]]]}},{"type":"Feature","properties":{"fid":39.0,"handle":"9140","block":"-1","etype":"18","space":"0","layer":"dadgostarifaz3","olinetype":"bylayer","linetype":null,"color":"0,0,0,255","ocolor":"7","color24":"-1","transparen":"0","lweight":"0","linewidth":0.0,"ltscale":1.0,"visible":"1","width":0.0,"thickness":0.0,"ext":"(3:0,0,0.1)"},"geometry":{"type":"MultiLineString","coordinates":[[[52.416855281147598,29.831320846691447],[52.417271714457492,29.831944701130567]]]}},{"type":"Feature","properties":{"fid":40.0,"handle":"9141","block":"-1","etype":"18","space":"0","layer":"dadgostarifaz3","olinetype":"bylayer","linetype":null,"color":"0,0,0,255","ocolor":"7","color24":"-1","transparen":"0","lweight":"0","linewidth":0.0,"ltscale":1.0,"visible":"1","width":0.0,"thickness":0.0,"ext":"(3:0,0,0.1)"},"geometry":{"type":"MultiLineString","coordinates":[[[52.416452801566685,29.831525080370092],[52.416869233331838,29.832148936114077]]]}},{"type":"Feature","properties":{"fid":41.0,"handle":"9142","block":"-1","etype":"18","space":"0","layer":"dadgostarifaz3","olinetype":"bylayer","linetype":null,"color":"0,0,0,255","ocolor":"7","color24":"-1","transparen":"0","lweight":"0","linewidth":0.0,"ltscale":1.0,"visible":"1","width":0.0,"thickness":0.0,"ext":"(3:0,0,0.1)"},"geometry":{"type":"MultiLineString","coordinates":[[[52.41665404156624,29.831422963678179],[52.417070474103767,29.832046818769733]]]}},{"type":"Feature","properties":{"fid":42.0,"handle":"9143","block":"-1","etype":"18","space":"0","layer":"dadgostarifaz3","olinetype":"bylayer","linetype":null,"color":"0,0,0,255","ocolor":"7","color24":"-1","transparen":"0","lweight":"0","linewidth":0.0,"ltscale":1.0,"visible":"1","width":0.0,"thickness":0.0,"ext":"(3:0,0,0.1)"},"geometry":{"type":"MultiLineString","coordinates":[[[52.417034160424386,29.831230075789055],[52.417450594420814,29.831853929648254]]]}},{"type":"Feature","properties":{"fid":43.0,"handle":"9144","block":"-1","etype":"18","space":"0","layer":"dadgostarifaz3","olinetype":"bylayer","linetype":null,"color":"0,0,0,255","ocolor":"7","color24":"-1","transparen":"0","lweight":"0","linewidth":0.0,"ltscale":1.0,"visible":"1","width":0.0,"thickness":0.0,"ext":"(3:0,0,0.1)"},"geometry":{"type":"MultiLineString","coordinates":[[[52.417149159181591,29.832502325908408],[52.417354864642817,29.83282837836401]]]}},{"type":"Feature","properties":{"fid":44.0,"handle":"9145","block":"-1","etype":"18","space":"0","layer":"dadgostarifaz3","olinetype":"bylayer","linetype":null,"color":"0,0,0,255","ocolor":"7","color24":"-1","transparen":"0","lweight":"0","linewidth":0.0,"ltscale":1.0,"visible":"1","width":0.0,"thickness":0.0,"ext":"(3:0,0,0.1)"},"geometry":{"type":"MultiLineString","coordinates":[[[52.417339573131905,29.832411004450353],[52.417593149596279,29.832812933073882]]]}},{"type":"Feature","properties":{"fid":45.0,"handle":"9146","block":"-1","etype":"18","space":"0","layer":"dadgostarifaz3","olinetype":"bylayer","linetype":null,"color":"0,0,0,255","ocolor":"7","color24":"-1","transparen":"0","lweight":"0","linewidth":0.0,"ltscale":1.0,"visible":"1","width":0.0,"thickness":0.0,"ext":"(3:0,0,0.1)"},"geometry":{"type":"MultiLineString","coordinates":[[[52.4175118521146,29.832328380046121],[52.417808740665549,29.832798958395255]]]}},{"type":"Feature","properties":{"fid":46.0,"handle":"9147","block":"-1","etype":"18","space":"0","layer":"dadgostarifaz3","olinetype":"bylayer","linetype":null,"color":"0,0,0,255","ocolor":"7","color24":"-1","transparen":"0","lweight":"0","linewidth":0.0,"ltscale":1.0,"visible":"1","width":0.0,"thickness":0.0,"ext":"(3:0,0,0.1)"},"geometry":{"type":"MultiLineString","coordinates":[[[52.417693198098462,29.832241406755188],[52.417892705291159,29.832557632080714]]]}},{"type":"Feature","properties":{"fid":47.0,"handle":"9148","block":"-1","etype":"18","space":"0","layer":"dadgostarifaz3","olinetype":"bylayer","linetype":null,"color":"0,0,0,255","ocolor":"7","color24":"-1","transparen":"0","lweight":"0","linewidth":0.0,"ltscale":1.0,"visible":"1","width":0.0,"thickness":0.0,"ext":"(3:0,0,0.1)"},"geometry":{"type":"MultiLineString","coordinates":[[[52.417874543760554,29.832154433224368],[52.4182626163553,29.832769536874917]]]}},{"type":"Feature","properties":{"fid":48.0,"handle":"9149","block":"-1","etype":"18","space":"0","layer":"dadgostarifaz3","olinetype":"bylayer","linetype":null,"color":"0,0,0,255","ocolor":"7","color24":"-1","transparen":"0","lweight":"0","linewidth":0.0,"ltscale":1.0,"visible":"1","width":0.0,"thickness":0.0,"ext":"(3:0,0,0.1)"},"geometry":{"type":"MultiLineString","coordinates":[[[52.418055889100891,29.832067459453654],[52.418454906272608,29.832699908615169]]]}},{"type":"Feature","properties":{"fid":49.0,"handle":"9150","block":"-1","etype":"18","space":"0","layer":"dadgostarifaz3","olinetype":"bylayer","linetype":null,"color":"0,0,0,255","ocolor":"7","color24":"-1","transparen":"0","lweight":"0","linewidth":0.0,"ltscale":1.0,"visible":"1","width":0.0,"thickness":0.0,"ext":"(3:0,0,0.1)"},"geometry":{"type":"MultiLineString","coordinates":[[[52.418237234119466,29.831980485443111],[52.418636252040791,29.832612934038544]]]}},{"type":"Feature","properties":{"fid":50.0,"handle":"9151","block":"-1","etype":"18","space":"0","layer":"dadgostarifaz3","olinetype":"bylayer","linetype":null,"color":"0,0,0,255","ocolor":"7","color24":"-1","transparen":"0","lweight":"0","linewidth":0.0,"ltscale":1.0,"visible":"1","width":0.0,"thickness":0.0,"ext":"(3:0,0,0.1)"},"geometry":{"type":"MultiLineString","coordinates":[[[52.418418578816265,29.831893511192678],[52.418817597487191,29.832525959222014]]]}},{"type":"Feature","properties":{"fid":51.0,"handle":"9152","block":"-1","etype":"18","space":"0","layer":"dadgostarifaz3","olinetype":"bylayer","linetype":null,"color":"0,0,0,255","ocolor":"7","color24":"-1","transparen":"0","lweight":"0","linewidth":0.0,"ltscale":1.0,"visible":"1","width":0.0,"thickness":0.0,"ext":"(3:0,0,0.1)"},"geometry":{"type":"MultiLineString","coordinates":[[[52.418599923191316,29.831806536702395],[52.418998942611829,29.832438984165663]]]}},{"type":"Feature","properties":{"fid":52.0,"handle":"9153","block":"-1","etype":"18","space":"0","layer":"dadgostarifaz3","olinetype":"bylayer","linetype":null,"color":"0,0,0,255","ocolor":"7","color24":"-1","transparen":"0","lweight":"0","linewidth":0.0,"ltscale":1.0,"visible":"1","width":0.0,"thickness":0.0,"ext":"(3:0,0,0.1)"},"geometry":{"type":"MultiLineString","coordinates":[[[52.41878126724459,29.831719561972239],[52.419180287414591,29.832352008869304]]]}},{"type":"Feature","properties":{"fid":53.0,"handle":"9154","block":"-1","etype":"18","space":"0","layer":"dadgostarifaz3","olinetype":"bylayer","linetype":null,"color":"0,0,0,255","ocolor":"7","color24":"-1","transparen":"0","lweight":"0","linewidth":0.0,"ltscale":1.0,"visible":"1","width":0.0,"thickness":0.0,"ext":"(3:0,0,0.1)"},"geometry":{"type":"MultiLineString","coordinates":[[[52.418962610976102,29.831632587002229],[52.419361631895725,29.832265033333282]]]}},{"type":"Feature","properties":{"fid":54.0,"handle":"9155","block":"-1","etype":"18","space":"0","layer":"dadgostarifaz3","olinetype":"bylayer","linetype":null,"color":"0,0,0,255","ocolor":"7","color24":"-1","transparen":"0","lweight":"0","linewidth":0.0,"ltscale":1.0,"visible":"1","width":0.0,"thickness":0.0,"ext":"(3:0,0,0.1)"},"geometry":{"type":"MultiLineString","coordinates":[[[52.420381066185321,29.832032763203568],[52.420716577145463,29.832535350115027]]]}},{"type":"Feature","properties":{"fid":55.0,"handle":"9156","block":"-1","etype":"18","space":"0","layer":"dadgostarifaz3","olinetype":"bylayer","linetype":null,"color":"0,0,0,255","ocolor":"7","color24":"-1","transparen":"0","lweight":"0","linewidth":0.0,"ltscale":1.0,"visible":"1","width":0.0,"thickness":0.0,"ext":"(3:0,0,0.1)"},"geometry":{"type":"MultiLineString","coordinates":[[[52.420202188731807,29.832123538577026],[52.420531257808307,29.832616477038684]]]}},{"type":"Feature","properties":{"fid":56.0,"handle":"9157","block":"-1","etype":"18","space":"0","layer":"dadgostarifaz3","olinetype":"bylayer","linetype":null,"color":"0,0,0,255","ocolor":"7","color24":"-1","transparen":"0","lweight":"0","linewidth":0.0,"ltscale":1.0,"visible":"1","width":0.0,"thickness":0.0,"ext":"(3:0,0,0.1)"},"geometry":{"type":"MultiLineString","coordinates":[[[52.420023310947826,29.832214313717582],[52.42030479539865,29.832635972876698]]]}},{"type":"Feature","properties":{"fid":57.0,"handle":"9158","block":"-1","etype":"18","space":"0","layer":"dadgostarifaz3","olinetype":"bylayer","linetype":null,"color":"0,0,0,255","ocolor":"7","color24":"-1","transparen":"0","lweight":"0","linewidth":0.0,"ltscale":1.0,"visible":"1","width":0.0,"thickness":0.0,"ext":"(3:0,0,0.1)"},"geometry":{"type":"MultiLineString","coordinates":[[[52.419826545003758,29.832314166103149],[52.420055686627222,29.83265741785317]]]}},{"type":"Feature","properties":{"fid":58.0,"handle":"9159","block":"-1","etype":"18","space":"0","layer":"dadgostarifaz3","olinetype":"bylayer","linetype":null,"color":"0,0,0,255","ocolor":"7","color24":"-1","transparen":"0","lweight":"0","linewidth":0.0,"ltscale":1.0,"visible":"1","width":0.0,"thickness":0.0,"ext":"(3:0,0,0.1)"},"geometry":{"type":"MultiLineString","coordinates":[[[52.419576115042084,29.832441250549923],[52.419738638916925,29.832684710784829]]]}},{"type":"Feature","properties":{"fid":59.0,"handle":"9160","block":"-1","etype":"18","space":"0","layer":"dadgostarifaz3","olinetype":"bylayer","linetype":null,"color":"0,0,0,255","ocolor":"7","color24":"-1","transparen":"0","lweight":"0","linewidth":0.0,"ltscale":1.0,"visible":"1","width":0.0,"thickness":0.0,"ext":"(3:0,0,0.1)"},"geometry":{"type":"MultiLineString","coordinates":[[[52.419143954385845,29.831545611792375],[52.419542976055013,29.832178057557336]]]}},{"type":"Feature","properties":{"fid":60.0,"handle":"9161","block":"-1","etype":"18","space":"0","layer":"dadgostarifaz3","olinetype":"bylayer","linetype":null,"color":"0,0,0,255","ocolor":"7","color24":"-1","transparen":"0","lweight":"0","linewidth":0.0,"ltscale":1.0,"visible":"1","width":0.0,"thickness":0.0,"ext":"(3:0,0,0.1)"},"geometry":{"type":"MultiLineString","coordinates":[[[52.419524808039633,29.831774859120795],[52.419724319892524,29.83209108154152]]]}},{"type":"Feature","properties":{"fid":61.0,"handle":"9162","block":"-1","etype":"18","space":"0","layer":"dadgostarifaz3","olinetype":"bylayer","linetype":null,"color":"0,0,0,255","ocolor":"7","color24":"-1","transparen":"0","lweight":"0","linewidth":0.0,"ltscale":1.0,"visible":"1","width":0.0,"thickness":0.0,"ext":"(3:0,0,0.1)"},"geometry":{"type":"MultiLineString","coordinates":[[[52.419829267627868,29.831206169600438],[52.420037492408092,29.831518092032582]]]}},{"type":"Feature","properties":{"fid":62.0,"handle":"9163","block":"-1","etype":"18","space":"0","layer":"dadgostarifaz3","olinetype":"bylayer","linetype":null,"color":"0,0,0,255","ocolor":"7","color24":"-1","transparen":"0","lweight":"0","linewidth":0.0,"ltscale":1.0,"visible":"1","width":0.0,"thickness":0.0,"ext":"(3:0,0,0.1)"},"geometry":{"type":"MultiLineString","coordinates":[[[52.419400935861141,29.830088166171361],[52.41975023870576,29.830664015675136]]]}},{"type":"Feature","properties":{"fid":63.0,"handle":"9164","block":"-1","etype":"18","space":"0","layer":"dadgostarifaz3","olinetype":"bylayer","linetype":null,"color":"0,0,0,255","ocolor":"7","color24":"-1","transparen":"0","lweight":"0","linewidth":0.0,"ltscale":1.0,"visible":"1","width":0.0,"thickness":0.0,"ext":"(3:0,0,0.1)"},"geometry":{"type":"MultiLineString","coordinates":[[[52.420008143841493,29.831115394762563],[52.420216368964908,29.83142731690474]]]}},{"type":"Feature","properties":{"fid":64.0,"handle":"9165","block":"-1","etype":"18","space":"0","layer":"dadgostarifaz3","olinetype":"bylayer","linetype":null,"color":"0,0,0,255","ocolor":"7","color24":"-1","transparen":"0","lweight":"0","linewidth":0.0,"ltscale":1.0,"visible":"1","width":0.0,"thickness":0.0,"ext":"(3:0,0,0.1)"},"geometry":{"type":"MultiLineString","coordinates":[[[52.419583890255431,29.830003799368384],[52.41993886444186,29.830588996693695]]]}},{"type":"Feature","properties":{"fid":65.0,"handle":"9166","block":"-1","etype":"18","space":"0","layer":"dadgostarifaz3","olinetype":"bylayer","linetype":null,"color":"0,0,0,255","ocolor":"7","color24":"-1","transparen":"0","lweight":"0","linewidth":0.0,"ltscale":1.0,"visible":"1","width":0.0,"thickness":0.0,"ext":"(3:0,0,0.1)"},"geometry":{"type":"MultiLineString","coordinates":[[[52.420187019724665,29.831024619691799],[52.420603471979646,29.831648463010932]]]}},{"type":"Feature","properties":{"fid":66.0,"handle":"9167","block":"-1","etype":"18","space":"0","layer":"dadgostarifaz3","olinetype":"bylayer","linetype":null,"color":"0,0,0,255","ocolor":"7","color24":"-1","transparen":"0","lweight":"0","linewidth":0.0,"ltscale":1.0,"visible":"1","width":0.0,"thickness":0.0,"ext":"(3:0,0,0.1)"},"geometry":{"type":"MultiLineString","coordinates":[[[52.420315704678465,29.829666329712154],[52.420685591775516,29.830276104621138]]]}},{"type":"Feature","properties":{"fid":67.0,"handle":"9168","block":"-1","etype":"18","space":"0","layer":"dadgostarifaz3","olinetype":"bylayer","linetype":null,"color":"0,0,0,255","ocolor":"7","color24":"-1","transparen":"0","lweight":"0","linewidth":0.0,"ltscale":1.0,"visible":"1","width":0.0,"thickness":0.0,"ext":"(3:0,0,0.1)"},"geometry":{"type":"MultiLineString","coordinates":[[[52.420132751545829,29.829750697492862],[52.42050039165693,29.830356769941851]]]}},{"type":"Feature","properties":{"fid":68.0,"handle":"9169","block":"-1","etype":"18","space":"0","layer":"dadgostarifaz3","olinetype":"bylayer","linetype":null,"color":"0,0,0,255","ocolor":"7","color24":"-1","transparen":"0","lweight":"0","linewidth":0.0,"ltscale":1.0,"visible":"1","width":0.0,"thickness":0.0,"ext":"(3:0,0,0.1)"},"geometry":{"type":"MultiLineString","coordinates":[[[52.419949798097782,29.829835065029144],[52.420315189865832,29.830437432759012]]]}},{"type":"Feature","properties":{"fid":69.0,"handle":"9170","block":"-1","etype":"18","space":"0","layer":"dadgostarifaz3","olinetype":"bylayer","linetype":null,"color":"0,0,0,255","ocolor":"7","color24":"-1","transparen":"0","lweight":"0","linewidth":0.0,"ltscale":1.0,"visible":"1","width":0.0,"thickness":0.0,"ext":"(3:0,0,0.1)"},"geometry":{"type":"MultiLineString","coordinates":[[[52.419766844334319,29.829919432320978],[52.420127489886802,29.83051397745124]]]}},{"type":"Feature","properties":{"fid":70.0,"handle":"9171","block":"-1","etype":"18","space":"0","layer":"dadgostarifaz3","olinetype":"bylayer","linetype":null,"color":"0,0,0,255","ocolor":"7","color24":"-1","transparen":"0","lweight":"0","linewidth":0.0,"ltscale":1.0,"visible":"1","width":0.0,"thickness":0.0,"ext":"(3:0,0,0.1)"},"geometry":{"type":"MultiLineString","coordinates":[[[52.421108225289913,29.83055712438901],[52.421316452523733,29.830869044747672]]]}},{"type":"Feature","properties":{"fid":71.0,"handle":"9172","block":"-1","etype":"18","space":"0","layer":"dadgostarifaz3","olinetype":"bylayer","linetype":null,"color":"0,0,0,255","ocolor":"7","color24":"-1","transparen":"0","lweight":"0","linewidth":0.0,"ltscale":1.0,"visible":"1","width":0.0,"thickness":0.0,"ext":"(3:0,0,0.1)"},"geometry":{"type":"MultiLineString","coordinates":[[[52.420920407390817,29.830652439466622],[52.421336862459675,29.83127628040771]]]}},{"type":"Feature","properties":{"fid":72.0,"handle":"9173","block":"-1","etype":"18","space":"0","layer":"dadgostarifaz3","olinetype":"bylayer","linetype":null,"color":"0,0,0,255","ocolor":"7","color24":"-1","transparen":"0","lweight":"0","linewidth":0.0,"ltscale":1.0,"visible":"1","width":0.0,"thickness":0.0,"ext":"(3:0,0,0.1)"},"geometry":{"type":"MultiLineString","coordinates":[[[52.42073258912739,29.830747754287465],[52.421149043475651,29.831371595837574]]]}},{"type":"Feature","properties":{"fid":73.0,"handle":"9174","block":"-1","etype":"18","space":"0","layer":"dadgostarifaz3","olinetype":"bylayer","linetype":null,"color":"0,0,0,255","ocolor":"7","color24":"-1","transparen":"0","lweight":"0","linewidth":0.0,"ltscale":1.0,"visible":"1","width":0.0,"thickness":0.0,"ext":"(3:0,0,0.1)"},"geometry":{"type":"MultiLineString","coordinates":[[[52.420961224127296,29.831466911010633],[52.420544770499653,29.830843068851529],[52.420961224127296,29.831466911010633]]]}},{"type":"Feature","properties":{"fid":74.0,"handle":"9176","block":"-1","etype":"18","space":"0","layer":"dadgostarifaz3","olinetype":"bylayer","linetype":null,"color":"0,0,0,255","ocolor":"7","color24":"-1","transparen":"0","lweight":"0","linewidth":0.0,"ltscale":1.0,"visible":"1","width":0.0,"thickness":0.0,"ext":"(3:0,0,0.1)"},"geometry":{"type":"MultiLineString","coordinates":[[[52.420365895277385,29.830933844388117],[52.420782348218701,29.83155768712723]]]}}]}