{"type":"FeatureCollection","name":"_4","crs":{"type":"name","properties":{"name":"urn:ogc:def:crs:OGC:1.3:CRS84"}},"features":[{"type":"Feature","properties":{"fid":545.0,"handle":"4835","block":"-1","etype":"25","space":"0","layer":"Masahat","olinetype":"bylayer","linetype":null,"color":"byblock","ocolor":"0","color24":"-1","transparen":"0","lweight":"0","linewidth":0.0,"ltscale":1.0,"visible":"1","thickness":0.0,"ext":"(3:0,0,1)","height":2.4,"text":"800","angle":357.40786,"widthscale":1.0,"oblique":0.0,"style":"STYLE2","textgen":"0","alignh":"0","alignv":"0","interlin":-1.0},"geometry":{"type":"Point","coordinates":[52.417481961183185,29.831320389407985]}},{"type":"Feature","properties":{"fid":546.0,"handle":"4836","block":"-1","etype":"25","space":"0","layer":"Masahat","olinetype":"bylayer","linetype":null,"color":"byblock","ocolor":"0","color24":"-1","transparen":"0","lweight":"0","linewidth":0.0,"ltscale":1.0,"visible":"1","thickness":0.0,"ext":"(3:0,0,1)","height":2.4,"text":"800","angle":357.40786,"widthscale":1.0,"oblique":0.0,"style":"STYLE2","textgen":"0","alignh":"0","alignv":"0","interlin":-1.0},"geometry":{"type":"Point","coordinates":[52.417680916116758,29.831584901903181]}},{"type":"Feature","properties":{"fid":547.0,"handle":"4837","block":"-1","etype":"25","space":"0","layer":"Masahat","olinetype":"bylayer","linetype":null,"color":"byblock","ocolor":"0","color24":"-1","transparen":"0","lweight":"0","linewidth":0.0,"ltscale":1.0,"visible":"1","thickness":0.0,"ext":"(3:0,0,1)","height":2.4,"text":"800","angle":357.40786,"widthscale":1.0,"oblique":0.0,"style":"STYLE2","textgen":"0","alignh":"0","alignv":"0","interlin":-1.0},"geometry":{"type":"Point","coordinates":[52.417304121510632,29.831412700337307]}},{"type":"Feature","properties":{"fid":548.0,"handle":"4838","block":"-1","etype":"25","space":"0","layer":"Masahat","olinetype":"bylayer","linetype":null,"color":"byblock","ocolor":"0","color24":"-1","transparen":"0","lweight":"0","linewidth":0.0,"ltscale":1.0,"visible":"1","thickness":0.0,"ext":"(3:0,0,1)","height":2.4,"text":"800","angle":357.40786,"widthscale":1.0,"oblique":0.0,"style":"STYLE2","textgen":"0","alignh":"0","alignv":"0","interlin":-1.0},"geometry":{"type":"Point","coordinates":[52.417489998050861,29.831679671386002]}},{"type":"Feature","properties":{"fid":549.0,"handle":"4839","block":"-1","etype":"25","space":"0","layer":"Masahat","olinetype":"bylayer","linetype":null,"color":"byblock","ocolor":"0","color24":"-1","transparen":"0","lweight":"0","linewidth":0.0,"ltscale":1.0,"visible":"1","thickness":0.0,"ext":"(3:0,0,1)","height":2.4,"text":"800","angle":357.40786,"widthscale":1.0,"oblique":0.0,"style":"STYLE2","textgen":"0","alignh":"0","alignv":"0","interlin":-1.0},"geometry":{"type":"Point","coordinates":[52.417845677623546,29.831495048784085]}},{"type":"Feature","properties":{"fid":550.0,"handle":"4840","block":"-1","etype":"25","space":"0","layer":"Masahat","olinetype":"bylayer","linetype":null,"color":"byblock","ocolor":"0","color24":"-1","transparen":"0","lweight":"0","linewidth":0.0,"ltscale":1.0,"visible":"1","thickness":0.0,"ext":"(3:0,0,1)","height":2.4,"text":"800","angle":357.40786,"widthscale":1.0,"oblique":0.0,"style":"STYLE2","textgen":"0","alignh":"0","alignv":"0","interlin":-1.0},"geometry":{"type":"Point","coordinates":[52.418023516909223,29.831402737138056]}},{"type":"Feature","properties":{"fid":551.0,"handle":"4841","block":"-1","etype":"25","space":"0","layer":"Masahat","olinetype":"bylayer","linetype":null,"color":"byblock","ocolor":"0","color24":"-1","transparen":"0","lweight":"0","linewidth":0.0,"ltscale":1.0,"visible":"1","thickness":0.0,"ext":"(3:0,0,1)","height":2.4,"text":"800","angle":357.40786,"widthscale":1.0,"oblique":0.0,"style":"STYLE2","textgen":"0","alignh":"0","alignv":"0","interlin":-1.0},"geometry":{"type":"Point","coordinates":[52.417954841855561,29.832436076001095]}},{"type":"Feature","properties":{"fid":552.0,"handle":"4842","block":"-1","etype":"25","space":"0","layer":"Masahat","olinetype":"bylayer","linetype":null,"color":"byblock","ocolor":"0","color24":"-1","transparen":"0","lweight":"0","linewidth":0.0,"ltscale":1.0,"visible":"1","thickness":0.0,"ext":"(3:0,0,1)","height":2.4,"text":"800","angle":357.40786,"widthscale":1.0,"oblique":0.0,"style":"STYLE2","textgen":"0","alignh":"0","alignv":"0","interlin":-1.0},"geometry":{"type":"Point","coordinates":[52.418132682664449,29.832343764169384]}},{"type":"Feature","properties":{"fid":553.0,"handle":"4843","block":"-1","etype":"25","space":"0","layer":"Masahat","olinetype":"bylayer","linetype":null,"color":"byblock","ocolor":"0","color24":"-1","transparen":"0","lweight":"0","linewidth":0.0,"ltscale":1.0,"visible":"1","thickness":0.0,"ext":"(3:0,0,1)","height":2.4,"text":"795","angle":357.40786,"widthscale":1.0,"oblique":0.0,"style":"STYLE2","textgen":"0","alignh":"0","alignv":"0","interlin":-1.0},"geometry":{"type":"Point","coordinates":[52.418307421791539,29.83260889588561]}},{"type":"Feature","properties":{"fid":554.0,"handle":"4844","block":"-1","etype":"25","space":"0","layer":"Masahat","olinetype":"bylayer","linetype":null,"color":"byblock","ocolor":"0","color24":"-1","transparen":"0","lweight":"0","linewidth":0.0,"ltscale":1.0,"visible":"1","thickness":0.0,"ext":"(3:0,0,1)","height":2.4,"text":"800","angle":357.40786,"widthscale":1.0,"oblique":0.0,"style":"STYLE2","textgen":"0","alignh":"0","alignv":"0","interlin":-1.0},"geometry":{"type":"Point","coordinates":[52.418310523139539,29.832251452107634]}},{"type":"Feature","properties":{"fid":555.0,"handle":"4845","block":"-1","etype":"25","space":"0","layer":"Masahat","olinetype":"bylayer","linetype":null,"color":"byblock","ocolor":"0","color24":"-1","transparen":"0","lweight":"0","linewidth":0.0,"ltscale":1.0,"visible":"1","thickness":0.0,"ext":"(3:0,0,1)","height":2.4,"text":"800","angle":357.40786,"widthscale":1.0,"oblique":0.0,"style":"STYLE2","textgen":"0","alignh":"0","alignv":"0","interlin":-1.0},"geometry":{"type":"Point","coordinates":[52.4184964039449,29.832518421567972]}},{"type":"Feature","properties":{"fid":556.0,"handle":"4846","block":"-1","etype":"25","space":"0","layer":"Masahat","olinetype":"bylayer","linetype":null,"color":"byblock","ocolor":"0","color24":"-1","transparen":"0","lweight":"0","linewidth":0.0,"ltscale":1.0,"visible":"1","thickness":0.0,"ext":"(3:0,0,1)","height":2.4,"text":"800","angle":357.40786,"widthscale":1.0,"oblique":0.0,"style":"STYLE2","textgen":"0","alignh":"0","alignv":"0","interlin":-1.0},"geometry":{"type":"Point","coordinates":[52.418488363280851,29.832159139815836]}},{"type":"Feature","properties":{"fid":557.0,"handle":"4847","block":"-1","etype":"25","space":"0","layer":"Masahat","olinetype":"bylayer","linetype":null,"color":"byblock","ocolor":"0","color24":"-1","transparen":"0","lweight":"0","linewidth":0.0,"ltscale":1.0,"visible":"1","thickness":0.0,"ext":"(3:0,0,1)","height":2.4,"text":"800","angle":357.40786,"widthscale":1.0,"oblique":0.0,"style":"STYLE2","textgen":"0","alignh":"0","alignv":"0","interlin":-1.0},"geometry":{"type":"Point","coordinates":[52.418674244366869,29.832426109019536]}},{"type":"Feature","properties":{"fid":558.0,"handle":"4848","block":"-1","etype":"25","space":"0","layer":"Masahat","olinetype":"bylayer","linetype":null,"color":"byblock","ocolor":"0","color24":"-1","transparen":"0","lweight":"0","linewidth":0.0,"ltscale":1.0,"visible":"1","thickness":0.0,"ext":"(3:0,0,1)","height":2.4,"text":"800","angle":357.40786,"widthscale":1.0,"oblique":0.0,"style":"STYLE2","textgen":"0","alignh":"0","alignv":"0","interlin":-1.0},"geometry":{"type":"Point","coordinates":[52.418666203088371,29.832066827294007]}},{"type":"Feature","properties":{"fid":559.0,"handle":"4849","block":"-1","etype":"25","space":"0","layer":"Masahat","olinetype":"bylayer","linetype":null,"color":"byblock","ocolor":"0","color24":"-1","transparen":"0","lweight":"0","linewidth":0.0,"ltscale":1.0,"visible":"1","thickness":0.0,"ext":"(3:0,0,1)","height":2.4,"text":"800","angle":357.40786,"widthscale":1.0,"oblique":0.0,"style":"STYLE2","textgen":"0","alignh":"0","alignv":"0","interlin":-1.0},"geometry":{"type":"Point","coordinates":[52.418852084455047,29.832333796241024]}},{"type":"Feature","properties":{"fid":560.0,"handle":"4850","block":"-1","etype":"25","space":"0","layer":"Masahat","olinetype":"bylayer","linetype":null,"color":"byblock","ocolor":"0","color24":"-1","transparen":"0","lweight":"0","linewidth":0.0,"ltscale":1.0,"visible":"1","thickness":0.0,"ext":"(3:0,0,1)","height":2.4,"text":"800","angle":357.40786,"widthscale":1.0,"oblique":0.0,"style":"STYLE2","textgen":"0","alignh":"0","alignv":"0","interlin":-1.0},"geometry":{"type":"Point","coordinates":[52.418844042562114,29.831974514542093]}},{"type":"Feature","properties":{"fid":561.0,"handle":"4851","block":"-1","etype":"25","space":"0","layer":"Masahat","olinetype":"bylayer","linetype":null,"color":"byblock","ocolor":"0","color24":"-1","transparen":"0","lweight":"0","linewidth":0.0,"ltscale":1.0,"visible":"1","thickness":0.0,"ext":"(3:0,0,1)","height":2.4,"text":"800","angle":357.40786,"widthscale":1.0,"oblique":0.0,"style":"STYLE2","textgen":"0","alignh":"0","alignv":"0","interlin":-1.0},"geometry":{"type":"Point","coordinates":[52.41902992420944,29.832241483232469]}},{"type":"Feature","properties":{"fid":562.0,"handle":"4852","block":"-1","etype":"25","space":"0","layer":"Masahat","olinetype":"bylayer","linetype":null,"color":"byblock","ocolor":"0","color24":"-1","transparen":"0","lweight":"0","linewidth":0.0,"ltscale":1.0,"visible":"1","thickness":0.0,"ext":"(3:0,0,1)","height":2.4,"text":"800","angle":357.40786,"widthscale":1.0,"oblique":0.0,"style":"STYLE2","textgen":"0","alignh":"0","alignv":"0","interlin":-1.0},"geometry":{"type":"Point","coordinates":[52.419021881702051,29.831882201560141]}},{"type":"Feature","properties":{"fid":563.0,"handle":"4853","block":"-1","etype":"25","space":"0","layer":"Masahat","olinetype":"bylayer","linetype":null,"color":"byblock","ocolor":"0","color24":"-1","transparen":"0","lweight":"0","linewidth":0.0,"ltscale":1.0,"visible":"1","thickness":0.0,"ext":"(3:0,0,1)","height":2.4,"text":"800","angle":357.40786,"widthscale":1.0,"oblique":0.0,"style":"STYLE2","textgen":"0","alignh":"0","alignv":"0","interlin":-1.0},"geometry":{"type":"Point","coordinates":[52.419207763630027,29.83214916999388]}},{"type":"Feature","properties":{"fid":564.0,"handle":"4854","block":"-1","etype":"25","space":"0","layer":"Masahat","olinetype":"bylayer","linetype":null,"color":"byblock","ocolor":"0","color24":"-1","transparen":"0","lweight":"0","linewidth":0.0,"ltscale":1.0,"visible":"1","thickness":0.0,"ext":"(3:0,0,1)","height":2.4,"text":"800","angle":357.40786,"widthscale":1.0,"oblique":0.0,"style":"STYLE2","textgen":"0","alignh":"0","alignv":"0","interlin":-1.0},"geometry":{"type":"Point","coordinates":[52.419199720508217,29.83178988834818]}},{"type":"Feature","properties":{"fid":565.0,"handle":"4855","block":"-1","etype":"25","space":"0","layer":"Masahat","olinetype":"bylayer","linetype":null,"color":"byblock","ocolor":"0","color24":"-1","transparen":"0","lweight":"0","linewidth":0.0,"ltscale":1.0,"visible":"1","thickness":0.0,"ext":"(3:0,0,1)","height":2.4,"text":"800","angle":357.40786,"widthscale":1.0,"oblique":0.0,"style":"STYLE2","textgen":"0","alignh":"0","alignv":"0","interlin":-1.0},"geometry":{"type":"Point","coordinates":[52.419385602716829,29.832056856525256]}},{"type":"Feature","properties":{"fid":566.0,"handle":"4856","block":"-1","etype":"25","space":"0","layer":"Masahat","olinetype":"bylayer","linetype":null,"color":"byblock","ocolor":"0","color24":"-1","transparen":"0","lweight":"0","linewidth":0.0,"ltscale":1.0,"visible":"1","thickness":0.0,"ext":"(3:0,0,1)","height":2.4,"text":"800","angle":357.40786,"widthscale":1.0,"oblique":0.0,"style":"STYLE2","textgen":"0","alignh":"0","alignv":"0","interlin":-1.0},"geometry":{"type":"Point","coordinates":[52.419563441469833,29.831964542826579]}},{"type":"Feature","properties":{"fid":567.0,"handle":"4857","block":"-1","etype":"25","space":"0","layer":"Masahat","olinetype":"bylayer","linetype":null,"color":"byblock","ocolor":"0","color24":"-1","transparen":"0","lweight":"0","linewidth":0.0,"ltscale":1.0,"visible":"1","thickness":0.0,"ext":"(3:0,0,1)","height":2.4,"text":"788","angle":357.40786,"widthscale":1.0,"oblique":0.0,"style":"STYLE2","textgen":"0","alignh":"0","alignv":"0","interlin":-1.0},"geometry":{"type":"Point","coordinates":[52.419741279889053,29.831872228897861]}},{"type":"Feature","properties":{"fid":568.0,"handle":"4858","block":"-1","etype":"25","space":"0","layer":"Masahat","olinetype":"bylayer","linetype":null,"color":"byblock","ocolor":"0","color24":"-1","transparen":"0","lweight":"0","linewidth":0.0,"ltscale":1.0,"visible":"1","thickness":0.0,"ext":"(3:0,0,1)","height":2.4,"text":"800","angle":357.40786,"widthscale":1.0,"oblique":0.0,"style":"STYLE2","textgen":"0","alignh":"0","alignv":"0","interlin":-1.0},"geometry":{"type":"Point","coordinates":[52.420071746253619,29.831358095317892]}},{"type":"Feature","properties":{"fid":569.0,"handle":"4859","block":"-1","etype":"25","space":"0","layer":"Masahat","olinetype":"bylayer","linetype":null,"color":"byblock","ocolor":"0","color24":"-1","transparen":"0","lweight":"0","linewidth":0.0,"ltscale":1.0,"visible":"1","thickness":0.0,"ext":"(3:0,0,1)","height":2.4,"text":"800","angle":357.40786,"widthscale":1.0,"oblique":0.0,"style":"STYLE2","textgen":"0","alignh":"0","alignv":"0","interlin":-1.0},"geometry":{"type":"Point","coordinates":[52.420249583125418,29.831265780746982]}},{"type":"Feature","properties":{"fid":570.0,"handle":"4860","block":"-1","etype":"25","space":"0","layer":"Masahat","olinetype":"bylayer","linetype":null,"color":"byblock","ocolor":"0","color24":"-1","transparen":"0","lweight":"0","linewidth":0.0,"ltscale":1.0,"visible":"1","thickness":0.0,"ext":"(3:0,0,1)","height":2.4,"text":"800","angle":357.40786,"widthscale":1.0,"oblique":0.0,"style":"STYLE2","textgen":"0","alignh":"0","alignv":"0","interlin":-1.0},"geometry":{"type":"Point","coordinates":[52.420427419663433,29.831173465946073]}},{"type":"Feature","properties":{"fid":571.0,"handle":"4861","block":"-1","etype":"25","space":"0","layer":"Masahat","olinetype":"bylayer","linetype":null,"color":"byblock","ocolor":"0","color24":"-1","transparen":"0","lweight":"0","linewidth":0.0,"ltscale":1.0,"visible":"1","thickness":0.0,"ext":"(3:0,0,1)","height":2.4,"text":"800","angle":357.40786,"widthscale":1.0,"oblique":0.0,"style":"STYLE2","textgen":"0","alignh":"0","alignv":"0","interlin":-1.0},"geometry":{"type":"Point","coordinates":[52.420603006179903,29.831470209216924]}},{"type":"Feature","properties":{"fid":572.0,"handle":"4862","block":"-1","etype":"25","space":"0","layer":"Masahat","olinetype":"bylayer","linetype":null,"color":"byblock","ocolor":"0","color24":"-1","transparen":"0","lweight":"0","linewidth":0.0,"ltscale":1.0,"visible":"1","thickness":0.0,"ext":"(3:0,0,1)","height":2.4,"text":"800","angle":357.40786,"widthscale":1.0,"oblique":0.0,"style":"STYLE2","textgen":"0","alignh":"0","alignv":"0","interlin":-1.0},"geometry":{"type":"Point","coordinates":[52.419803226479189,29.830113633657206]}},{"type":"Feature","properties":{"fid":573.0,"handle":"4863","block":"-1","etype":"25","space":"0","layer":"Masahat","olinetype":"bylayer","linetype":null,"color":"byblock","ocolor":"0","color24":"-1","transparen":"0","lweight":"0","linewidth":0.0,"ltscale":1.0,"visible":"1","thickness":0.0,"ext":"(3:0,0,1)","height":2.4,"text":"800","angle":357.40786,"widthscale":1.0,"oblique":0.0,"style":"STYLE2","textgen":"0","alignh":"0","alignv":"0","interlin":-1.0},"geometry":{"type":"Point","coordinates":[52.419996126076974,29.830386469759933]}},{"type":"Feature","properties":{"fid":574.0,"handle":"4864","block":"-1","etype":"25","space":"0","layer":"Masahat","olinetype":"bylayer","linetype":null,"color":"byblock","ocolor":"0","color24":"-1","transparen":"0","lweight":"0","linewidth":0.0,"ltscale":1.0,"visible":"1","thickness":0.0,"ext":"(3:0,0,1)","height":2.4,"text":"800","angle":357.40786,"widthscale":1.0,"oblique":0.0,"style":"STYLE2","textgen":"0","alignh":"0","alignv":"0","interlin":-1.0},"geometry":{"type":"Point","coordinates":[52.419616011220128,29.830212640313135]}},{"type":"Feature","properties":{"fid":575.0,"handle":"4865","block":"-1","etype":"25","space":"0","layer":"Masahat","olinetype":"bylayer","linetype":null,"color":"byblock","ocolor":"0","color24":"-1","transparen":"0","lweight":"0","linewidth":0.0,"ltscale":1.0,"visible":"1","thickness":0.0,"ext":"(3:0,0,1)","height":2.4,"text":"800","angle":357.40786,"widthscale":1.0,"oblique":0.0,"style":"STYLE2","textgen":"0","alignh":"0","alignv":"0","interlin":-1.0},"geometry":{"type":"Point","coordinates":[52.419801891408667,29.830479608025577]}},{"type":"Feature","properties":{"fid":576.0,"handle":"4866","block":"-1","etype":"25","space":"0","layer":"Masahat","olinetype":"bylayer","linetype":null,"color":"byblock","ocolor":"0","color24":"-1","transparen":"0","lweight":"0","linewidth":0.0,"ltscale":1.0,"visible":"1","thickness":0.0,"ext":"(3:0,0,1)","height":2.4,"text":"800","angle":357.40786,"widthscale":1.0,"oblique":0.0,"style":"STYLE2","textgen":"0","alignh":"0","alignv":"0","interlin":-1.0},"geometry":{"type":"Point","coordinates":[52.419438175552756,29.830304954002887]}},{"type":"Feature","properties":{"fid":577.0,"handle":"4867","block":"-1","etype":"25","space":"0","layer":"Masahat","olinetype":"bylayer","linetype":null,"color":"byblock","ocolor":"0","color24":"-1","transparen":"0","lweight":"0","linewidth":0.0,"ltscale":1.0,"visible":"1","thickness":0.0,"ext":"(3:0,0,1)","height":2.4,"text":"1282.93","angle":357.40786,"widthscale":1.0,"oblique":0.0,"style":"STYLE2","textgen":"0","alignh":"0","alignv":"0","interlin":-1.0},"geometry":{"type":"Point","coordinates":[52.420471849132916,29.832322295615718]}},{"type":"Feature","properties":{"fid":578.0,"handle":"4869","block":"-1","etype":"25","space":"0","layer":"Masahat","olinetype":"bylayer","linetype":null,"color":"byblock","ocolor":"0","color24":"-1","transparen":"0","lweight":"0","linewidth":0.0,"ltscale":1.0,"visible":"1","thickness":0.0,"ext":"(3:0,0,1)","height":2.4,"text":"800","angle":357.40786,"widthscale":1.0,"oblique":0.0,"style":"STYLE2","textgen":"0","alignh":"0","alignv":"0","interlin":-1.0},"geometry":{"type":"Point","coordinates":[52.419089205623017,29.830498988847154]}},{"type":"Feature","properties":{"fid":579.0,"handle":"4870","block":"-1","etype":"25","space":"0","layer":"Masahat","olinetype":"bylayer","linetype":null,"color":"byblock","ocolor":"0","color24":"-1","transparen":"0","lweight":"0","linewidth":0.0,"ltscale":1.0,"visible":"1","thickness":0.0,"ext":"(3:0,0,1)","height":2.4,"text":"800","angle":357.40786,"widthscale":1.0,"oblique":0.0,"style":"STYLE2","textgen":"0","alignh":"0","alignv":"0","interlin":-1.0},"geometry":{"type":"Point","coordinates":[52.419260339551606,29.830397267462601]}},{"type":"Feature","properties":{"fid":580.0,"handle":"4871","block":"-1","etype":"25","space":"0","layer":"Masahat","olinetype":"bylayer","linetype":null,"color":"byblock","ocolor":"0","color24":"-1","transparen":"0","lweight":"0","linewidth":0.0,"ltscale":1.0,"visible":"1","thickness":0.0,"ext":"(3:0,0,1)","height":2.4,"text":"800","angle":357.40786,"widthscale":1.0,"oblique":0.0,"style":"STYLE2","textgen":"0","alignh":"0","alignv":"0","interlin":-1.0},"geometry":{"type":"Point","coordinates":[52.418371154539464,29.830858831310774]}},{"type":"Feature","properties":{"fid":581.0,"handle":"4930","block":"-1","etype":"25","space":"0","layer":"Masahat","olinetype":"bylayer","linetype":null,"color":"byblock","ocolor":"0","color24":"-1","transparen":"0","lweight":"0","linewidth":0.0,"ltscale":1.0,"visible":"1","thickness":0.0,"ext":"(3:0,0,1)","height":2.4,"text":"676.57","angle":357.40786,"widthscale":1.0,"oblique":0.0,"style":"STYLE2","textgen":"0","alignh":"0","alignv":"0","interlin":-1.0},"geometry":{"type":"Point","coordinates":[52.419381710116667,29.830642849134478]}},{"type":"Feature","properties":{"fid":582.0,"handle":"4931","block":"-1","etype":"25","space":"0","layer":"Masahat","olinetype":"bylayer","linetype":null,"color":"byblock","ocolor":"0","color24":"-1","transparen":"0","lweight":"0","linewidth":0.0,"ltscale":1.0,"visible":"1","thickness":0.0,"ext":"(3:0,0,1)","height":2.4,"text":"671.89","angle":357.40786,"widthscale":1.0,"oblique":0.0,"style":"STYLE2","textgen":"0","alignh":"0","alignv":"0","interlin":-1.0},"geometry":{"type":"Point","coordinates":[52.418535101709672,29.830786963544455]}},{"type":"Feature","properties":{"fid":583.0,"handle":"4932","block":"-1","etype":"25","space":"0","layer":"Masahat","olinetype":"bylayer","linetype":null,"color":"byblock","ocolor":"0","color24":"-1","transparen":"0","lweight":"0","linewidth":0.0,"ltscale":1.0,"visible":"1","thickness":0.0,"ext":"(3:0,0,1)","height":2.4,"text":"874.05","angle":357.40786,"widthscale":1.0,"oblique":0.0,"style":"STYLE2","textgen":"0","alignh":"0","alignv":"0","interlin":-1.0},"geometry":{"type":"Point","coordinates":[52.41899791147646,29.831000683995629]}},{"type":"Feature","properties":{"fid":584.0,"handle":"4933","block":"-1","etype":"25","space":"0","layer":"Masahat","olinetype":"bylayer","linetype":null,"color":"byblock","ocolor":"0","color24":"-1","transparen":"0","lweight":"0","linewidth":0.0,"ltscale":1.0,"visible":"1","thickness":0.0,"ext":"(3:0,0,1)","height":2.4,"text":"742.38","angle":357.40786,"widthscale":1.0,"oblique":0.0,"style":"STYLE2","textgen":"0","alignh":"0","alignv":"0","interlin":-1.0},"geometry":{"type":"Point","coordinates":[52.419621315820528,29.830570503599549]}},{"type":"Feature","properties":{"fid":585.0,"handle":"4941","block":"-1","etype":"25","space":"0","layer":"Masahat","olinetype":"bylayer","linetype":null,"color":"byblock","ocolor":"0","color24":"-1","transparen":"0","lweight":"0","linewidth":0.0,"ltscale":1.0,"visible":"1","thickness":0.0,"ext":"(3:0,0,1)","height":2.4,"text":"589.79","angle":357.40786,"widthscale":1.0,"oblique":0.0,"style":"STYLE2","textgen":"0","alignh":"0","alignv":"0","interlin":-1.0},"geometry":{"type":"Point","coordinates":[52.418857754300404,29.830526475233551]}},{"type":"Feature","properties":{"fid":586.0,"handle":"4957","block":"-1","etype":"25","space":"0","layer":"Masahat","olinetype":"bylayer","linetype":null,"color":"byblock","ocolor":"0","color24":"-1","transparen":"0","lweight":"0","linewidth":0.0,"ltscale":1.0,"visible":"1","thickness":0.0,"ext":"(3:0,0,1)","height":2.4,"text":"928.55","angle":357.40786,"widthscale":1.0,"oblique":0.0,"style":"STYLE2","textgen":"0","alignh":"0","alignv":"0","interlin":-1.0},"geometry":{"type":"Point","coordinates":[52.417083440937446,29.830980169059895]}},{"type":"Feature","properties":{"fid":587.0,"handle":"4959","block":"-1","etype":"25","space":"0","layer":"Masahat","olinetype":"bylayer","linetype":null,"color":"byblock","ocolor":"0","color24":"-1","transparen":"0","lweight":"0","linewidth":0.0,"ltscale":1.0,"visible":"1","thickness":0.0,"ext":"(3:0,0,1)","height":2.4,"text":"1026.13","angle":357.40786,"widthscale":1.0,"oblique":0.0,"style":"STYLE2","textgen":"0","alignh":"0","alignv":"0","interlin":-1.0},"geometry":{"type":"Point","coordinates":[52.417706266398724,29.831207520369176]}},{"type":"Feature","properties":{"fid":588.0,"handle":"4960","block":"-1","etype":"25","space":"0","layer":"Masahat","olinetype":"bylayer","linetype":null,"color":"byblock","ocolor":"0","color24":"-1","transparen":"0","lweight":"0","linewidth":0.0,"ltscale":1.0,"visible":"1","thickness":0.0,"ext":"(3:0,0,1)","height":2.4,"text":"792.54","angle":357.40786,"widthscale":1.0,"oblique":0.0,"style":"STYLE2","textgen":"0","alignh":"0","alignv":"0","interlin":-1.0},"geometry":{"type":"Point","coordinates":[52.418263450245206,29.831373704153414]}},{"type":"Feature","properties":{"fid":589.0,"handle":"4961","block":"-1","etype":"25","space":"0","layer":"Masahat","olinetype":"bylayer","linetype":null,"color":"byblock","ocolor":"0","color24":"-1","transparen":"0","lweight":"0","linewidth":0.0,"ltscale":1.0,"visible":"1","thickness":0.0,"ext":"(3:0,0,1)","height":2.4,"text":"1039.82","angle":357.40786,"widthscale":1.0,"oblique":0.0,"style":"STYLE2","textgen":"0","alignh":"0","alignv":"0","interlin":-1.0},"geometry":{"type":"Point","coordinates":[52.418697510496393,29.831077225379683]}},{"type":"Feature","properties":{"fid":590.0,"handle":"4962","block":"-1","etype":"25","space":"0","layer":"Masahat","olinetype":"bylayer","linetype":null,"color":"byblock","ocolor":"0","color24":"-1","transparen":"0","lweight":"0","linewidth":0.0,"ltscale":1.0,"visible":"1","thickness":0.0,"ext":"(3:0,0,1)","height":2.4,"text":"806.23","angle":357.40786,"widthscale":1.0,"oblique":0.0,"style":"STYLE2","textgen":"0","alignh":"0","alignv":"0","interlin":-1.0},"geometry":{"type":"Point","coordinates":[52.418141436926021,29.830907392833609]}},{"type":"Feature","properties":{"fid":591.0,"handle":"4968","block":"-1","etype":"25","space":"0","layer":"Masahat","olinetype":"bylayer","linetype":null,"color":"byblock","ocolor":"0","color24":"-1","transparen":"0","lweight":"0","linewidth":0.0,"ltscale":1.0,"visible":"1","thickness":0.0,"ext":"(3:0,0,1)","height":2.4,"text":"1001.70","angle":357.40786,"widthscale":1.0,"oblique":0.0,"style":"STYLE2","textgen":"0","alignh":"0","alignv":"0","interlin":-1.0},"geometry":{"type":"Point","coordinates":[52.418045999480086,29.830580855885426]}},{"type":"Feature","properties":{"fid":592.0,"handle":"4969","block":"-1","etype":"25","space":"0","layer":"Masahat","olinetype":"bylayer","linetype":null,"color":"byblock","ocolor":"0","color24":"-1","transparen":"0","lweight":"0","linewidth":0.0,"ltscale":1.0,"visible":"1","thickness":0.0,"ext":"(3:0,0,1)","height":2.4,"text":"1148.83","angle":357.40786,"widthscale":1.0,"oblique":0.0,"style":"STYLE2","textgen":"0","alignh":"0","alignv":"0","interlin":-1.0},"geometry":{"type":"Point","coordinates":[52.417686972902203,29.830722495439378]}},{"type":"Feature","properties":{"fid":593.0,"handle":"4986","block":"-1","etype":"25","space":"0","layer":"Masahat","olinetype":"bylayer","linetype":null,"color":"byblock","ocolor":"0","color24":"-1","transparen":"0","lweight":"0","linewidth":0.0,"ltscale":1.0,"visible":"1","thickness":0.0,"ext":"(3:0,0,1)","height":2.4,"text":"1728.71","angle":357.40786,"widthscale":1.0,"oblique":0.0,"style":"STYLE2","textgen":"0","alignh":"0","alignv":"0","interlin":-1.0},"geometry":{"type":"Point","coordinates":[52.420731513855095,29.832249180584245]}},{"type":"Feature","properties":{"fid":594.0,"handle":"4987","block":"-1","etype":"25","space":"0","layer":"Masahat","olinetype":"bylayer","linetype":null,"color":"byblock","ocolor":"0","color24":"-1","transparen":"0","lweight":"0","linewidth":0.0,"ltscale":1.0,"visible":"1","thickness":0.0,"ext":"(3:0,0,1)","height":2.4,"text":"513.74","angle":357.40786,"widthscale":1.0,"oblique":0.0,"style":"STYLE2","textgen":"0","alignh":"0","alignv":"0","interlin":-1.0},"geometry":{"type":"Point","coordinates":[52.420009493864931,29.831889606309662]}},{"type":"Feature","properties":{"fid":595.0,"handle":"4988","block":"-1","etype":"25","space":"0","layer":"Masahat","olinetype":"bylayer","linetype":null,"color":"byblock","ocolor":"0","color24":"-1","transparen":"0","lweight":"0","linewidth":0.0,"ltscale":1.0,"visible":"1","thickness":0.0,"ext":"(3:0,0,1)","height":2.4,"text":"735","angle":357.40786,"widthscale":1.0,"oblique":0.0,"style":"STYLE2","textgen":"0","alignh":"0","alignv":"0","interlin":-1.0},"geometry":{"type":"Point","coordinates":[52.419414791065307,29.83169358119881]}},{"type":"Feature","properties":{"fid":596.0,"handle":"4989","block":"-1","etype":"25","space":"0","layer":"Masahat","olinetype":"bylayer","linetype":null,"color":"byblock","ocolor":"0","color24":"-1","transparen":"0","lweight":"0","linewidth":0.0,"ltscale":1.0,"visible":"1","thickness":0.0,"ext":"(3:0,0,1)","height":2.4,"text":"1097","angle":357.40786,"widthscale":1.0,"oblique":0.0,"style":"STYLE2","textgen":"0","alignh":"0","alignv":"0","interlin":-1.0},"geometry":{"type":"Point","coordinates":[52.419839060631851,29.831436197544015]}},{"type":"Feature","properties":{"fid":601.0,"handle":"5022","block":"-1","etype":"25","space":"0","layer":"Masahat","olinetype":"bylayer","linetype":null,"color":"byblock","ocolor":"0","color24":"-1","transparen":"0","lweight":"0","linewidth":0.0,"ltscale":1.0,"visible":"1","thickness":0.0,"ext":"(3:0,0,1)","height":2.4,"text":"485","angle":357.40786,"widthscale":1.0,"oblique":0.0,"style":"STYLE2","textgen":"0","alignh":"0","alignv":"0","interlin":-1.0},"geometry":{"type":"Point","coordinates":[52.41866544334637,29.830272711892693]}},{"type":"Feature","properties":{"fid":656.0,"handle":"5201","block":"-1","etype":"25","space":"0","layer":"Masahat","olinetype":"bylayer","linetype":null,"color":"byblock","ocolor":"0","color24":"-1","transparen":"0","lweight":"0","linewidth":0.0,"ltscale":1.0,"visible":"1","thickness":0.0,"ext":"(3:0,0,1)","height":2.4,"text":"1330.67","angle":357.40786,"widthscale":1.0,"oblique":0.0,"style":"STYLE2","textgen":"0","alignh":"0","alignv":"0","interlin":-1.0},"geometry":{"type":"Point","coordinates":[52.420355712677946,29.831628531672546]}},{"type":"Feature","properties":{"fid":667.0,"handle":"5403","block":"-1","etype":"25","space":"0","layer":"Masahat","olinetype":"bylayer","linetype":null,"color":"byblock","ocolor":"0","color24":"-1","transparen":"0","lweight":"0","linewidth":0.0,"ltscale":1.0,"visible":"1","thickness":0.0,"ext":"(3:0,0,1)","height":2.4,"text":"1019.64","angle":357.40786,"widthscale":1.0,"oblique":0.0,"style":"STYLE2","textgen":"0","alignh":"0","alignv":"0","interlin":-1.0},"geometry":{"type":"Point","coordinates":[52.41647255799564,29.83127989297483]}},{"type":"Feature","properties":{"fid":668.0,"handle":"5404","block":"-1","etype":"25","space":"0","layer":"Masahat","olinetype":"bylayer","linetype":null,"color":"byblock","ocolor":"0","color24":"-1","transparen":"0","lweight":"0","linewidth":0.0,"ltscale":1.0,"visible":"1","thickness":0.0,"ext":"(3:0,0,1)","height":2.4,"text":"951.42","angle":357.40786,"widthscale":1.0,"oblique":0.0,"style":"STYLE2","textgen":"0","alignh":"0","alignv":"0","interlin":-1.0},"geometry":{"type":"Point","coordinates":[52.416648493448939,29.831187024322954]}},{"type":"Feature","properties":{"fid":669.0,"handle":"5423","block":"-1","etype":"25","space":"0","layer":"Masahat","olinetype":"bylayer","linetype":null,"color":"byblock","ocolor":"0","color24":"-1","transparen":"0","lweight":"0","linewidth":0.0,"ltscale":1.0,"visible":"1","thickness":0.0,"ext":"(3:0,0,1)","height":2.4,"text":"1635.92","angle":357.40786,"widthscale":1.0,"oblique":0.0,"style":"STYLE2","textgen":"0","alignh":"0","alignv":"0","interlin":-1.0},"geometry":{"type":"Point","coordinates":[52.416249789352662,29.831365703431686]}},{"type":"Feature","properties":{"fid":670.0,"handle":"5427","block":"-1","etype":"25","space":"0","layer":"Masahat","olinetype":"bylayer","linetype":null,"color":"byblock","ocolor":"0","color24":"-1","transparen":"0","lweight":"0","linewidth":0.0,"ltscale":1.0,"visible":"1","thickness":0.0,"ext":"(3:0,0,1)","height":2.4,"text":"800","angle":357.40786,"widthscale":1.0,"oblique":0.0,"style":"STYLE2","textgen":"0","alignh":"0","alignv":"0","interlin":-1.0},"geometry":{"type":"Point","coordinates":[52.420795317504286,29.831378452393224]}},{"type":"Feature","properties":{"fid":671.0,"handle":"5428","block":"-1","etype":"25","space":"0","layer":"Masahat","olinetype":"bylayer","linetype":null,"color":"byblock","ocolor":"0","color24":"-1","transparen":"0","lweight":"0","linewidth":0.0,"ltscale":1.0,"visible":"1","thickness":0.0,"ext":"(3:0,0,1)","height":2.4,"text":"800","angle":357.40786,"widthscale":1.0,"oblique":0.0,"style":"STYLE2","textgen":"0","alignh":"0","alignv":"0","interlin":-1.0},"geometry":{"type":"Point","coordinates":[52.420612181449208,29.831084774281216]}},{"type":"Feature","properties":{"fid":672.0,"handle":"5439","block":"-1","etype":"25","space":"0","layer":"Masahat","olinetype":"bylayer","linetype":null,"color":"byblock","ocolor":"0","color24":"-1","transparen":"0","lweight":"0","linewidth":0.0,"ltscale":1.0,"visible":"1","thickness":0.0,"ext":"(3:0,0,1)","height":2.4,"text":"800","angle":357.40786,"widthscale":1.0,"oblique":0.0,"style":"STYLE2","textgen":"0","alignh":"0","alignv":"0","interlin":-1.0},"geometry":{"type":"Point","coordinates":[52.419983125831109,29.830034803464017]}},{"type":"Feature","properties":{"fid":673.0,"handle":"5440","block":"-1","etype":"25","space":"0","layer":"Masahat","olinetype":"bylayer","linetype":null,"color":"byblock","ocolor":"0","color24":"-1","transparen":"0","lweight":"0","linewidth":0.0,"ltscale":1.0,"visible":"1","thickness":0.0,"ext":"(3:0,0,1)","height":2.4,"text":"800","angle":357.40786,"widthscale":1.0,"oblique":0.0,"style":"STYLE2","textgen":"0","alignh":"0","alignv":"0","interlin":-1.0},"geometry":{"type":"Point","coordinates":[52.420168775115926,29.830327036503324]}},{"type":"Feature","properties":{"fid":674.0,"handle":"5445","block":"-1","etype":"25","space":"0","layer":"Masahat","olinetype":"bylayer","linetype":null,"color":"byblock","ocolor":"0","color24":"-1","transparen":"0","lweight":"0","linewidth":0.0,"ltscale":1.0,"visible":"1","thickness":0.0,"ext":"(3:0,0,1)","height":2.4,"text":"800","angle":357.40786,"widthscale":1.0,"oblique":0.0,"style":"STYLE2","textgen":"0","alignh":"0","alignv":"0","interlin":-1.0},"geometry":{"type":"Point","coordinates":[52.420160960497761,29.829942489068852]}},{"type":"Feature","properties":{"fid":675.0,"handle":"5446","block":"-1","etype":"25","space":"0","layer":"Masahat","olinetype":"bylayer","linetype":null,"color":"byblock","ocolor":"0","color24":"-1","transparen":"0","lweight":"0","linewidth":0.0,"ltscale":1.0,"visible":"1","thickness":0.0,"ext":"(3:0,0,1)","height":2.4,"text":"800","angle":357.40786,"widthscale":1.0,"oblique":0.0,"style":"STYLE2","textgen":"0","alignh":"0","alignv":"0","interlin":-1.0},"geometry":{"type":"Point","coordinates":[52.420346610107153,29.830234721850701]}},{"type":"Feature","properties":{"fid":676.0,"handle":"5451","block":"-1","etype":"25","space":"0","layer":"Masahat","olinetype":"bylayer","linetype":null,"color":"byblock","ocolor":"0","color24":"-1","transparen":"0","lweight":"0","linewidth":0.0,"ltscale":1.0,"visible":"1","thickness":0.0,"ext":"(3:0,0,1)","height":2.4,"text":"800","angle":357.40786,"widthscale":1.0,"oblique":0.0,"style":"STYLE2","textgen":"0","alignh":"0","alignv":"0","interlin":-1.0},"geometry":{"type":"Point","coordinates":[52.420338794830663,29.829850174443681]}},{"type":"Feature","properties":{"fid":677.0,"handle":"5452","block":"-1","etype":"25","space":"0","layer":"Masahat","olinetype":"bylayer","linetype":null,"color":"byblock","ocolor":"0","color24":"-1","transparen":"0","lweight":"0","linewidth":0.0,"ltscale":1.0,"visible":"1","thickness":0.0,"ext":"(3:0,0,1)","height":2.4,"text":"800","angle":357.40786,"widthscale":1.0,"oblique":0.0,"style":"STYLE2","textgen":"0","alignh":"0","alignv":"0","interlin":-1.0},"geometry":{"type":"Point","coordinates":[52.420524444764609,29.830142406968061]}},{"type":"Feature","properties":{"fid":678.0,"handle":"5457","block":"-1","etype":"25","space":"0","layer":"Masahat","olinetype":"bylayer","linetype":null,"color":"byblock","ocolor":"0","color24":"-1","transparen":"0","lweight":"0","linewidth":0.0,"ltscale":1.0,"visible":"1","thickness":0.0,"ext":"(3:0,0,1)","height":2.4,"text":"800","angle":357.40786,"widthscale":1.0,"oblique":0.0,"style":"STYLE2","textgen":"0","alignh":"0","alignv":"0","interlin":-1.0},"geometry":{"type":"Point","coordinates":[52.42050817412607,29.829762248492624]}},{"type":"Feature","properties":{"fid":679.0,"handle":"5458","block":"-1","etype":"25","space":"0","layer":"Masahat","olinetype":"bylayer","linetype":null,"color":"byblock","ocolor":"0","color24":"-1","transparen":"0","lweight":"0","linewidth":0.0,"ltscale":1.0,"visible":"1","thickness":0.0,"ext":"(3:0,0,1)","height":2.4,"text":"800","angle":357.40786,"widthscale":1.0,"oblique":0.0,"style":"STYLE2","textgen":"0","alignh":"0","alignv":"0","interlin":-1.0},"geometry":{"type":"Point","coordinates":[52.420693824369152,29.830054480771775]}},{"type":"Feature","properties":{"fid":680.0,"handle":"5473","block":"-1","etype":"25","space":"0","layer":"Masahat","olinetype":"bylayer","linetype":null,"color":"byblock","ocolor":"0","color24":"-1","transparen":"0","lweight":"0","linewidth":0.0,"ltscale":1.0,"visible":"1","thickness":0.0,"ext":"(3:0,0,1)","height":2.4,"text":"978.27","angle":357.40786,"widthscale":1.0,"oblique":0.0,"style":"STYLE2","textgen":"0","alignh":"0","alignv":"0","interlin":-1.0},"geometry":{"type":"Point","coordinates":[52.421602887592037,29.831730189528031]}},{"type":"Feature","properties":{"fid":681.0,"handle":"5474","block":"-1","etype":"25","space":"0","layer":"Masahat","olinetype":"bylayer","linetype":null,"color":"byblock","ocolor":"0","color24":"-1","transparen":"0","lweight":"0","linewidth":0.0,"ltscale":1.0,"visible":"1","thickness":0.0,"ext":"(3:0,0,1)","height":2.4,"text":"865.43","angle":357.40786,"widthscale":1.0,"oblique":0.0,"style":"STYLE2","textgen":"0","alignh":"0","alignv":"0","interlin":-1.0},"geometry":{"type":"Point","coordinates":[52.421396655275075,29.831808437520944]}},{"type":"Feature","properties":{"fid":682.0,"handle":"5485","block":"-1","etype":"25","space":"0","layer":"Masahat","olinetype":"bylayer","linetype":null,"color":"byblock","ocolor":"0","color24":"-1","transparen":"0","lweight":"0","linewidth":0.0,"ltscale":1.0,"visible":"1","thickness":0.0,"ext":"(3:0,0,1)","height":2.4,"text":"800","angle":357.40786,"widthscale":1.0,"oblique":0.0,"style":"STYLE2","textgen":"0","alignh":"0","alignv":"0","interlin":-1.0},"geometry":{"type":"Point","coordinates":[52.417771385327875,29.832539285201246]}},{"type":"Feature","properties":{"fid":683.0,"handle":"5486","block":"-1","etype":"25","space":"0","layer":"Masahat","olinetype":"bylayer","linetype":null,"color":"byblock","ocolor":"0","color24":"-1","transparen":"0","lweight":"0","linewidth":0.0,"ltscale":1.0,"visible":"1","thickness":0.0,"ext":"(3:0,0,1)","height":2.4,"text":"883.23","angle":357.40786,"widthscale":1.0,"oblique":0.0,"style":"STYLE2","textgen":"0","alignh":"0","alignv":"0","interlin":-1.0},"geometry":{"type":"Point","coordinates":[52.416862495509875,29.831083734753776]}},{"type":"Feature","properties":{"fid":684.0,"handle":"5493","block":"-1","etype":"25","space":"0","layer":"Masahat","olinetype":"bylayer","linetype":null,"color":"byblock","ocolor":"0","color24":"-1","transparen":"0","lweight":"0","linewidth":0.0,"ltscale":1.0,"visible":"1","thickness":0.0,"ext":"(3:0,0,1)","height":2.4,"text":"900.00","angle":357.40786,"widthscale":1.0,"oblique":0.0,"style":"STYLE2","textgen":"0","alignh":"0","alignv":"0","interlin":-1.0},"geometry":{"type":"Point","coordinates":[52.417118967579597,29.831860158302202]}},{"type":"Feature","properties":{"fid":685.0,"handle":"5494","block":"-1","etype":"25","space":"0","layer":"Masahat","olinetype":"bylayer","linetype":null,"color":"byblock","ocolor":"0","color24":"-1","transparen":"0","lweight":"0","linewidth":0.0,"ltscale":1.0,"visible":"1","thickness":0.0,"ext":"(3:0,0,1)","height":2.4,"text":"900.00","angle":357.40786,"widthscale":1.0,"oblique":0.0,"style":"STYLE2","textgen":"0","alignh":"0","alignv":"0","interlin":-1.0},"geometry":{"type":"Point","coordinates":[52.416947172234742,29.831952980556398]}},{"type":"Feature","properties":{"fid":686.0,"handle":"5495","block":"-1","etype":"25","space":"0","layer":"Masahat","olinetype":"bylayer","linetype":null,"color":"byblock","ocolor":"0","color24":"-1","transparen":"0","lweight":"0","linewidth":0.0,"ltscale":1.0,"visible":"1","thickness":0.0,"ext":"(3:0,0,1)","height":2.4,"text":"918.46","angle":357.40786,"widthscale":1.0,"oblique":0.0,"style":"STYLE2","textgen":"0","alignh":"0","alignv":"0","interlin":-1.0},"geometry":{"type":"Point","coordinates":[52.416738240956327,29.832068956547889]}},{"type":"Feature","properties":{"fid":687.0,"handle":"5496","block":"-1","etype":"25","space":"0","layer":"Masahat","olinetype":"bylayer","linetype":null,"color":"byblock","ocolor":"0","color24":"-1","transparen":"0","lweight":"0","linewidth":0.0,"ltscale":1.0,"visible":"1","thickness":0.0,"ext":"(3:0,0,1)","height":2.4,"text":"945.44","angle":357.40786,"widthscale":1.0,"oblique":0.0,"style":"STYLE2","textgen":"0","alignh":"0","alignv":"0","interlin":-1.0},"geometry":{"type":"Point","coordinates":[52.416533543643652,29.831786250377764]}},{"type":"Feature","properties":{"fid":688.0,"handle":"5497","block":"-1","etype":"25","space":"0","layer":"Masahat","olinetype":"bylayer","linetype":null,"color":"byblock","ocolor":"0","color24":"-1","transparen":"0","lweight":"0","linewidth":0.0,"ltscale":1.0,"visible":"1","thickness":0.0,"ext":"(3:0,0,1)","height":2.4,"text":"1048.47","angle":357.40786,"widthscale":1.0,"oblique":0.0,"style":"STYLE2","textgen":"0","alignh":"0","alignv":"0","interlin":-1.0},"geometry":{"type":"Point","coordinates":[52.417628433711904,29.832637408605812]}},{"type":"Feature","properties":{"fid":689.0,"handle":"5498","block":"-1","etype":"25","space":"0","layer":"Masahat","olinetype":"bylayer","linetype":null,"color":"byblock","ocolor":"0","color24":"-1","transparen":"0","lweight":"0","linewidth":0.0,"ltscale":1.0,"visible":"1","thickness":0.0,"ext":"(3:0,0,1)","height":2.4,"text":"966.88","angle":357.40786,"widthscale":1.0,"oblique":0.0,"style":"STYLE2","textgen":"0","alignh":"0","alignv":"0","interlin":-1.0},"geometry":{"type":"Point","coordinates":[52.417449698185919,29.832694050039322]}},{"type":"Feature","properties":{"fid":690.0,"handle":"5499","block":"-1","etype":"25","space":"0","layer":"Masahat","olinetype":"bylayer","linetype":null,"color":"byblock","ocolor":"0","color24":"-1","transparen":"0","lweight":"0","linewidth":0.0,"ltscale":1.0,"visible":"1","thickness":0.0,"ext":"(3:0,0,1)","height":2.4,"text":"932.49","angle":357.40786,"widthscale":1.0,"oblique":0.0,"style":"STYLE2","textgen":"0","alignh":"0","alignv":"0","interlin":-1.0},"geometry":{"type":"Point","coordinates":[52.417238410453578,29.832754709808555]}},{"type":"Feature","properties":{"fid":691.0,"handle":"5500","block":"-1","etype":"25","space":"0","layer":"Masahat","olinetype":"bylayer","linetype":null,"color":"byblock","ocolor":"0","color24":"-1","transparen":"0","lweight":"0","linewidth":0.0,"ltscale":1.0,"visible":"1","thickness":0.0,"ext":"(3:0,0,1)","height":2.4,"text":"840.00","angle":357.40786,"widthscale":1.0,"oblique":0.0,"style":"STYLE2","textgen":"0","alignh":"0","alignv":"0","interlin":-1.0},"geometry":{"type":"Point","coordinates":[52.420771898551045,29.830988564698931]}},{"type":"Feature","properties":{"fid":692.0,"handle":"5501","block":"-1","etype":"25","space":"0","layer":"Masahat","olinetype":"bylayer","linetype":null,"color":"byblock","ocolor":"0","color24":"-1","transparen":"0","lweight":"0","linewidth":0.0,"ltscale":1.0,"visible":"1","thickness":0.0,"ext":"(3:0,0,1)","height":2.4,"text":"840.00","angle":357.40786,"widthscale":1.0,"oblique":0.0,"style":"STYLE2","textgen":"0","alignh":"0","alignv":"0","interlin":-1.0},"geometry":{"type":"Point","coordinates":[52.420964018847897,29.830891517196715]}},{"type":"Feature","properties":{"fid":693.0,"handle":"5502","block":"-1","etype":"25","space":"0","layer":"Masahat","olinetype":"bylayer","linetype":null,"color":"byblock","ocolor":"0","color24":"-1","transparen":"0","lweight":"0","linewidth":0.0,"ltscale":1.0,"visible":"1","thickness":0.0,"ext":"(3:0,0,1)","height":2.4,"text":"840.00","angle":357.40786,"widthscale":1.0,"oblique":0.0,"style":"STYLE2","textgen":"0","alignh":"0","alignv":"0","interlin":-1.0},"geometry":{"type":"Point","coordinates":[52.421161913255176,29.830798401919903]}},{"type":"Feature","properties":{"fid":694.0,"handle":"5503","block":"-1","etype":"25","space":"0","layer":"Masahat","olinetype":"bylayer","linetype":null,"color":"byblock","ocolor":"0","color24":"-1","transparen":"0","lweight":"0","linewidth":0.0,"ltscale":1.0,"visible":"1","thickness":0.0,"ext":"(3:0,0,1)","height":2.4,"text":"926.32","angle":357.40786,"widthscale":1.0,"oblique":0.0,"style":"STYLE2","textgen":"0","alignh":"0","alignv":"0","interlin":-1.0},"geometry":{"type":"Point","coordinates":[52.421338258449843,29.83069690823363]}},{"type":"Feature","properties":{"fid":695.0,"handle":"5504","block":"-1","etype":"25","space":"0","layer":"Masahat","olinetype":"bylayer","linetype":null,"color":"byblock","ocolor":"0","color24":"-1","transparen":"0","lweight":"0","linewidth":0.0,"ltscale":1.0,"visible":"1","thickness":0.0,"ext":"(3:0,0,1)","height":2.4,"text":"840.00","angle":357.40786,"widthscale":1.0,"oblique":0.0,"style":"STYLE2","textgen":"0","alignh":"0","alignv":"0","interlin":-1.0},"geometry":{"type":"Point","coordinates":[52.421120987958069,29.831216098641768]}},{"type":"Feature","properties":{"fid":696.0,"handle":"5505","block":"-1","etype":"25","space":"0","layer":"Masahat","olinetype":"bylayer","linetype":null,"color":"byblock","ocolor":"0","color24":"-1","transparen":"0","lweight":"0","linewidth":0.0,"ltscale":1.0,"visible":"1","thickness":0.0,"ext":"(3:0,0,1)","height":2.4,"text":"1211.44","angle":357.40786,"widthscale":1.0,"oblique":0.0,"style":"STYLE2","textgen":"0","alignh":"0","alignv":"0","interlin":-1.0},"geometry":{"type":"Point","coordinates":[52.421356862101142,29.831085602792587]}},{"type":"Feature","properties":{"fid":697.0,"handle":"5506","block":"-1","etype":"25","space":"0","layer":"Masahat","olinetype":"bylayer","linetype":null,"color":"byblock","ocolor":"0","color24":"-1","transparen":"0","lweight":"0","linewidth":0.0,"ltscale":1.0,"visible":"1","thickness":0.0,"ext":"(3:0,0,1)","height":2.4,"text":"840.00","angle":357.40786,"widthscale":1.0,"oblique":0.0,"style":"STYLE2","textgen":"0","alignh":"0","alignv":"0","interlin":-1.0},"geometry":{"type":"Point","coordinates":[52.420952778541519,29.831310363139515]}},{"type":"Feature","properties":{"fid":698.0,"handle":"5524","block":"-1","etype":"25","space":"0","layer":"Masahat","olinetype":"bylayer","linetype":null,"color":"byblock","ocolor":"0","color24":"-1","transparen":"0","lweight":"0","linewidth":0.0,"ltscale":1.0,"visible":"1","thickness":0.0,"ext":"(3:0,0,1)","height":2.4,"text":"935.11","angle":357.40786,"widthscale":1.0,"oblique":0.0,"style":"STYLE2","textgen":"0","alignh":"0","alignv":"0","interlin":-1.0},"geometry":{"type":"Point","coordinates":[52.421161936474384,29.831855935709445]}},{"type":"Feature","properties":{"fid":699.0,"handle":"5525","block":"-1","etype":"25","space":"0","layer":"Masahat","olinetype":"bylayer","linetype":null,"color":"byblock","ocolor":"0","color24":"-1","transparen":"0","lweight":"0","linewidth":0.0,"ltscale":1.0,"visible":"1","thickness":0.0,"ext":"(3:0,0,1)","height":2.4,"text":"800","angle":357.40786,"widthscale":1.0,"oblique":0.0,"style":"STYLE2","textgen":"0","alignh":"0","alignv":"0","interlin":-1.0},"geometry":{"type":"Point","coordinates":[52.417138154761737,29.83152792721555]}},{"type":"Feature","properties":{"fid":700.0,"handle":"5526","block":"-1","etype":"25","space":"0","layer":"Masahat","olinetype":"bylayer","linetype":null,"color":"byblock","ocolor":"0","color24":"-1","transparen":"0","lweight":"0","linewidth":0.0,"ltscale":1.0,"visible":"1","thickness":0.0,"ext":"(3:0,0,1)","height":2.4,"text":"800","angle":357.40786,"widthscale":1.0,"oblique":0.0,"style":"STYLE2","textgen":"0","alignh":"0","alignv":"0","interlin":-1.0},"geometry":{"type":"Point","coordinates":[52.417321166486651,29.831782435624969]}},{"type":"Feature","properties":{"fid":701.0,"handle":"5527","block":"-1","etype":"25","space":"0","layer":"Masahat","olinetype":"bylayer","linetype":null,"color":"byblock","ocolor":"0","color24":"-1","transparen":"0","lweight":"0","linewidth":0.0,"ltscale":1.0,"visible":"1","thickness":0.0,"ext":"(3:0,0,1)","height":2.4,"text":"900.00","angle":357.40786,"widthscale":1.0,"oblique":0.0,"style":"STYLE2","textgen":"0","alignh":"0","alignv":"0","interlin":-1.0},"geometry":{"type":"Point","coordinates":[52.416941806076736,29.831593169188451]}},{"type":"Feature","properties":{"fid":702.0,"handle":"5528","block":"-1","etype":"25","space":"0","layer":"Masahat","olinetype":"bylayer","linetype":null,"color":"byblock","ocolor":"0","color24":"-1","transparen":"0","lweight":"0","linewidth":0.0,"ltscale":1.0,"visible":"1","thickness":0.0,"ext":"(3:0,0,1)","height":2.4,"text":"900.00","angle":357.40786,"widthscale":1.0,"oblique":0.0,"style":"STYLE2","textgen":"0","alignh":"0","alignv":"0","interlin":-1.0},"geometry":{"type":"Point","coordinates":[52.416759882788206,29.831685563057601]}},{"type":"Feature","properties":{"fid":703.0,"handle":"5534","block":"-1","etype":"25","space":"0","layer":"Masahat","olinetype":"bylayer","linetype":null,"color":"byblock","ocolor":"0","color24":"-1","transparen":"0","lweight":"0","linewidth":0.0,"ltscale":1.0,"visible":"1","thickness":0.0,"ext":"(3:0,0,1)","height":2.4,"text":"1172.86","angle":357.40786,"widthscale":1.0,"oblique":0.0,"style":"STYLE2","textgen":"0","alignh":"0","alignv":"0","interlin":-1.0},"geometry":{"type":"Point","coordinates":[52.420293406966799,29.832410706593627]}},{"type":"Feature","properties":{"fid":704.0,"handle":"5535","block":"-1","etype":"25","space":"0","layer":"Masahat","olinetype":"bylayer","linetype":null,"color":"byblock","ocolor":"0","color24":"-1","transparen":"0","lweight":"0","linewidth":0.0,"ltscale":1.0,"visible":"1","thickness":0.0,"ext":"(3:0,0,1)","height":2.4,"text":"1146.61","angle":357.40786,"widthscale":1.0,"oblique":0.0,"style":"STYLE2","textgen":"0","alignh":"0","alignv":"0","interlin":-1.0},"geometry":{"type":"Point","coordinates":[52.418092167327117,29.832690616194313]}},{"type":"Feature","properties":{"fid":705.0,"handle":"5539","block":"-1","etype":"25","space":"0","layer":"Masahat","olinetype":"bylayer","linetype":null,"color":"byblock","ocolor":"0","color24":"-1","transparen":"0","lweight":"0","linewidth":0.0,"ltscale":1.0,"visible":"1","thickness":0.0,"ext":"(3:0,0,1)","height":2.4,"text":"1078.99","angle":357.40786,"widthscale":1.0,"oblique":0.0,"style":"STYLE2","textgen":"0","alignh":"0","alignv":"0","interlin":-1.0},"geometry":{"type":"Point","coordinates":[52.420103571834673,29.832497641097344]}},{"type":"Feature","properties":{"fid":706.0,"handle":"5540","block":"-1","etype":"25","space":"0","layer":"Masahat","olinetype":"bylayer","linetype":null,"color":"byblock","ocolor":"0","color24":"-1","transparen":"0","lweight":"0","linewidth":0.0,"ltscale":1.0,"visible":"1","thickness":0.0,"ext":"(3:0,0,1)","height":2.4,"text":"1053.33","angle":357.40786,"widthscale":1.0,"oblique":0.0,"style":"STYLE2","textgen":"0","alignh":"0","alignv":"0","interlin":-1.0},"geometry":{"type":"Point","coordinates":[52.419885500625604,29.832565577931053]}},{"type":"Feature","properties":{"fid":707.0,"handle":"5541","block":"-1","etype":"25","space":"0","layer":"Masahat","olinetype":"bylayer","linetype":null,"color":"byblock","ocolor":"0","color24":"-1","transparen":"0","lweight":"0","linewidth":0.0,"ltscale":1.0,"visible":"1","thickness":0.0,"ext":"(3:0,0,1)","height":2.4,"text":"1066.35","angle":357.40786,"widthscale":1.0,"oblique":0.0,"style":"STYLE2","textgen":"0","alignh":"0","alignv":"0","interlin":-1.0},"geometry":{"type":"Point","coordinates":[52.419587965830019,29.832636835971069]}}]}