{
  "type": "FeatureCollection",
  "name": "fars_bushehr_development",
  "name_fa": "ناحیه عمران فارس و بوشهر",
  "crs": {
    "type": "name",
    "properties": {
      "name": "urn:ogc:def:crs:OGC:1.3:CRS84"
    }
  },
  "features": [
    {
      "type": "Feature",
      "properties": {
        "Name": "624",
        "masahat": 313.49
      },
      "geometry": {
        "type": "MultiPolygon",
        "coordinates": [
          [
            [
              [
                52.44801422555879,
                29.82917343944536,
                0.0
              ],
              [
                52.448004846411,
                29.82916261044739,
                0.0
              ],
              [
                52.44810715977047,
                29.82896150540984,
                0.0
              ],
              [
                52.44820163436862,
                29.82899804652904,
                0.0
              ],
              [
                52.44807540886122,
                29.82924615399775,
                0.0
              ],
              [
                52.44804257695902,
                29.82920425656889,
                0.0
              ],
              [
                52.44801422555879,
                29.82917343944536,
                0.0
              ]
            ]
          ]
        ]
      }
    },
    {
      "type": "Feature",
      "properties": {
        "Name": "625",
        "masahat": 394.36
      },
      "geometry": {
        "type": "MultiPolygon",
        "coordinates": [
          [
            [
              [
                52.44821229307166,
                29.82919934048024,
                0.0
              ],
              [
                52.44813310708216,
                29.82935498760842,
                0.0
              ],
              [
                52.44812731622629,
                29.82934030690051,
                0.0
              ],
              [
                52.4481210195042,
                29.82932578333135,
                0.0
              ],
              [
                52.4481142254281,
                29.82931143304964,
                0.0
              ],
              [
                52.44810693308055,
                29.82929726418633,
                0.0
              ],
              [
                52.44809967842931,
                29.82928420207776,
                0.0
              ],
              [
                52.44809199898565,
                29.82927132148425,
                0.0
              ],
              [
                52.44808390943113,
                29.82925863577985,
                0.0
              ],
              [
                52.44807540886122,
                29.82924615399775,
                0.0
              ],
              [
                52.44820163436862,
                29.82899804652904,
                0.0
              ],
              [
                52.44829611421982,
                29.8290345884236,
                0.0
              ],
              [
                52.44821229307166,
                29.82919934048024,
                0.0
              ]
            ]
          ]
        ]
      }
    },
    {
      "type": "Feature",
      "properties": {
        "Name": "627",
        "masahat": 230.85
      },
      "geometry": {
        "type": "MultiPolygon",
        "coordinates": [
          [
            [
              [
                52.44838913615143,
                29.82907056874017,
                0.0
              ],
              [
                52.44839059105925,
                29.82907113208649,
                0.0
              ],
              [
                52.4483693467594,
                29.82911288882897,
                0.0
              ],
              [
                52.44830677209737,
                29.82923588327317,
                0.0
              ],
              [
                52.44821229307166,
                29.82919934048024,
                0.0
              ],
              [
                52.44829611421982,
                29.8290345884236,
                0.0
              ],
              [
                52.44838913615143,
                29.82907056874017,
                0.0
              ]
            ]
          ]
        ]
      }
    },
    {
      "type": "Feature",
      "properties": {
        "Name": "626",
        "masahat": 291.23
      },
      "geometry": {
        "type": "MultiPolygon",
        "coordinates": [
          [
            [
              [
                52.44818216168388,
                29.82948080772541,
                0.0
              ],
              [
                52.44816027775782,
                29.82947234281774,
                0.0
              ],
              [
                52.44815852524129,
                29.82945674166394,
                0.0
              ],
              [
                52.44815622500587,
                29.82944119433933,
                0.0
              ],
              [
                52.44815338449014,
                29.82942571429739,
                0.0
              ],
              [
                52.44814939546995,
                29.82940781053584,
                0.0
              ],
              [
                52.44814468805924,
                29.82939003827097,
                0.0
              ],
              [
                52.44813925334913,
                29.82937242557281,
                0.0
              ],
              [
                52.44813310708216,
                29.82935498760842,
                0.0
              ],
              [
                52.44821229307166,
                29.82919934048024,
                0.0
              ],
              [
                52.44830677209737,
                29.82923588327317,
                0.0
              ],
              [
                52.44818216168388,
                29.82948080772541,
                0.0
              ]
            ]
          ]
        ]
      }
    },
    {
      "type": "Feature",
      "properties": {
        "Name": "638",
        "masahat": 465.97
      },
      "geometry": {
        "type": "MultiPolygon",
        "coordinates": [
          [
            [
              [
                52.44913384232486,
                29.8287380991556,
                0.0
              ],
              [
                52.44925851344507,
                29.82873752170894,
                0.0
              ],
              [
                52.44919596116996,
                29.82886047028658,
                0.0
              ],
              [
                52.44911214064793,
                29.82902522468001,
                0.0
              ],
              [
                52.44909433137848,
                29.82906023406257,
                0.0
              ],
              [
                52.44899040478548,
                29.82902003904877,
                0.0
              ],
              [
                52.44913384232486,
                29.8287380991556,
                0.0
              ]
            ]
          ]
        ]
      }
    },
    {
      "type": "Feature",
      "properties": {
        "Name": "642",
        "masahat": 444.37
      },
      "geometry": {
        "type": "MultiPolygon",
        "coordinates": [
          [
            [
              [
                52.44884372300255,
                29.82930835510724,
                0.0
              ],
              [
                52.4489694526711,
                29.82906122781349,
                0.0
              ],
              [
                52.44899040478548,
                29.82902003904877,
                0.0
              ],
              [
                52.44909433137848,
                29.82906023406257,
                0.0
              ],
              [
                52.44907442274699,
                29.8290993621858,
                0.0
              ],
              [
                52.44894764881075,
                29.82934855023811,
                0.0
              ],
              [
                52.44884372300255,
                29.82930835510724,
                0.0
              ]
            ]
          ]
        ]
      }
    },
    {
      "type": "Feature",
      "properties": {
        "Name": "637",
        "masahat": 426.78
      },
      "geometry": {
        "type": "MultiPolygon",
        "coordinates": [
          [
            [
              [
                52.44902050769579,
                29.82873862610757,
                0.0
              ],
              [
                52.44913384232486,
                29.8287380991556,
                0.0
              ],
              [
                52.44899040478548,
                29.82902003904877,
                0.0
              ],
              [
                52.4489694526711,
                29.82906122781349,
                0.0
              ],
              [
                52.44887497359225,
                29.82902468549636,
                0.0
              ],
              [
                52.44902050769579,
                29.82873862610757,
                0.0
              ]
            ]
          ]
        ]
      }
    },
    {
      "type": "Feature",
      "properties": {
        "Name": "643",
        "masahat": 346.27
      },
      "geometry": {
        "type": "MultiPolygon",
        "coordinates": [
          [
            [
              [
                52.44874924684616,
                29.82927181357589,
                0.0
              ],
              [
                52.44887497359225,
                29.82902468549636,
                0.0
              ],
              [
                52.4489694526711,
                29.82906122781349,
                0.0
              ],
              [
                52.44884372300255,
                29.82930835510724,
                0.0
              ],
              [
                52.44874924684616,
                29.82927181357589,
                0.0
              ]
            ]
          ]
        ]
      }
    },
    {
      "type": "Feature",
      "properties": {
        "Name": "636",
        "masahat": 374.84
      },
      "geometry": {
        "type": "MultiPolygon",
        "coordinates": [
          [
            [
              [
                52.44890717405693,
                29.82873915024434,
                0.0
              ],
              [
                52.44902050769579,
                29.82873862610757,
                0.0
              ],
              [
                52.44887497359225,
                29.82902468549636,
                0.0
              ],
              [
                52.44878049769699,
                29.82898814397727,
                0.0
              ],
              [
                52.44890717405693,
                29.82873915024434,
                0.0
              ]
            ]
          ]
        ]
      }
    },
    {
      "type": "Feature",
      "properties": {
        "Name": "644",
        "masahat": 346.26
      },
      "geometry": {
        "type": "MultiPolygon",
        "coordinates": [
          [
            [
              [
                52.44865476970839,
                29.82923527108358,
                0.0
              ],
              [
                52.44878049769699,
                29.82898814397727,
                0.0
              ],
              [
                52.44887497359225,
                29.82902468549636,
                0.0
              ],
              [
                52.44874924684616,
                29.82927181357589,
                0.0
              ],
              [
                52.44865476970839,
                29.82923527108358,
                0.0
              ]
            ]
          ]
        ]
      }
    },
    {
      "type": "Feature",
      "properties": {
        "Name": "635",
        "masahat": 322.91
      },
      "geometry": {
        "type": "MultiPolygon",
        "coordinates": [
          [
            [
              [
                52.44879383836917,
                29.828739676111,
                0.0
              ],
              [
                52.44890717405693,
                29.82873915024434,
                0.0
              ],
              [
                52.44878049769699,
                29.82898814397727,
                0.0
              ],
              [
                52.44868601979865,
                29.82895160241079,
                0.0
              ],
              [
                52.44879383836917,
                29.828739676111,
                0.0
              ]
            ]
          ]
        ]
      }
    },
    {
      "type": "Feature",
      "properties": {
        "Name": "597",
        "masahat": 373.05
      },
      "geometry": {
        "type": "MultiPolygon",
        "coordinates": [
          [
            [
              [
                52.4484437428661,
                29.82837376035668,
                0.0
              ],
              [
                52.44854690179369,
                29.82834107339451,
                0.0
              ],
              [
                52.44854767503867,
                29.82846820792209,
                0.0
              ],
              [
                52.4485487775665,
                29.82864844141497,
                0.0
              ],
              [
                52.44844542174786,
                29.82864891888853,
                0.0
              ],
              [
                52.4484437428661,
                29.82837376035668,
                0.0
              ]
            ]
          ]
        ]
      }
    },
    {
      "type": "Feature",
      "properties": {
        "Name": "596",
        "masahat": 334.13
      },
      "geometry": {
        "type": "MultiPolygon",
        "coordinates": [
          [
            [
              [
                52.44834206699844,
                29.82864939897645,
                0.0
              ],
              [
                52.44834056439412,
                29.82840280110662,
                0.0
              ],
              [
                52.4484437428661,
                29.82837376035668,
                0.0
              ],
              [
                52.44844542174786,
                29.82864891888853,
                0.0
              ],
              [
                52.44834206699844,
                29.82864939897645,
                0.0
              ]
            ]
          ]
        ]
      }
    },
    {
      "type": "Feature",
      "properties": {
        "Name": "595",
        "masahat": 299.71
      },
      "geometry": {
        "type": "MultiPolygon",
        "coordinates": [
          [
            [
              [
                52.44823871430089,
                29.82864987805862,
                0.0
              ],
              [
                52.44823736506677,
                29.82842846275045,
                0.0
              ],
              [
                52.44834056439412,
                29.82840280110662,
                0.0
              ],
              [
                52.44834206699844,
                29.82864939897645,
                0.0
              ],
              [
                52.44823871430089,
                29.82864987805862,
                0.0
              ]
            ]
          ]
        ]
      }
    },
    {
      "type": "Feature",
      "properties": {
        "Name": "594",
        "masahat": 269.5
      },
      "geometry": {
        "type": "MultiPolygon",
        "coordinates": [
          [
            [
              [
                52.44813414416507,
                29.82845083823662,
                0.0
              ],
              [
                52.44823001909439,
                29.82843016118839,
                0.0
              ],
              [
                52.44823736506677,
                29.82842846275045,
                0.0
              ],
              [
                52.44823871430089,
                29.82864987805862,
                0.0
              ],
              [
                52.44813535950333,
                29.82865035527822,
                0.0
              ],
              [
                52.44813414416507,
                29.82845083823662,
                0.0
              ]
            ]
          ]
        ]
      }
    },
    {
      "type": "Feature",
      "properties": {
        "Name": "593",
        "masahat": 243.77
      },
      "geometry": {
        "type": "MultiPolygon",
        "coordinates": [
          [
            [
              [
                52.44803200578798,
                29.8286508360144,
                0.0
              ],
              [
                52.44803090263739,
                29.82846970557932,
                0.0
              ],
              [
                52.44813414416507,
                29.82845083823662,
                0.0
              ],
              [
                52.44813535950333,
                29.82865035527822,
                0.0
              ],
              [
                52.44803200578798,
                29.8286508360144,
                0.0
              ]
            ]
          ]
        ]
      }
    },
    {
      "type": "Feature",
      "properties": {
        "Name": "592",
        "masahat": 221.83
      },
      "geometry": {
        "type": "MultiPolygon",
        "coordinates": [
          [
            [
              [
                52.44792764634475,
                29.82848604465307,
                0.0
              ],
              [
                52.44803090263739,
                29.82846970557932,
                0.0
              ],
              [
                52.44803200578798,
                29.8286508360144,
                0.0
              ],
              [
                52.44792865306378,
                29.8286513139518,
                0.0
              ],
              [
                52.44792764634475,
                29.82848604465307,
                0.0
              ]
            ]
          ]
        ]
      }
    },
    {
      "type": "Feature",
      "properties": {
        "Name": "591",
        "masahat": 203.69
      },
      "geometry": {
        "type": "MultiPolygon",
        "coordinates": [
          [
            [
              [
                52.44792865306378,
                29.8286513139518,
                0.0
              ],
              [
                52.44792166492012,
                29.82865134634391,
                0.0
              ],
              [
                52.44789741907289,
                29.82865145873571,
                0.0
              ],
              [
                52.44784472806823,
                29.82865170246776,
                0.0
              ],
              [
                52.44782529931332,
                29.82865179272188,
                0.0
              ],
              [
                52.44782437010195,
                29.82849899287942,
                0.0
              ],
              [
                52.44785192696588,
                29.82849553804101,
                0.0
              ],
              [
                52.44788691538209,
                29.82849115172969,
                0.0
              ],
              [
                52.44792678274605,
                29.82848615337732,
                0.0
              ],
              [
                52.44792764634475,
                29.82848604465307,
                0.0
              ],
              [
                52.44792865306378,
                29.8286513139518,
                0.0
              ]
            ]
          ]
        ]
      }
    },
    {
      "type": "Feature",
      "properties": {
        "Name": "590",
        "masahat": 198.2
      },
      "geometry": {
        "type": "MultiPolygon",
        "coordinates": [
          [
            [
              [
                52.44782529931332,
                29.82865179272188,
                0.0
              ],
              [
                52.44782367051106,
                29.82865180065046,
                0.0
              ],
              [
                52.44772710517204,
                29.82865224734145,
                0.0
              ],
              [
                52.44770358394405,
                29.82851469829393,
                0.0
              ],
              [
                52.44782311919671,
                29.82849915547707,
                0.0
              ],
              [
                52.44782437010195,
                29.82849899287942,
                0.0
              ],
              [
                52.44782529931332,
                29.82865179272188,
                0.0
              ]
            ]
          ]
        ]
      }
    },
    {
      "type": "Feature",
      "properties": {
        "Name": "633",
        "masahat": 330.61
      },
      "geometry": {
        "type": "MultiPolygon",
        "coordinates": [
          [
            [
              [
                52.44810532612914,
                29.82874286559185,
                0.0
              ],
              [
                52.44801268005206,
                29.82892496337508,
                0.0
              ],
              [
                52.447885165556,
                29.82887564265981,
                0.0
              ],
              [
                52.44791126292537,
                29.82874376412783,
                0.0
              ],
              [
                52.44810532612914,
                29.82874286559185,
                0.0
              ]
            ]
          ]
        ]
      }
    },
    {
      "type": "Feature",
      "properties": {
        "Name": "632",
        "masahat": 281.12
      },
      "geometry": {
        "type": "MultiPolygon",
        "coordinates": [
          [
            [
              [
                52.44821866084145,
                29.82874234213167,
                0.0
              ],
              [
                52.44810715977047,
                29.82896150540984,
                0.0
              ],
              [
                52.44801268005206,
                29.82892496337508,
                0.0
              ],
              [
                52.44810532612914,
                29.82874286559185,
                0.0
              ],
              [
                52.44821866084145,
                29.82874234213167,
                0.0
              ]
            ]
          ]
        ]
      }
    },
    {
      "type": "Feature",
      "properties": {
        "Name": "631",
        "masahat": 333.05
      },
      "geometry": {
        "type": "MultiPolygon",
        "coordinates": [
          [
            [
              [
                52.44833199757871,
                29.82874181584496,
                0.0
              ],
              [
                52.44820163436862,
                29.82899804652904,
                0.0
              ],
              [
                52.44810715977047,
                29.82896150540984,
                0.0
              ],
              [
                52.44821866084145,
                29.82874234213167,
                0.0
              ],
              [
                52.44833199757871,
                29.82874181584496,
                0.0
              ]
            ]
          ]
        ]
      }
    },
    {
      "type": "Feature",
      "properties": {
        "Name": "630",
        "masahat": 384.99
      },
      "geometry": {
        "type": "MultiPolygon",
        "coordinates": [
          [
            [
              [
                52.44844533021061,
                29.828741292213,
                0.0
              ],
              [
                52.44837993301995,
                29.82886983543949,
                0.0
              ],
              [
                52.44829611421982,
                29.8290345884236,
                0.0
              ],
              [
                52.44820163436862,
                29.82899804652904,
                0.0
              ],
              [
                52.44833199757871,
                29.82874181584496,
                0.0
              ],
              [
                52.44844533021061,
                29.828741292213,
                0.0
              ]
            ]
          ]
        ]
      }
    },
    {
      "type": "Feature",
      "properties": {
        "Name": "609",
        "masahat": 370.17
      },
      "geometry": {
        "type": "MultiPolygon",
        "coordinates": [
          [
            [
              [
                52.44914630396585,
                29.82833025378386,
                0.0
              ],
              [
                52.44914472743564,
                29.82807185509227,
                0.0
              ],
              [
                52.44919657959979,
                29.82804111742718,
                0.0
              ],
              [
                52.4492477023207,
                29.82800946014275,
                0.0
              ],
              [
                52.44924888689785,
                29.82820361217437,
                0.0
              ],
              [
                52.44924938062292,
                29.82828471608784,
                0.0
              ],
              [
                52.4492496573595,
                29.8283297757955,
                0.0
              ],
              [
                52.44914630396585,
                29.82833025378386,
                0.0
              ]
            ]
          ]
        ]
      }
    },
    {
      "type": "Feature",
      "properties": {
        "Name": "610",
        "masahat": 351.96
      },
      "geometry": {
        "type": "MultiPolygon",
        "coordinates": [
          [
            [
              [
                52.44904322413449,
                29.82837579324068,
                0.0
              ],
              [
                52.44904171954185,
                29.82812903120437,
                0.0
              ],
              [
                52.44909355025929,
                29.82810089074194,
                0.0
              ],
              [
                52.44914472743564,
                29.82807185509227,
                0.0
              ],
              [
                52.44914630396585,
                29.82833025378386,
                0.0
              ],
              [
                52.44914657857473,
                29.82837531261348,
                0.0
              ],
              [
                52.44904322413449,
                29.82837579324068,
                0.0
              ]
            ]
          ]
        ]
      }
    },
    {
      "type": "Feature",
      "properties": {
        "Name": "611",
        "masahat": 282.46
      },
      "geometry": {
        "type": "MultiPolygon",
        "coordinates": [
          [
            [
              [
                52.44893987278085,
                29.82837627285077,
                0.0
              ],
              [
                52.44893868313994,
                29.82818137102056,
                0.0
              ],
              [
                52.44899049380797,
                29.82815563825463,
                0.0
              ],
              [
                52.44904171954185,
                29.82812903120437,
                0.0
              ],
              [
                52.44904322413449,
                29.82837579324068,
                0.0
              ],
              [
                52.44893987278085,
                29.82837627285077,
                0.0
              ]
            ]
          ]
        ]
      }
    },
    {
      "type": "Feature",
      "properties": {
        "Name": "612",
        "masahat": 277.03
      },
      "geometry": {
        "type": "MultiPolygon",
        "coordinates": [
          [
            [
              [
                52.44883679273732,
                29.8284218076399,
                0.0
              ],
              [
                52.44883561858348,
                29.82822918494087,
                0.0
              ],
              [
                52.44893868313994,
                29.82818137102056,
                0.0
              ],
              [
                52.44893987278085,
                29.82837627285077,
                0.0
              ],
              [
                52.44894014932852,
                29.82842132895434,
                0.0
              ],
              [
                52.44883679273732,
                29.8284218076399,
                0.0
              ]
            ]
          ]
        ]
      }
    },
    {
      "type": "Feature",
      "properties": {
        "Name": "613",
        "masahat": 219.12
      },
      "geometry": {
        "type": "MultiPolygon",
        "coordinates": [
          [
            [
              [
                52.44873344030649,
                29.82842228800359,
                0.0
              ],
              [
                52.44873252770853,
                29.82827274274389,
                0.0
              ],
              [
                52.44883561858348,
                29.82822918494087,
                0.0
              ],
              [
                52.44883679273732,
                29.8284218076399,
                0.0
              ],
              [
                52.44873344030649,
                29.82842228800359,
                0.0
              ]
            ]
          ]
        ]
      }
    },
    {
      "type": "Feature",
      "properties": {
        "Name": "614",
        "masahat": 203.92
      },
      "geometry": {
        "type": "MultiPolygon",
        "coordinates": [
          [
            [
              [
                52.44864069591548,
                29.82846777695119,
                0.0
              ],
              [
                52.44863972132769,
                29.82830847358517,
                0.0
              ],
              [
                52.448725219171,
                29.82827567158713,
                0.0
              ],
              [
                52.44873252770853,
                29.82827274274389,
                0.0
              ],
              [
                52.44873344030649,
                29.82842228800359,
                0.0
              ],
              [
                52.44873371470614,
                29.82846734503528,
                0.0
              ],
              [
                52.44864069591548,
                29.82846777695119,
                0.0
              ]
            ]
          ]
        ]
      }
    },
    {
      "type": "Feature",
      "properties": {
        "Name": "615",
        "masahat": 164.94
      },
      "geometry": {
        "type": "MultiPolygon",
        "coordinates": [
          [
            [
              [
                52.44854767503867,
                29.82846820792209,
                0.0
              ],
              [
                52.44854690179369,
                29.82834107339451,
                0.0
              ],
              [
                52.44856535625902,
                29.82833485782354,
                0.0
              ],
              [
                52.44863972132769,
                29.82830847358517,
                0.0
              ],
              [
                52.44864069591548,
                29.82846777695119,
                0.0
              ],
              [
                52.44854767503867,
                29.82846820792209,
                0.0
              ]
            ]
          ]
        ]
      }
    },
    {
      "type": "Feature",
      "properties": {
        "Name": "598",
        "masahat": 207.76
      },
      "geometry": {
        "type": "MultiPolygon",
        "coordinates": [
          [
            [
              [
                52.4485487775665,
                29.82864844141497,
                0.0
              ],
              [
                52.44854767503867,
                29.82846820792209,
                0.0
              ],
              [
                52.44864069591548,
                29.82846777695119,
                0.0
              ],
              [
                52.44864179445833,
                29.82864800958091,
                0.0
              ],
              [
                52.4485487775665,
                29.82864844141497,
                0.0
              ]
            ]
          ]
        ]
      }
    },
    {
      "type": "Feature",
      "properties": {
        "Name": "599",
        "masahat": 207.76
      },
      "geometry": {
        "type": "MultiPolygon",
        "coordinates": [
          [
            [
              [
                52.44864179445833,
                29.82864800958091,
                0.0
              ],
              [
                52.44864069591548,
                29.82846777695119,
                0.0
              ],
              [
                52.44873371470614,
                29.82846734503528,
                0.0
              ],
              [
                52.44873481239422,
                29.82864757857217,
                0.0
              ],
              [
                52.44864179445833,
                29.82864800958091,
                0.0
              ]
            ]
          ]
        ]
      }
    },
    {
      "type": "Feature",
      "properties": {
        "Name": "600",
        "masahat": 288.55
      },
      "geometry": {
        "type": "MultiPolygon",
        "coordinates": [
          [
            [
              [
                52.44873344030649,
                29.82842228800359,
                0.0
              ],
              [
                52.44883679273732,
                29.8284218076399,
                0.0
              ],
              [
                52.44883816711332,
                29.82864709727476,
                0.0
              ],
              [
                52.44873481239422,
                29.82864757857217,
                0.0
              ],
              [
                52.44873371470614,
                29.82846734503528,
                0.0
              ],
              [
                52.44873344030649,
                29.82842228800359,
                0.0
              ]
            ]
          ]
        ]
      }
    },
    {
      "type": "Feature",
      "properties": {
        "Name": "601",
        "masahat": 288.56
      },
      "geometry": {
        "type": "MultiPolygon",
        "coordinates": [
          [
            [
              [
                52.44883816711332,
                29.82864709727476,
                0.0
              ],
              [
                52.44883679273732,
                29.8284218076399,
                0.0
              ],
              [
                52.44894014932852,
                29.82842132895434,
                0.0
              ],
              [
                52.44894152087127,
                29.82864662132101,
                0.0
              ],
              [
                52.44883816711332,
                29.82864709727476,
                0.0
              ]
            ]
          ]
        ]
      }
    },
    {
      "type": "Feature",
      "properties": {
        "Name": "602",
        "masahat": 346.26
      },
      "geometry": {
        "type": "MultiPolygon",
        "coordinates": [
          [
            [
              [
                52.44893987278085,
                29.82837627285077,
                0.0
              ],
              [
                52.44904322413449,
                29.82837579324068,
                0.0
              ],
              [
                52.44904487455955,
                29.82864614077543,
                0.0
              ],
              [
                52.44894152087127,
                29.82864662132101,
                0.0
              ],
              [
                52.44894014932852,
                29.82842132895434,
                0.0
              ],
              [
                52.44893987278085,
                29.82837627285077,
                0.0
              ]
            ]
          ]
        ]
      }
    },
    {
      "type": "Feature",
      "properties": {
        "Name": "603",
        "masahat": 346.27
      },
      "geometry": {
        "type": "MultiPolygon",
        "coordinates": [
          [
            [
              [
                52.44904487455955,
                29.82864614077543,
                0.0
              ],
              [
                52.44904322413449,
                29.82837579324068,
                0.0
              ],
              [
                52.44914657857473,
                29.82837531261348,
                0.0
              ],
              [
                52.44914822927802,
                29.82864566013763,
                0.0
              ],
              [
                52.44904487455955,
                29.82864614077543,
                0.0
              ]
            ]
          ]
        ]
      }
    },
    {
      "type": "Feature",
      "properties": {
        "Name": "604",
        "masahat": 403.97
      },
      "geometry": {
        "type": "MultiPolygon",
        "coordinates": [
          [
            [
              [
                52.44914630396585,
                29.82833025378386,
                0.0
              ],
              [
                52.4492496573595,
                29.8283297757955,
                0.0
              ],
              [
                52.44925048125056,
                29.828464946865,
                0.0
              ],
              [
                52.44925158194851,
                29.82864518124605,
                0.0
              ],
              [
                52.44914822927802,
                29.82864566013763,
                0.0
              ],
              [
                52.44914657857473,
                29.82837531261348,
                0.0
              ],
              [
                52.44914630396585,
                29.82833025378386,
                0.0
              ]
            ]
          ]
        ]
      }
    },
    {
      "type": "Feature",
      "properties": {
        "Name": "628",
        "masahat": 230.85
      },
      "geometry": {
        "type": "MultiPolygon",
        "coordinates": [
          [
            [
              [
                52.44847440972956,
                29.82890637904747,
                0.0
              ],
              [
                52.4483915028358,
                29.8290693408732,
                0.0
              ],
              [
                52.44839059105925,
                29.82907113208649,
                0.0
              ],
              [
                52.44838913615143,
                29.82907056874017,
                0.0
              ],
              [
                52.44829611421982,
                29.8290345884236,
                0.0
              ],
              [
                52.44837993301995,
                29.82886983543949,
                0.0
              ],
              [
                52.44847440972956,
                29.82890637904747,
                0.0
              ]
            ]
          ]
        ]
      }
    },
    {
      "type": "Feature",
      "properties": {
        "Name": "629",
        "masahat": 202.07
      },
      "geometry": {
        "type": "MultiPolygon",
        "coordinates": [
          [
            [
              [
                52.44853012035863,
                29.82874089833709,
                0.0
              ],
              [
                52.44854709185901,
                29.8287635187971,
                0.0
              ],
              [
                52.44847440972956,
                29.82890637904747,
                0.0
              ],
              [
                52.44837993301995,
                29.82886983543949,
                0.0
              ],
              [
                52.44844533021061,
                29.828741292213,
                0.0
              ],
              [
                52.44853012035863,
                29.82874089833709,
                0.0
              ]
            ]
          ]
        ]
      }
    },
    {
      "type": "Feature",
      "properties": {
        "Name": "622",
        "masahat": 245.2
      },
      "geometry": {
        "type": "MultiPolygon",
        "coordinates": [
          [
            [
              [
                52.44792782907429,
                29.82909174417965,
                0.0
              ],
              [
                52.44791340685356,
                29.82908119875071,
                0.0
              ],
              [
                52.44789859535303,
                29.82907107266291,
                0.0
              ],
              [
                52.44788340818027,
                29.82906137659503,
                0.0
              ],
              [
                52.44786786204694,
                29.8290521211918,
                0.0
              ],
              [
                52.44785197986012,
                29.82904331612768,
                0.0
              ],
              [
                52.447885165556,
                29.82887564265981,
                0.0
              ],
              [
                52.44801268005206,
                29.82892496337508,
                0.0
              ],
              [
                52.44792782907429,
                29.82909174417965,
                0.0
              ]
            ]
          ]
        ]
      }
    },
    {
      "type": "Feature",
      "properties": {
        "Name": "623",
        "masahat": 255.58
      },
      "geometry": {
        "type": "MultiPolygon",
        "coordinates": [
          [
            [
              [
                52.448004846411,
                29.82916261044739,
                0.0
              ],
              [
                52.44799313652775,
                29.82914990487243,
                0.0
              ],
              [
                52.44798096171928,
                29.82913754006293,
                0.0
              ],
              [
                52.44796833048464,
                29.82912553126538,
                0.0
              ],
              [
                52.4479552553447,
                29.82911388556104,
                0.0
              ],
              [
                52.4479417489504,
                29.82910261905321,
                0.0
              ],
              [
                52.44792782907429,
                29.82909174417965,
                0.0
              ],
              [
                52.44801268005206,
                29.82892496337508,
                0.0
              ],
              [
                52.44810715977047,
                29.82896150540984,
                0.0
              ],
              [
                52.448004846411,
                29.82916261044739,
                0.0
              ]
            ]
          ]
        ]
      }
    },
    {
      "type": "Feature",
      "properties": {
        "Name": "645",
        "masahat": 346.27
      },
      "geometry": {
        "type": "MultiPolygon",
        "coordinates": [
          [
            [
              [
                52.44856028955886,
                29.82919873035963,
                0.0
              ],
              [
                52.44868601979865,
                29.82895160241079,
                0.0
              ],
              [
                52.44878049769699,
                29.82898814397727,
                0.0
              ],
              [
                52.44865476970839,
                29.82923527108358,
                0.0
              ],
              [
                52.44856028955886,
                29.82919873035963,
                0.0
              ]
            ]
          ]
        ]
      }
    },
    {
      "type": "Feature",
      "properties": {
        "Name": "634",
        "masahat": 266.3
      },
      "geometry": {
        "type": "MultiPolygon",
        "coordinates": [
          [
            [
              [
                52.44879383836917,
                29.828739676111,
                0.0
              ],
              [
                52.44868601979865,
                29.82895160241079,
                0.0
              ],
              [
                52.44859154091896,
                29.82891505988336,
                0.0
              ],
              [
                52.44866800677894,
                29.82876476251211,
                0.0
              ],
              [
                52.44871131860346,
                29.82874005788667,
                0.0
              ],
              [
                52.44879383836917,
                29.828739676111,
                0.0
              ]
            ]
          ]
        ]
      }
    },
    {
      "type": "Feature",
      "properties": {
        "Name": "646",
        "masahat": 345.12
      },
      "geometry": {
        "type": "MultiPolygon",
        "coordinates": [
          [
            [
              [
                52.44847913253966,
                29.82916734288586,
                0.0
              ],
              [
                52.44847172192299,
                29.8291505739007,
                0.0
              ],
              [
                52.44859154091896,
                29.82891505988336,
                0.0
              ],
              [
                52.44868601979865,
                29.82895160241079,
                0.0
              ],
              [
                52.44856028955886,
                29.82919873035963,
                0.0
              ],
              [
                52.44847913253966,
                29.82916734288586,
                0.0
              ]
            ]
          ]
        ]
      }
    }
  ],
  "center": [
    52.44850845702596,
    29.82876425041942
  ],
  "bounds": [
    [
      52.44770358394405,
      29.82800946014275
    ],
    [
      52.44925851344507,
      29.82948080772541
    ]
  ]
}