{
  "type": "FeatureCollection",
  "name": "sports_zone",
  "name_fa": "ناحیه تربیت بدنی",
  "crs": {
    "type": "name",
    "properties": {
      "name": "urn:ogc:def:crs:OGC:1.3:CRS84"
    }
  },
  "features": [
    {
      "type": "Feature",
      "properties": {
        "Name": "166",
        "masahat": 266.63
      },
      "geometry": {
        "type": "MultiPolygon",
        "coordinates": [
          [
            [
              [
                52.43412154310824,
                29.83000319133969,
                0.0
              ],
              [
                52.43402739642419,
                29.82983267501439,
                0.0
              ],
              [
                52.43412983812017,
                29.8297896751767,
                0.0
              ],
              [
                52.4342239829007,
                29.82996019415468,
                0.0
              ],
              [
                52.43412154310824,
                29.83000319133969,
                0.0
              ]
            ]
          ]
        ]
      }
    },
    {
      "type": "Feature",
      "properties": {
        "Name": "165",
        "masahat": 266.63
      },
      "geometry": {
        "type": "MultiPolygon",
        "coordinates": [
          [
            [
              [
                52.43401910116874,
                29.83004618937254,
                0.0
              ],
              [
                52.43392495458625,
                29.82987567116644,
                0.0
              ],
              [
                52.43402739642419,
                29.82983267501439,
                0.0
              ],
              [
                52.43412154310824,
                29.83000319133969,
                0.0
              ],
              [
                52.43401910116874,
                29.83004618937254,
                0.0
              ]
            ]
          ]
        ]
      }
    },
    {
      "type": "Feature",
      "properties": {
        "Name": "164",
        "masahat": 266.63
      },
      "geometry": {
        "type": "MultiPolygon",
        "coordinates": [
          [
            [
              [
                52.43401910116874,
                29.83004618937254,
                0.0
              ],
              [
                52.43391666016069,
                29.83008918641512,
                0.0
              ],
              [
                52.43389872916105,
                29.83005670733186,
                0.0
              ],
              [
                52.43382251474025,
                29.82991866812138,
                0.0
              ],
              [
                52.43392495458625,
                29.82987567116644,
                0.0
              ],
              [
                52.43401910116874,
                29.83004618937254,
                0.0
              ]
            ]
          ]
        ]
      }
    },
    {
      "type": "Feature",
      "properties": {
        "Name": "152",
        "masahat": 260.28
      },
      "geometry": {
        "type": "MultiPolygon",
        "coordinates": [
          [
            [
              [
                52.4342463993642,
                29.83000079427522,
                0.0
              ],
              [
                52.43434883909657,
                29.82995779699517,
                0.0
              ],
              [
                52.43444074479035,
                29.83012425341895,
                0.0
              ],
              [
                52.43433830392474,
                29.83016725258921,
                0.0
              ],
              [
                52.4342463993642,
                29.83000079427522,
                0.0
              ]
            ]
          ]
        ]
      }
    },
    {
      "type": "Feature",
      "properties": {
        "Name": "151",
        "masahat": 260.28
      },
      "geometry": {
        "type": "MultiPolygon",
        "coordinates": [
          [
            [
              [
                52.43414395851957,
                29.83004379239185,
                0.0
              ],
              [
                52.4342463993642,
                29.83000079427522,
                0.0
              ],
              [
                52.43433830392474,
                29.83016725258921,
                0.0
              ],
              [
                52.43423586190819,
                29.83021024988948,
                0.0
              ],
              [
                52.43414395851957,
                29.83004379239185,
                0.0
              ]
            ]
          ]
        ]
      }
    },
    {
      "type": "Feature",
      "properties": {
        "Name": "150",
        "masahat": 260.28
      },
      "geometry": {
        "type": "MultiPolygon",
        "coordinates": [
          [
            [
              [
                52.434041516524,
                29.83008678863848,
                0.0
              ],
              [
                52.43414395851957,
                29.83004379239185,
                0.0
              ],
              [
                52.43423586190819,
                29.83021024988948,
                0.0
              ],
              [
                52.43413342083596,
                29.83025324710164,
                0.0
              ],
              [
                52.434041516524,
                29.83008678863848,
                0.0
              ]
            ]
          ]
        ]
      }
    },
    {
      "type": "Feature",
      "properties": {
        "Name": "149",
        "masahat": 260.28
      },
      "geometry": {
        "type": "MultiPolygon",
        "coordinates": [
          [
            [
              [
                52.43393907549851,
                29.83012978660145,
                0.0
              ],
              [
                52.434041516524,
                29.83008678863848,
                0.0
              ],
              [
                52.43413342083596,
                29.83025324710164,
                0.0
              ],
              [
                52.43403097968619,
                29.8302962451392,
                0.0
              ],
              [
                52.43395700859455,
                29.83016226565555,
                0.0
              ],
              [
                52.43393907549851,
                29.83012978660145,
                0.0
              ]
            ]
          ]
        ]
      }
    },
    {
      "type": "Feature",
      "properties": {
        "Name": "148",
        "masahat": 209.49
      },
      "geometry": {
        "type": "MultiPolygon",
        "coordinates": [
          [
            [
              [
                52.43385456744151,
                29.83020526265403,
                0.0
              ],
              [
                52.43395700859455,
                29.83016226565555,
                0.0
              ],
              [
                52.43403097968619,
                29.8302962451392,
                0.0
              ],
              [
                52.43392853944209,
                29.83033924038207,
                0.0
              ],
              [
                52.43385456744151,
                29.83020526265403,
                0.0
              ]
            ]
          ]
        ]
      }
    },
    {
      "type": "Feature",
      "properties": {
        "Name": "147",
        "masahat": 209.5
      },
      "geometry": {
        "type": "MultiPolygon",
        "coordinates": [
          [
            [
              [
                52.43375212517618,
                29.83024826048911,
                0.0
              ],
              [
                52.43385456744151,
                29.83020526265403,
                0.0
              ],
              [
                52.43392853944209,
                29.83033924038207,
                0.0
              ],
              [
                52.43382609706383,
                29.83038223737497,
                0.0
              ],
              [
                52.43375212517618,
                29.83024826048911,
                0.0
              ]
            ]
          ]
        ]
      }
    },
    {
      "type": "Feature",
      "properties": {
        "Name": "146",
        "masahat": 260.28
      },
      "geometry": {
        "type": "MultiPolygon",
        "coordinates": [
          [
            [
              [
                52.43372365462092,
                29.83042523609545,
                0.0
              ],
              [
                52.43363175185375,
                29.83025877822494,
                0.0
              ],
              [
                52.43373419210287,
                29.8302157796015,
                0.0
              ],
              [
                52.43375212517618,
                29.83024826048911,
                0.0
              ],
              [
                52.43382609706383,
                29.83038223737497,
                0.0
              ],
              [
                52.43372365462092,
                29.83042523609545,
                0.0
              ]
            ]
          ]
        ]
      }
    },
    {
      "type": "Feature",
      "properties": {
        "Name": "145",
        "masahat": 260.28
      },
      "geometry": {
        "type": "MultiPolygon",
        "coordinates": [
          [
            [
              [
                52.43362121206181,
                29.83046823293467,
                0.0
              ],
              [
                52.4335293083713,
                29.8303017740986,
                0.0
              ],
              [
                52.43363175185375,
                29.83025877822494,
                0.0
              ],
              [
                52.43372365462092,
                29.83042523609545,
                0.0
              ],
              [
                52.43362121206181,
                29.83046823293467,
                0.0
              ]
            ]
          ]
        ]
      }
    },
    {
      "type": "Feature",
      "properties": {
        "Name": "163",
        "masahat": 215.84
      },
      "geometry": {
        "type": "MultiPolygon",
        "coordinates": [
          [
            [
              [
                52.43389872916105,
                29.83005670733186,
                0.0
              ],
              [
                52.4337962870263,
                29.83009970248989,
                0.0
              ],
              [
                52.4337217470241,
                29.82996469585633,
                0.0
              ],
              [
                52.4337200748296,
                29.8299616668039,
                0.0
              ],
              [
                52.4338208831543,
                29.82991935266331,
                0.0
              ],
              [
                52.43382251474025,
                29.82991866812138,
                0.0
              ],
              [
                52.43389872916105,
                29.83005670733186,
                0.0
              ]
            ]
          ]
        ]
      }
    },
    {
      "type": "Feature",
      "properties": {
        "Name": "162",
        "masahat": 215.84
      },
      "geometry": {
        "type": "MultiPolygon",
        "coordinates": [
          [
            [
              [
                52.4337217470241,
                29.82996469585633,
                0.0
              ],
              [
                52.4337962870263,
                29.83009970248989,
                0.0
              ],
              [
                52.43369384485268,
                29.83014270117987,
                0.0
              ],
              [
                52.43361763168565,
                29.83000466273666,
                0.0
              ],
              [
                52.43371866340254,
                29.82996225962302,
                0.0
              ],
              [
                52.4337200748296,
                29.8299616668039,
                0.0
              ],
              [
                52.4337217470241,
                29.82996469585633,
                0.0
              ]
            ]
          ]
        ]
      }
    },
    {
      "type": "Feature",
      "properties": {
        "Name": "161",
        "masahat": 266.63
      },
      "geometry": {
        "type": "MultiPolygon",
        "coordinates": [
          [
            [
              [
                52.43369384485268,
                29.83014270117987,
                0.0
              ],
              [
                52.43371177789908,
                29.83017518207417,
                0.0
              ],
              [
                52.43360933660688,
                29.83021817798403,
                0.0
              ],
              [
                52.43351519154263,
                29.8300476576567,
                0.0
              ],
              [
                52.43361763168565,
                29.83000466273666,
                0.0
              ],
              [
                52.43369384485268,
                29.83014270117987,
                0.0
              ]
            ]
          ]
        ]
      }
    },
    {
      "type": "Feature",
      "properties": {
        "Name": "160",
        "masahat": 266.63
      },
      "geometry": {
        "type": "MultiPolygon",
        "coordinates": [
          [
            [
              [
                52.43341274929122,
                29.83009065613117,
                0.0
              ],
              [
                52.43351519154263,
                29.8300476576567,
                0.0
              ],
              [
                52.43360933660688,
                29.83021817798403,
                0.0
              ],
              [
                52.43350689316763,
                29.83026117474171,
                0.0
              ],
              [
                52.43341274929122,
                29.83009065613117,
                0.0
              ]
            ]
          ]
        ]
      }
    },
    {
      "type": "Feature",
      "properties": {
        "Name": "159",
        "masahat": 266.63
      },
      "geometry": {
        "type": "MultiPolygon",
        "coordinates": [
          [
            [
              [
                52.43331030692363,
                29.83013365272439,
                0.0
              ],
              [
                52.43341274929122,
                29.83009065613117,
                0.0
              ],
              [
                52.43350689316763,
                29.83026117474171,
                0.0
              ],
              [
                52.43340445170747,
                29.8303041714001,
                0.0
              ],
              [
                52.43331030692363,
                29.83013365272439,
                0.0
              ]
            ]
          ]
        ]
      }
    },
    {
      "type": "Feature",
      "properties": {
        "Name": "158",
        "masahat": 266.63
      },
      "geometry": {
        "type": "MultiPolygon",
        "coordinates": [
          [
            [
              [
                52.43328407825511,
                29.83031468792013,
                0.0
              ],
              [
                52.43320786653511,
                29.83017664921831,
                0.0
              ],
              [
                52.43331030692363,
                29.83013365272439,
                0.0
              ],
              [
                52.43340445170747,
                29.8303041714001,
                0.0
              ],
              [
                52.43330201119163,
                29.83034716797043,
                0.0
              ],
              [
                52.43328407825511,
                29.83031468792013,
                0.0
              ]
            ]
          ]
        ]
      }
    },
    {
      "type": "Feature",
      "properties": {
        "Name": "157",
        "masahat": 215.84
      },
      "geometry": {
        "type": "MultiPolygon",
        "coordinates": [
          [
            [
              [
                52.43328407825511,
                29.83031468792013,
                0.0
              ],
              [
                52.43318163665123,
                29.83035768531248,
                0.0
              ],
              [
                52.43310542402531,
                29.83021964836447,
                0.0
              ],
              [
                52.43320786653511,
                29.83017664921831,
                0.0
              ],
              [
                52.43328407825511,
                29.83031468792013,
                0.0
              ]
            ]
          ]
        ]
      }
    },
    {
      "type": "Feature",
      "properties": {
        "Name": "156",
        "masahat": 211.32
      },
      "geometry": {
        "type": "MultiPolygon",
        "coordinates": [
          [
            [
              [
                52.43314590941569,
                29.83039872072688,
                0.0
              ],
              [
                52.43305152861802,
                29.8303505735511,
                0.0
              ],
              [
                52.43300298242119,
                29.83026264471593,
                0.0
              ],
              [
                52.43310542402531,
                29.83021964836447,
                0.0
              ],
              [
                52.43318163665123,
                29.83035768531248,
                0.0
              ],
              [
                52.43314590941569,
                29.83039872072688,
                0.0
              ]
            ]
          ]
        ]
      }
    },
    {
      "type": "Feature",
      "properties": {
        "Name": "155",
        "masahat": 234.39
      },
      "geometry": {
        "type": "MultiPolygon",
        "coordinates": [
          [
            [
              [
                52.4327376163595,
                29.83030401023159,
                0.0
              ],
              [
                52.43294362510475,
                29.83021746243598,
                0.0
              ],
              [
                52.43297504473391,
                29.83027437146218,
                0.0
              ],
              [
                52.43300298242119,
                29.83026264471593,
                0.0
              ],
              [
                52.43305152861802,
                29.8303505735511,
                0.0
              ],
              [
                52.43282255944798,
                29.83031660944025,
                0.0
              ],
              [
                52.4327376163595,
                29.83030401023159,
                0.0
              ]
            ]
          ]
        ]
      }
    },
    {
      "type": "Feature",
      "properties": {
        "Name": "144",
        "masahat": 260.28
      },
      "geometry": {
        "type": "MultiPolygon",
        "coordinates": [
          [
            [
              [
                52.43362121206181,
                29.83046823293467,
                0.0
              ],
              [
                52.43351877043416,
                29.83051122878363,
                0.0
              ],
              [
                52.43342686792845,
                29.83034477166617,
                0.0
              ],
              [
                52.4335293083713,
                29.8303017740986,
                0.0
              ],
              [
                52.43362121206181,
                29.83046823293467,
                0.0
              ]
            ]
          ]
        ]
      }
    },
    {
      "type": "Feature",
      "properties": {
        "Name": "143",
        "masahat": 260.28
      },
      "geometry": {
        "type": "MultiPolygon",
        "coordinates": [
          [
            [
              [
                52.43341632876761,
                29.83055422816456,
                0.0
              ],
              [
                52.43334235722858,
                29.83042024742977,
                0.0
              ],
              [
                52.43332442634755,
                29.8303877682659,
                0.0
              ],
              [
                52.43342686792845,
                29.83034477166617,
                0.0
              ],
              [
                52.43351877043416,
                29.83051122878363,
                0.0
              ],
              [
                52.43341632876761,
                29.83055422816456,
                0.0
              ]
            ]
          ]
        ]
      }
    },
    {
      "type": "Feature",
      "properties": {
        "Name": "140",
        "masahat": 299.63
      },
      "geometry": {
        "type": "MultiPolygon",
        "coordinates": [
          [
            [
              [
                52.43416031288641,
                29.83060798095105,
                0.0
              ],
              [
                52.43414643261924,
                29.83058283816504,
                0.0
              ],
              [
                52.43403659479738,
                29.8303839015948,
                0.0
              ],
              [
                52.43413903708001,
                29.83034090444154,
                0.0
              ],
              [
                52.43422691319884,
                29.83050006692722,
                0.0
              ],
              [
                52.43416031288641,
                29.83060798095105,
                0.0
              ]
            ]
          ]
        ]
      }
    },
    {
      "type": "Feature",
      "properties": {
        "Name": "139",
        "masahat": 311.07
      },
      "geometry": {
        "type": "MultiPolygon",
        "coordinates": [
          [
            [
              [
                52.43404398908866,
                29.83062583714623,
                0.0
              ],
              [
                52.4339341524372,
                29.83042689957344,
                0.0
              ],
              [
                52.43403659479738,
                29.8303839015948,
                0.0
              ],
              [
                52.43414643261924,
                29.83058283816504,
                0.0
              ],
              [
                52.43404398908866,
                29.83062583714623,
                0.0
              ]
            ]
          ]
        ]
      }
    },
    {
      "type": "Feature",
      "properties": {
        "Name": "132",
        "masahat": 281.65
      },
      "geometry": {
        "type": "MultiPolygon",
        "coordinates": [
          [
            [
              [
                52.43404398908866,
                29.83062583714623,
                0.0
              ],
              [
                52.43414643261924,
                29.83058283816504,
                0.0
              ],
              [
                52.43416031288641,
                29.83060798095105,
                0.0
              ],
              [
                52.43402711498569,
                29.83082381157995,
                0.0
              ],
              [
                52.43395275679199,
                29.83068913339226,
                0.0
              ],
              [
                52.43394154749852,
                29.83066883332152,
                0.0
              ],
              [
                52.43404398908866,
                29.83062583714623,
                0.0
              ]
            ]
          ]
        ]
      }
    },
    {
      "type": "Feature",
      "properties": {
        "Name": "138",
        "masahat": 311.07
      },
      "geometry": {
        "type": "MultiPolygon",
        "coordinates": [
          [
            [
              [
                52.43394154749852,
                29.83066883332152,
                0.0
              ],
              [
                52.43393034029209,
                29.83064853412934,
                0.0
              ],
              [
                52.43383171201746,
                29.83046989474617,
                0.0
              ],
              [
                52.4339341524372,
                29.83042689957344,
                0.0
              ],
              [
                52.43404398908866,
                29.83062583714623,
                0.0
              ],
              [
                52.43394154749852,
                29.83066883332152,
                0.0
              ]
            ]
          ]
        ]
      }
    },
    {
      "type": "Feature",
      "properties": {
        "Name": "137",
        "masahat": 279.33
      },
      "geometry": {
        "type": "MultiPolygon",
        "coordinates": [
          [
            [
              [
                52.43393034029209,
                29.83064853412934,
                0.0
              ],
              [
                52.43382789761769,
                29.83069153203435,
                0.0
              ],
              [
                52.43372926948933,
                29.83051289347332,
                0.0
              ],
              [
                52.43383171201746,
                29.83046989474617,
                0.0
              ],
              [
                52.43393034029209,
                29.83064853412934,
                0.0
              ]
            ]
          ]
        ]
      }
    },
    {
      "type": "Feature",
      "properties": {
        "Name": "136",
        "masahat": 279.33
      },
      "geometry": {
        "type": "MultiPolygon",
        "coordinates": [
          [
            [
              [
                52.43382789761769,
                29.83069153203435,
                0.0
              ],
              [
                52.43372545586185,
                29.83073452804687,
                0.0
              ],
              [
                52.43362682787975,
                29.83055589030802,
                0.0
              ],
              [
                52.43372926948933,
                29.83051289347332,
                0.0
              ],
              [
                52.43382789761769,
                29.83069153203435,
                0.0
              ]
            ]
          ]
        ]
      }
    },
    {
      "type": "Feature",
      "properties": {
        "Name": "135",
        "masahat": 279.33
      },
      "geometry": {
        "type": "MultiPolygon",
        "coordinates": [
          [
            [
              [
                52.43372545586185,
                29.83073452804687,
                0.0
              ],
              [
                52.43362301405423,
                29.83077752668916,
                0.0
              ],
              [
                52.4335243872145,
                29.83059888705462,
                0.0
              ],
              [
                52.43362682787975,
                29.83055589030802,
                0.0
              ],
              [
                52.43372545586185,
                29.83073452804687,
                0.0
              ]
            ]
          ]
        ]
      }
    },
    {
      "type": "Feature",
      "properties": {
        "Name": "134",
        "masahat": 253.94
      },
      "geometry": {
        "type": "MultiPolygon",
        "coordinates": [
          [
            [
              [
                52.43362301405423,
                29.83077752668916,
                0.0
              ],
              [
                52.43352988539736,
                29.8308166135866,
                0.0
              ],
              [
                52.43343125663515,
                29.83063797570618,
                0.0
              ],
              [
                52.4335243872145,
                29.83059888705462,
                0.0
              ],
              [
                52.43362301405423,
                29.83077752668916,
                0.0
              ]
            ]
          ]
        ]
      }
    },
    {
      "type": "Feature",
      "properties": {
        "Name": "131",
        "masahat": 256.06
      },
      "geometry": {
        "type": "MultiPolygon",
        "coordinates": [
          [
            [
              [
                52.43398201591464,
                29.83089688730896,
                0.0
              ],
              [
                52.43394894265954,
                29.83091076976602,
                0.0
              ],
              [
                52.43385031407439,
                29.83073213041326,
                0.0
              ],
              [
                52.43395275679199,
                29.83068913339226,
                0.0
              ],
              [
                52.43402711498569,
                29.83082381157995,
                0.0
              ],
              [
                52.43398201591464,
                29.83089688730896,
                0.0
              ]
            ]
          ]
        ]
      }
    },
    {
      "type": "Feature",
      "properties": {
        "Name": "130",
        "masahat": 279.33
      },
      "geometry": {
        "type": "MultiPolygon",
        "coordinates": [
          [
            [
              [
                52.43384650074,
                29.83095376587677,
                0.0
              ],
              [
                52.43374787231399,
                29.83077512824837,
                0.0
              ],
              [
                52.43385031407439,
                29.83073213041326,
                0.0
              ],
              [
                52.43394894265954,
                29.83091076976602,
                0.0
              ],
              [
                52.43384650074,
                29.83095376587677,
                0.0
              ]
            ]
          ]
        ]
      }
    },
    {
      "type": "Feature",
      "properties": {
        "Name": "129",
        "masahat": 279.33
      },
      "geometry": {
        "type": "MultiPolygon",
        "coordinates": [
          [
            [
              [
                52.43374405770814,
                29.83099676282412,
                0.0
              ],
              [
                52.43364542941553,
                29.83081812511567,
                0.0
              ],
              [
                52.43374787231399,
                29.83077512824837,
                0.0
              ],
              [
                52.43384650074,
                29.83095376587677,
                0.0
              ],
              [
                52.43374405770814,
                29.83099676282412,
                0.0
              ]
            ]
          ]
        ]
      }
    },
    {
      "type": "Feature",
      "properties": {
        "Name": "128",
        "masahat": 253.93
      },
      "geometry": {
        "type": "MultiPolygon",
        "coordinates": [
          [
            [
              [
                52.43365092892822,
                29.83103585161525,
                0.0
              ],
              [
                52.43355230075687,
                29.83085721383405,
                0.0
              ],
              [
                52.43364542941553,
                29.83081812511567,
                0.0
              ],
              [
                52.43374405770814,
                29.83099676282412,
                0.0
              ],
              [
                52.43365092892822,
                29.83103585161525,
                0.0
              ]
            ]
          ]
        ]
      }
    },
    {
      "type": "Feature",
      "properties": {
        "Name": "170",
        "masahat": 298.37
      },
      "geometry": {
        "type": "MultiPolygon",
        "coordinates": [
          [
            [
              [
                52.43454251412365,
                29.82985150032286,
                0.0
              ],
              [
                52.43443716072495,
                29.82966068424711,
                0.0
              ],
              [
                52.43453960106315,
                29.82961768681993,
                0.0
              ],
              [
                52.43464495563905,
                29.82980850279893,
                0.0
              ],
              [
                52.43454251412365,
                29.82985150032286,
                0.0
              ]
            ]
          ]
        ]
      }
    },
    {
      "type": "Feature",
      "properties": {
        "Name": "169",
        "masahat": 298.37
      },
      "geometry": {
        "type": "MultiPolygon",
        "coordinates": [
          [
            [
              [
                52.43444007254359,
                29.82989449957434,
                0.0
              ],
              [
                52.43433471923581,
                29.82970367980429,
                0.0
              ],
              [
                52.43443716072495,
                29.82966068424711,
                0.0
              ],
              [
                52.43454251412365,
                29.82985150032286,
                0.0
              ],
              [
                52.43444007254359,
                29.82989449957434,
                0.0
              ]
            ]
          ]
        ]
      }
    },
    {
      "type": "Feature",
      "properties": {
        "Name": "154",
        "masahat": 226.41
      },
      "geometry": {
        "type": "MultiPolygon",
        "coordinates": [
          [
            [
              [
                52.43454251412365,
                29.82985150032286,
                0.0
              ],
              [
                52.43464495563905,
                29.82980850279893,
                0.0
              ],
              [
                52.43464908518516,
                29.82981598256048,
                0.0
              ],
              [
                52.43451588728978,
                29.83003181546466,
                0.0
              ],
              [
                52.43444007254359,
                29.82989449957434,
                0.0
              ],
              [
                52.43454251412365,
                29.82985150032286,
                0.0
              ]
            ]
          ]
        ]
      }
    },
    {
      "type": "Feature",
      "properties": {
        "Name": "168",
        "masahat": 298.37
      },
      "geometry": {
        "type": "MultiPolygon",
        "coordinates": [
          [
            [
              [
                52.43444007254359,
                29.82989449957434,
                0.0
              ],
              [
                52.43433763188206,
                29.82993749693334,
                0.0
              ],
              [
                52.43432642467223,
                29.82991719687036,
                0.0
              ],
              [
                52.43423227977728,
                29.82974667887098,
                0.0
              ],
              [
                52.43433471923581,
                29.82970367980429,
                0.0
              ],
              [
                52.43444007254359,
                29.82989449957434,
                0.0
              ]
            ]
          ]
        ]
      }
    },
    {
      "type": "Feature",
      "properties": {
        "Name": "153",
        "masahat": 262.58
      },
      "geometry": {
        "type": "MultiPolygon",
        "coordinates": [
          [
            [
              [
                52.43444007254359,
                29.82989449957434,
                0.0
              ],
              [
                52.43451588728978,
                29.83003181546466,
                0.0
              ],
              [
                52.43446516500869,
                29.83011400380235,
                0.0
              ],
              [
                52.43444074479035,
                29.83012425341895,
                0.0
              ],
              [
                52.43434883909657,
                29.82995779699517,
                0.0
              ],
              [
                52.43433763188206,
                29.82993749693334,
                0.0
              ],
              [
                52.43444007254359,
                29.82989449957434,
                0.0
              ]
            ]
          ]
        ]
      }
    },
    {
      "type": "Feature",
      "properties": {
        "Name": "167",
        "masahat": 266.63
      },
      "geometry": {
        "type": "MultiPolygon",
        "coordinates": [
          [
            [
              [
                52.4342239829007,
                29.82996019415468,
                0.0
              ],
              [
                52.43412983812017,
                29.8297896751767,
                0.0
              ],
              [
                52.43423227977728,
                29.82974667887098,
                0.0
              ],
              [
                52.43432642467223,
                29.82991719687036,
                0.0
              ],
              [
                52.4342239829007,
                29.82996019415468,
                0.0
              ]
            ]
          ]
        ]
      }
    },
    {
      "type": "Feature",
      "properties": {
        "Name": "141",
        "masahat": 198.12
      },
      "geometry": {
        "type": "MultiPolygon",
        "coordinates": [
          [
            [
              [
                52.4342935112635,
                29.83039215018872,
                0.0
              ],
              [
                52.43422691319884,
                29.83050006692722,
                0.0
              ],
              [
                52.43413903708001,
                29.83034090444154,
                0.0
              ],
              [
                52.43424147825035,
                29.83029790812487,
                0.0
              ],
              [
                52.4342935112635,
                29.83039215018872,
                0.0
              ]
            ]
          ]
        ]
      }
    },
    {
      "type": "Feature",
      "properties": {
        "Name": "127",
        "masahat": 254.55
      },
      "geometry": {
        "type": "MultiPolygon",
        "coordinates": [
          [
            [
              [
                52.43339065717189,
                29.83086105081648,
                0.0
              ],
              [
                52.43348414770561,
                29.83082236794571,
                0.0
              ],
              [
                52.43353386631883,
                29.83091371635955,
                0.0
              ],
              [
                52.43358175380682,
                29.83100169904542,
                0.0
              ],
              [
                52.43348826314973,
                29.83104038198858,
                0.0
              ],
              [
                52.43339065717189,
                29.83086105081648,
                0.0
              ]
            ]
          ]
        ]
      }
    },
    {
      "type": "Feature",
      "properties": {
        "Name": "142",
        "masahat": 223.93
      },
      "geometry": {
        "type": "MultiPolygon",
        "coordinates": [
          [
            [
              [
                52.43316708455459,
                29.83042923280148,
                0.0
              ],
              [
                52.43327674498129,
                29.83038385972274,
                0.0
              ],
              [
                52.4333173657376,
                29.83045849455045,
                0.0
              ],
              [
                52.43334994864006,
                29.83051835775098,
                0.0
              ],
              [
                52.4332402881048,
                29.83056373089339,
                0.0
              ],
              [
                52.43316708455459,
                29.83042923280148,
                0.0
              ]
            ]
          ]
        ]
      }
    },
    {
      "type": "Feature",
      "properties": {
        "Name": "125",
        "masahat": 236.89
      },
      "geometry": {
        "type": "MultiPolygon",
        "coordinates": [
          [
            [
              [
                52.43369639274263,
                29.83121232421657,
                0.0
              ],
              [
                52.43363514839327,
                29.83131025229799,
                0.0
              ],
              [
                52.43352819245419,
                29.83111374472092,
                0.0
              ],
              [
                52.43362168316175,
                29.83107506174816,
                0.0
              ],
              [
                52.43369639274263,
                29.83121232421657,
                0.0
              ]
            ]
          ]
        ]
      }
    },
    {
      "type": "Feature",
      "properties": {
        "Name": "133",
        "masahat": 229.1
      },
      "geometry": {
        "type": "MultiPolygon",
        "coordinates": [
          [
            [
              [
                52.43328021806125,
                29.83063709370693,
                0.0
              ],
              [
                52.43336435940842,
                29.83060227965139,
                0.0
              ],
              [
                52.43346196506831,
                29.83078161085965,
                0.0
              ],
              [
                52.43337782361012,
                29.83081642498032,
                0.0
              ],
              [
                52.43328021806125,
                29.83063709370693,
                0.0
              ]
            ]
          ]
        ]
      }
    },
    {
      "type": "Feature",
      "properties": {
        "Name": "126",
        "masahat": 163.44
      },
      "geometry": {
        "type": "MultiPolygon",
        "coordinates": [
          [
            [
              [
                52.43362168316175,
                29.83107506174816,
                0.0
              ],
              [
                52.43372452284782,
                29.83103250995308,
                0.0
              ],
              [
                52.43376376148289,
                29.83110460239384,
                0.0
              ],
              [
                52.43369639274263,
                29.83121232421657,
                0.0
              ],
              [
                52.43362168316175,
                29.83107506174816,
                0.0
              ]
            ]
          ]
        ]
      }
    }
  ],
  "center": [
    52.43381548999656,
    29.830349583437467
  ],
  "bounds": [
    [
      52.4327376163595,
      29.82961768681993
    ],
    [
      52.43464908518516,
      29.83131025229799
    ]
  ]
}