{"type":"FeatureCollection","name":"14hectar_2_2","crs":{"type":"name","properties":{"name":"urn:ogc:def:crs:OGC:1.3:CRS84"}},"features":[{"type":"Feature","properties":{"Name":"33","masahat":1863.0},"geometry":{"type":"MultiPolygon","coordinates":[[[[52.532017731377202,29.786731343898762],[52.532016871052747,29.786731161674059],[52.53169868060607,29.78690033819321],[52.531696216863708,29.786901648043319],[52.531956998008702,29.787274844473679],[52.532157647936963,29.787168162301331],[52.532162728612477,29.787165345003679],[52.53216769631311,29.787162377424579],[52.532172543840261,29.787159262354471],[52.53217726610508,29.787156005266311],[52.532181857963749,29.787152608024378],[52.532186313293167,29.7871490761136],[52.532190626963278,29.78714541230044],[52.532194794919477,29.787141622045869],[52.532198811024948,29.787137709932651],[52.532202671197631,29.787133679617408],[52.532206371369199,29.787129535658959],[52.532209905430321,29.787125284444389],[52.532213270333187,29.78712092961835],[52.532216463057537,29.78711647662983],[52.532219478514513,29.787111930951749],[52.532222313683818,29.787107298033099],[52.532224964497154,29.78710258243267],[52.532251781333862,29.78700615857564],[52.532222344925827,29.786964033627068],[52.532083305895803,29.78676505906753],[52.532068604659187,29.78674401938564],[52.532067037469503,29.786741777223249],[52.532017731377202,29.786731343898762]]]]}},{"type":"Feature","properties":{"Name":"31","masahat":1692.0},"geometry":{"type":"MultiPolygon","coordinates":[[[[52.531530701609128,29.78746124279229],[52.53129043133606,29.78711739607256],[52.530990501629127,29.787276861517881],[52.531265817497591,29.787670862847349],[52.531407702607389,29.787579910585951],[52.531535431215062,29.787503641517841],[52.531552998790048,29.787493152368299],[52.531530701609128,29.78746124279229]]]]}},{"type":"Feature","properties":{"Name":"30","masahat":2148.0},"geometry":{"type":"MultiPolygon","coordinates":[[[[52.531265817497591,29.787670862847349],[52.530990501629127,29.787276861517881],[52.530637641471287,29.78746446645922],[52.530943883761097,29.787902728566859],[52.531048836282402,29.787822970962779],[52.531156173113807,29.787745664349401],[52.531265817497591,29.787670862847349]]]]}},{"type":"Feature","properties":{"Name":"29","masahat":2444.0},"geometry":{"type":"MultiPolygon","coordinates":[[[[52.530284779982793,29.78765207140211],[52.530639754432087,29.788160074778801],[52.530738476507643,29.78807192754488],[52.530839877107987,29.787986124142218],[52.530943883761097,29.787902728566859],[52.530637641471287,29.78746446645922],[52.530284779982793,29.78765207140211]]]]}},{"type":"Feature","properties":{"Name":"27","masahat":1596.0},"geometry":{"type":"MultiPolygon","coordinates":[[[[52.530146991373172,29.788147468840091],[52.52993191713621,29.787839674542209],[52.529579052958958,29.78802727768382],[52.529794126570557,29.78833507257167],[52.530146991373172,29.788147468840091]]]]}},{"type":"Feature","properties":{"Name":"34","masahat":1854.0},"geometry":{"type":"MultiPolygon","coordinates":[[[[52.530146991373172,29.788147468840091],[52.529794126570557,29.78833507257167],[52.52984789491466,29.788412020555839],[52.530089474962338,29.788757746897481],[52.530174394412981,29.78865111417452],[52.53026274029132,29.788546620850269],[52.530354440407493,29.78844434986549],[52.530146991373172,29.788147468840091]]]]}},{"type":"Feature","properties":{"Name":"40","masahat":2612.0},"geometry":{"type":"MultiPolygon","coordinates":[[[[52.52850556931201,29.7900578791333],[52.528138156111588,29.78953206298339],[52.527785282557979,29.789719660715779],[52.527788817657793,29.789724720706829],[52.527801799030058,29.789743298446439],[52.528078313328933,29.790139029546911],[52.52821340605,29.790183807605381],[52.52850556931201,29.7900578791333]]]]}},{"type":"Feature","properties":{"Name":"21","masahat":2775.0},"geometry":{"type":"MultiPolygon","coordinates":[[[[52.528138156111588,29.78953206298339],[52.527761782824932,29.788993417098759],[52.527723105265707,29.78901397968059],[52.527461841690737,29.789152874888291],[52.527459667043857,29.789160694312731],[52.527441171008398,29.789227183915081],[52.527785282557979,29.789719660715779],[52.528138156111588,29.78953206298339]]]]}},{"type":"Feature","properties":{"Name":"2","masahat":1995.0},"geometry":{"type":"MultiPolygon","coordinates":[[[[52.531342920144347,29.78639604804032],[52.53134134344819,29.786393791541599],[52.530988487010717,29.786581397310648],[52.530991716521832,29.786586018616479],[52.53125733011553,29.78696613824447],[52.531524195485687,29.786824250920059],[52.53161018732083,29.786778530835839],[52.531595101260969,29.786756940627299],[52.531342920144347,29.78639604804032]]]]}},{"type":"Feature","properties":{"Name":"3","masahat":1995.0},"geometry":{"type":"MultiPolygon","coordinates":[[[[52.530938932433493,29.786614365627951],[52.530935559106908,29.786609538451408],[52.530582701137178,29.786797144086989],[52.530586101948707,29.786802010656789],[52.530851542295217,29.787181884978679],[52.531204401060243,29.786994279507841],[52.530938932433493,29.786614365627951]]]]}},{"type":"Feature","properties":{"Name":"4","masahat":1995.0},"geometry":{"type":"MultiPolygon","coordinates":[[[[52.530586101948707,29.786802010656789],[52.530582701137178,29.786797144086989],[52.530229841809408,29.786984747919821],[52.530232962383437,29.786989213500782],[52.53049868323383,29.78736949043914],[52.530851542295217,29.787181884978679],[52.530586101948707,29.786802010656789]]]]}},{"type":"Feature","properties":{"Name":"5","masahat":1995.0},"geometry":{"type":"MultiPolygon","coordinates":[[[[52.530232962383437,29.786989213500782],[52.530229841809408,29.786984747919821],[52.530222339693367,29.786988736421812],[52.52987698115102,29.787172351754201],[52.530145821780067,29.787557094108799],[52.53049868323383,29.78736949043914],[52.530232962383437,29.786989213500782]]]]}},{"type":"Feature","properties":{"Name":"7","masahat":1995.0},"geometry":{"type":"MultiPolygon","coordinates":[[[[52.529527112006569,29.787364253930949],[52.529524119134578,29.78735995378581],[52.52917125682179,29.78754755580697],[52.529173295599932,29.787550473805609],[52.529440095928621,29.787932302342881],[52.529524853132827,29.787887237612299],[52.529792958995692,29.787744697779971],[52.529788296616559,29.787738024896161],[52.529527112006569,29.787364253930949]]]]}},{"type":"Feature","properties":{"Name":"8","masahat":1995.0},"geometry":{"type":"MultiPolygon","coordinates":[[[[52.529173295599932,29.787550473805609],[52.52917125682179,29.78754755580697],[52.529107608680789,29.787581394819512],[52.529037400278838,29.78761872047879],[52.52883317902517,29.7877272944921],[52.528818392116683,29.78773515603724],[52.52908722938006,29.788119901518218],[52.529089935355479,29.78811846258774],[52.529440095928621,29.787932302342881],[52.529173295599932,29.787550473805609]]]]}},{"type":"Feature","properties":{"Name":"9","masahat":1995.0},"geometry":{"type":"MultiPolygon","coordinates":[[[[52.52846552606723,29.78792275536685],[52.528734362548839,29.788307501585209],[52.528787293015739,29.788279361267541],[52.52908722938006,29.788119901518218],[52.528818392116683,29.78773515603724],[52.52846552606723,29.78792275536685]]]]}},{"type":"Feature","properties":{"Name":"10","masahat":1995.0},"geometry":{"type":"MultiPolygon","coordinates":[[[[52.528734362548839,29.788307501585209],[52.52846552606723,29.78792275536685],[52.528112658687157,29.788110354697899],[52.528381495421229,29.788495101641729],[52.528734362548839,29.788307501585209]]]]}},{"type":"Feature","properties":{"Name":"11","masahat":1995.0},"geometry":{"type":"MultiPolygon","coordinates":[[[[52.528381495421229,29.788495101641729],[52.528112658687157,29.788110354697899],[52.528104898839899,29.788114480509059],[52.52775978994903,29.788297952226038],[52.527761247108259,29.78830003780535],[52.528028625901243,29.788682699907291],[52.528381495421229,29.788495101641729]]]]}},{"type":"Feature","properties":{"Name":"12","masahat":1995.0},"geometry":{"type":"MultiPolygon","coordinates":[[[[52.527761247108259,29.78830003780535],[52.52775978994903,29.788297952226038],[52.527406919880249,29.78848554975561],[52.527408807411703,29.78848825116652],[52.527675755050609,29.788870298174238],[52.528028625901243,29.788682699907291],[52.527761247108259,29.78830003780535]]]]}},{"type":"Feature","properties":{"Name":"13","masahat":1959.0},"geometry":{"type":"MultiPolygon","coordinates":[[[[52.527408807411703,29.78848825116652],[52.527406919880249,29.78848554975561],[52.527106979623362,29.788645006717779],[52.527104514551162,29.788653866265701],[52.52708630876311,29.78871931570017],[52.52729062231036,29.789011724488059],[52.527375814115388,29.789029754861051],[52.527675755050609,29.788870298174238],[52.527408807411703,29.78848825116652]]]]}},{"type":"Feature","properties":{"Name":"41","masahat":2305.0},"geometry":{"type":"MultiPolygon","coordinates":[[[[52.527910035972972,29.790209875522219],[52.527626488971251,29.78980407958251],[52.527619698717913,29.789807689761851],[52.52727361348191,29.78999167691088],[52.527570791425333,29.790416982290811],[52.527712500295713,29.790373197780479],[52.527852658862187,29.790325769400901],[52.527906948665191,29.790216111091869],[52.527910035972972,29.790209875522219]]]]}},{"type":"Feature","properties":{"Name":"20","masahat":2775.0},"geometry":{"type":"MultiPolygon","coordinates":[[[[52.527282377872062,29.789311602357039],[52.52719718583981,29.789293571932451],[52.526897242877247,29.789453028496879],[52.526900162491309,29.789457207733641],[52.527219846144433,29.78991472695494],[52.52727361348191,29.78999167691088],[52.527619698717913,29.789807689761851],[52.527626488971251,29.78980407958251],[52.527282377872062,29.789311602357039]]]]}},{"type":"Feature","properties":{"Name":"19","masahat":2753.0},"geometry":{"type":"MultiPolygon","coordinates":[[[[52.526900162491309,29.789457207733641],[52.526897242877247,29.789453028496879],[52.526852760851384,29.789476676162209],[52.526491436323433,29.78966876243922],[52.52681403747718,29.790130461926861],[52.527219846144433,29.78991472695494],[52.526900162491309,29.789457207733641]]]]}},{"type":"Feature","properties":{"Name":"18","masahat":2394.0},"geometry":{"type":"MultiPolygon","coordinates":[[[[52.52681403747718,29.790130461926861],[52.526491436323433,29.78966876243922],[52.526138559038337,29.789856356798389],[52.526461160287958,29.790318057158981],[52.52681403747718,29.790130461926861]]]]}},{"type":"Feature","properties":{"Name":"43","masahat":1805.0},"geometry":{"type":"MultiPolygon","coordinates":[[[[52.527096430692893,29.790534611795628],[52.52681403747718,29.790130461926861],[52.526461160287958,29.790318057158981],[52.526661964786072,29.790605442585189],[52.526807552599628,29.790585506026829],[52.526952416194348,29.790561888965549],[52.527096430692893,29.790534611795628]]]]}},{"type":"Feature","properties":{"Name":"16","masahat":1995.0},"geometry":{"type":"MultiPolygon","coordinates":[[[[52.52613923123176,29.789164689520572],[52.52613657709459,29.789160891591958],[52.525783701876072,29.789348484965839],[52.525786200584918,29.789352061821031],[52.526052532401373,29.789733235886249],[52.526405409449907,29.78954564266521],[52.52613923123176,29.789164689520572]]]]}},{"type":"Feature","properties":{"Name":"17.1","masahat":6804.0},"geometry":{"type":"MultiPolygon","coordinates":[[[[52.524953341228901,29.79010400176324],[52.524797538622821,29.7898833196212],[52.524572381690533,29.790003013503139],[52.524583934757899,29.790048669730972],[52.524593745305452,29.79009463570247],[52.524601800153498,29.790140861039848],[52.524608093334997,29.790187293477299],[52.524612614773012,29.790233882601068],[52.52461536161691,29.79028057701165],[52.524616331016091,29.790327325309448],[52.524615520106217,29.790374075192648],[52.524612931221768,29.790420776104039],[52.524608566697239,29.790467377486369],[52.524602430881032,29.790513825149748],[52.524594532354477,29.79056007117169],[52.524584877548357,29.790606062240471],[52.524806132437192,29.790645867100551],[52.52481869407584,29.790648319990229],[52.524831153701712,29.7906511404002],[52.52484349781431,29.79065432487689],[52.524855710844541,29.79065786999065],[52.524867781360562,29.790661772264048],[52.524879693765889,29.790666026463128],[52.524891435580663,29.790670628220258],[52.524902992242708,29.790675572289508],[52.524914352292747,29.790680853389169],[52.524925501141247,29.79068646446898],[52.524936428349541,29.790692399333171],[52.524947119355417,29.790698652735781],[52.524957563679131,29.790705215774562],[52.524967747779101,29.79071208228946],[52.524977662223542,29.790719244268431],[52.524987293429781,29.790726692844981],[52.524996631966033,29.790734420007041],[52.525005816329902,29.790742554091821],[52.525014675810063,29.790750957208289],[52.525023200961002,29.790759620442181],[52.525031380227567,29.790768532196669],[52.525039205198503,29.790777683545588],[52.52504666640089,29.790787063770399],[52.525053755368774,29.79079666033622],[52.525060462642877,29.790806463426691],[52.525066781825799,29.7908164604831],[52.52518777087861,29.791015852910508],[52.525356238977167,29.790946926479091],[52.525527396342653,29.79088324109415],[52.525681285777502,29.790831206233609],[52.525836971072273,29.790783409447599],[52.525772451785251,29.790678423203971],[52.525650130001743,29.79073558536831],[52.52544725886478,29.790405490713489],[52.525318257370522,29.790465775911681],[52.525064112969737,29.79005224129207],[52.524953341228901,29.79010400176324]]]]}},{"type":"Feature","properties":{"Name":"17.2","masahat":2671.0},"geometry":{"type":"MultiPolygon","coordinates":[[[[52.524502495176279,29.79084889375558],[52.524480983587722,29.79089389546299],[52.524457698972107,29.79093822101952],[52.524432670515367,29.790981816850412],[52.524405926396689,29.791024631197079],[52.524377499966867,29.791066612241309],[52.524347425638688,29.79110770995721],[52.524315737852341,29.79114787612324],[52.524282475158202,29.79118706066572],[52.524247677209431,29.791225218009892],[52.524211386748739,29.79126230164302],[52.524173646559987,29.79129826775889],[52.524134501509657,29.791333073429531],[52.524093999580977,29.791366676593441],[52.524148637589377,29.791419062785959],[52.524151982061817,29.791422268987979],[52.524376357742703,29.791444612804739],[52.52451091479503,29.791361098078969],[52.524648411239284,29.79128131021308],[52.524788711703728,29.791205326554859],[52.524931677701602,29.79113322358609],[52.524811099254322,29.790934484880431],[52.524809563425798,29.790932053682869],[52.524807932118648,29.79092967050769],[52.52480620949737,29.790927337111562],[52.52480439560302,29.790925056200901],[52.524802492558912,29.790922831360572],[52.524800504529637,29.790920664347169],[52.524798432590522,29.79091855785525],[52.52479627885122,29.790916514567481],[52.524794046455632,29.79091453715457],[52.524791775213373,29.790912658543341],[52.524789432596023,29.790910848429942],[52.524787021720122,29.790909107680751],[52.524784544681673,29.790907438076221],[52.52478200567257,29.79090584317731],[52.524779405727109,29.790904322972072],[52.524776749023538,29.790902880119301],[52.524774037657807,29.790901516399451],[52.5247712757808,29.790900232666971],[52.524768465488471,29.790899030702359],[52.5247656099111,29.790897912274112],[52.524762713185851,29.790896877334529],[52.524759778470347,29.790895929456479],[52.524756808840138,29.79089506679983],[52.524753807452832,29.79089429293748],[52.524750778431937,29.790893606919511],[52.524747723873418,29.7908930105264],[52.524502495176279,29.79084889375558]]]]}},{"type":"Feature","properties":{"Name":"17.3","masahat":7572.0},"geometry":{"type":"MultiPolygon","coordinates":[[[[52.523825847478257,29.79079078028111],[52.523951972842042,29.790971295757171],[52.523821788748961,29.791105683224849],[52.52407314227618,29.791346678800139],[52.524112208984391,29.791314278751411],[52.524149988037983,29.791280738561181],[52.524186437604833,29.791246096610639],[52.524221514832377,29.791210392195051],[52.52425517794363,29.791173667304299],[52.524287389312633,29.791135964782701],[52.524318111327339,29.791097328376711],[52.524347307410189,29.79105780182087],[52.524374945175737,29.791017432410602],[52.52440099219767,29.79097626473483],[52.524425417166178,29.79093434878353],[52.524448192867858,29.790891731792421],[52.524469293164763,29.790848463691692],[52.524488692939713,29.79080459349743],[52.524506369199003,29.790760173810529],[52.524522303045117,29.790715254477512],[52.524536475635543,29.790669888953559],[52.524548869134662,29.79062412887755],[52.524559470892171,29.79057802673076],[52.524568267250949,29.790531636810691],[52.524575249725324,29.790485013355131],[52.524580408768117,29.790438208809359],[52.524583737989737,29.790391279191521],[52.524585235083158,29.79034427686322],[52.524584897795968,29.79029725779472],[52.524582725917078,29.790250276127999],[52.524578722338219,29.79020338596915],[52.524572892033412,29.79015664230252],[52.524565242017793,29.790110098284192],[52.524555780354447,29.790063807960379],[52.524544517175002,29.790017825353431],[52.524542021267052,29.79000856288037],[52.52362129141693,29.790498010624042],[52.523825847478257,29.79079078028111]]]]}},{"type":"Feature","properties":{"Name":"32","masahat":1936.0},"geometry":{"type":"MultiPolygon","coordinates":[[[[52.531956998008702,29.787274844473679],[52.531696216863708,29.786901648043319],[52.531343360428863,29.787089254773811],[52.531583692153987,29.78743319001412],[52.531604951941219,29.78746361464249],[52.531713417240901,29.787404354565421],[52.531937371154513,29.787285279940289],[52.531956998008702,29.787274844473679]]]]}},{"type":"Feature","properties":{"Name":"28","masahat":2874.0},"geometry":{"type":"MultiPolygon","coordinates":[[[[52.530146991373172,29.788147468840091],[52.530354440407493,29.78844434986549],[52.530446550156462,29.788347324711399],[52.530541678268058,29.788252542920208],[52.530639754432087,29.788160074778801],[52.530284779982793,29.78765207140211],[52.52993191713621,29.787839674542209],[52.530146991373172,29.788147468840091]]]]}},{"type":"Feature","properties":{"Name":"22","masahat":2793.0},"geometry":{"type":"MultiPolygon","coordinates":[[[[52.528491027272771,29.789344463460019],[52.528114653925769,29.788805818595819],[52.527761782824932,29.788993417098759],[52.528138156111588,29.78953206298339],[52.528491027272771,29.789344463460019]]]]}},{"type":"Feature","properties":{"Name":"1","masahat":1953.0},"geometry":{"type":"MultiPolygon","coordinates":[[[[52.531739875251759,29.78627155156661],[52.531619261668368,29.786246027295771],[52.531573621663497,29.786270293573999],[52.53134134344819,29.786393791541599],[52.531342920144347,29.78639604804032],[52.531595101260969,29.786756940627299],[52.53161018732083,29.786778530835839],[52.531630903866919,29.786767516132318],[52.531928628936541,29.786609219882351],[52.531931873552672,29.786607494932131],[52.531940351975322,29.786577011760379],[52.531941673031497,29.78657226285004],[52.531944044419546,29.7865637354599],[52.531928409496281,29.78654136031075],[52.531739875251759,29.78627155156661]]]]}},{"type":"Feature","properties":{"Name":"6","masahat":1995.0},"geometry":{"type":"MultiPolygon","coordinates":[[[[52.530145821780067,29.787557094108799],[52.52987698115102,29.787172351754201],[52.529870260924319,29.787175924238621],[52.529524119134578,29.78735995378581],[52.529527112006569,29.787364253930949],[52.529788296616559,29.787738024896161],[52.529792958995692,29.787744697779971],[52.530138982510813,29.78756073024552],[52.530145821780067,29.787557094108799]]]]}},{"type":"Feature","properties":{"Name":"42","masahat":2719.0},"geometry":{"type":"MultiPolygon","coordinates":[[[[52.52727361348191,29.78999167691088],[52.527219846144433,29.78991472695494],[52.52681403747718,29.790130461926861],[52.527096430692893,29.790534611795628],[52.527115474558848,29.790530466659298],[52.527134328701599,29.79052636251221],[52.527255981498492,29.790499881308289],[52.52741415636568,29.790460657606211],[52.527570791425333,29.790416982290811],[52.52727361348191,29.78999167691088]]]]}},{"type":"Feature","properties":{"Name":"14","masahat":1959.0},"geometry":{"type":"MultiPolygon","coordinates":[[[[52.526927516091249,29.788803733704121],[52.52684232558083,29.788785703019961],[52.526542383495617,29.788945158757031],[52.526545252311223,29.788949264598511],[52.526811215715952,29.789329908994251],[52.527111159500102,29.789170452618428],[52.527131830405352,29.789096142732259],[52.527049401751761,29.788978172888822],[52.526927516091249,29.788803733704121]]]]}},{"type":"Feature","properties":{"Name":"15","masahat":1995.0},"geometry":{"type":"MultiPolygon","coordinates":[[[[52.526492053297353,29.78897702094384],[52.526489452016733,29.78897329820747],[52.52613657709459,29.789160891591958],[52.52613923123176,29.789164689520572],[52.526405409449907,29.78954564266521],[52.526758285140353,29.789358047641159],[52.526492053297353,29.78897702094384]]]]}},{"type":"Feature","properties":{"Name":"17","masahat":1995.0},"geometry":{"type":"MultiPolygon","coordinates":[[[[52.525730769949917,29.789376623223561],[52.525377892151077,29.789564215573371],[52.525646722811331,29.789948967329838],[52.525999601405907,29.789761375144799],[52.525730769949917,29.789376623223561]]]]}},{"type":"Feature","properties":{"Name":"35","masahat":2165.0},"geometry":{"type":"MultiPolygon","coordinates":[[[[52.530070555413992,29.788782408099269],[52.530089474962338,29.788757746897481],[52.52984789491466,29.788412020555839],[52.529495028611308,29.788599623534228],[52.529548796896812,29.7886765725424],[52.529836987232308,29.789089002219232],[52.530070555413992,29.788782408099269]]]]}},{"type":"Feature","properties":{"Name":"26","masahat":1995.0},"geometry":{"type":"MultiPolygon","coordinates":[[[[52.529495028611308,29.788599623534228],[52.52984789491466,29.788412020555839],[52.529794126570557,29.78833507257167],[52.529579052958958,29.78802727768382],[52.529226188457883,29.788214879010649],[52.529495028611308,29.788599623534228]]]]}},{"type":"Feature","properties":{"Name":"25","masahat":2394.0},"geometry":{"type":"MultiPolygon","coordinates":[[[[52.529195930113239,29.788864173853462],[52.529548796896812,29.7886765725424],[52.529495028611308,29.788599623534228],[52.529226188457883,29.788214879010649],[52.528873321591853,29.788402480350889],[52.529195930113239,29.788864173853462]]]]}},{"type":"Feature","properties":{"Name":"36","masahat":2492.0},"geometry":{"type":"MultiPolygon","coordinates":[[[[52.529836987232308,29.789089002219232],[52.529548796896812,29.7886765725424],[52.529195930113239,29.788864173853462],[52.529573630141833,29.789404705848799],[52.529601396965298,29.78937564275331],[52.529604059712042,29.789372856237289],[52.529622902539849,29.789353134416359],[52.5296703230294,29.78930025978282],[52.529715847892319,29.789246132083949],[52.529759432390229,29.789190802369671],[52.529836987232308,29.789089002219232]]]]}},{"type":"Feature","properties":{"Name":"24","masahat":2793.0},"geometry":{"type":"MultiPolygon","coordinates":[[[[52.529148191640729,29.788899744483579],[52.528820391073722,29.788430619801819],[52.528814887760923,29.788433545629729],[52.528467522661657,29.78861822010624],[52.528468814873463,29.788620069370349],[52.528843898137509,29.789156863926081],[52.529193188375913,29.78897116549501],[52.529196767644102,29.78896926258923],[52.529148191640729,29.788899744483579]]]]}},{"type":"Feature","properties":{"Name":"23","masahat":2793.0},"geometry":{"type":"MultiPolygon","coordinates":[[[[52.528468814873463,29.788620069370349],[52.528467522661657,29.78861822010624],[52.528451860267239,29.788626546508869],[52.528114653925769,29.788805818595819],[52.528491027272771,29.789344463460019],[52.528843898137509,29.789156863926081],[52.528468814873463,29.788620069370349]]]]}},{"type":"Feature","properties":{"Name":"37","masahat":2664.0},"geometry":{"type":"MultiPolygon","coordinates":[[[[52.529530687236523,29.78944713925765],[52.529196767644102,29.78896926258923],[52.529193188375913,29.78897116549501],[52.528843898137509,29.789156863926081],[52.529221755031521,29.78969762069158],[52.529221947496893,29.78969789638133],[52.52923235392992,29.789690527604829],[52.52928752701613,29.789651458328951],[52.529351263970867,29.78960310787911],[52.529413082619023,29.789552898245731],[52.529472913520692,29.789500888886121],[52.529489721657853,29.789485251995309],[52.529508210787618,29.789468049967269],[52.529528580870149,29.78944909912002],[52.529530687236523,29.78944713925765]]]]}},{"type":"Feature","properties":{"Name":"38","masahat":2854.0},"geometry":{"type":"MultiPolygon","coordinates":[[[[52.529221755031521,29.78969762069158],[52.528843898137509,29.789156863926081],[52.528491027272771,29.789344463460019],[52.528876482106753,29.78989609662921],[52.528948522682192,29.789860510273311],[52.529019166232708,29.789822853861629],[52.529088335815118,29.789783169793498],[52.529155954514053,29.789741502272712],[52.529198893232874,29.789713129974139],[52.529221947496893,29.78969789638133],[52.529221755031521,29.78969762069158]]]]}},{"type":"Feature","properties":{"Name":"39","masahat":2797.0},"geometry":{"type":"MultiPolygon","coordinates":[[[[52.528138156111588,29.78953206298339],[52.52850556931201,29.7900578791333],[52.528788738090007,29.789935826683539],[52.528832836225959,29.789916341634289],[52.528876482106753,29.78989609662921],[52.528491027272771,29.789344463460019],[52.528138156111588,29.78953206298339]]]]}},{"type":"Feature","properties":{"Name":"17.4","masahat":1028.0},"geometry":{"type":"MultiPolygon","coordinates":[[[[52.52362129141693,29.790498010624042],[52.52356133896803,29.790529880678012],[52.523479966282977,29.79057313681859],[52.523451127335981,29.790750293724329],[52.523514990739017,29.790811525857482],[52.523663333482453,29.79095375697014],[52.523825847478257,29.79079078028111],[52.52362129141693,29.790498010624042]]]]}},{"type":"Feature","properties":{"Name":"17.5","masahat":487.0},"geometry":{"type":"MultiPolygon","coordinates":[[[[52.523825847478257,29.79079078028111],[52.523663333482453,29.79095375697014],[52.523821788748961,29.791105683224849],[52.523951972842042,29.790971295757171],[52.523825847478257,29.79079078028111]]]]}}]}