{
  "type": "FeatureCollection",
  "name": "14hectari",
  "name_fa": "ناحیه 14 هکتاری",
  "crs": {
    "type": "name",
    "properties": {
      "name": "urn:ogc:def:crs:OGC:1.3:CRS84"
    }
  },
  "features": [
    {
      "type": "Feature",
      "properties": {
        "Name": "33",
        "masahat": 2154.22
      },
      "geometry": {
        "type": "MultiPolygon",
        "coordinates": [
          [
            [
              [
                52.5320177313772,
                29.78673134389876,
                0.0
              ],
              [
                52.5320670374695,
                29.78674177722325,
                0.0
              ],
              [
                52.5320686046592,
                29.78674401938564,
                0.0
              ],
              [
                52.5320833058958,
                29.78676505906753,
                0.0
              ],
              [
                52.53222234492582,
                29.78696403362707,
                0.0
              ],
              [
                52.53225178133386,
                29.78700615857564,
                0.0
              ],
              [
                52.53222496449715,
                29.78710258243267,
                0.0
              ],
              [
                52.53222231368381,
                29.7871072980331,
                0.0
              ],
              [
                52.53221947851451,
                29.78711193095175,
                0.0
              ],
              [
                52.53221646305754,
                29.78711647662983,
                0.0
              ],
              [
                52.5322132703332,
                29.78712092961835,
                0.0
              ],
              [
                52.53220990543032,
                29.78712528444439,
                0.0
              ],
              [
                52.53220637136919,
                29.78712953565896,
                0.0
              ],
              [
                52.53220267119762,
                29.78713367961741,
                0.0
              ],
              [
                52.53219881102495,
                29.78713770993265,
                0.0
              ],
              [
                52.53219479491948,
                29.78714162204587,
                0.0
              ],
              [
                52.53219062696328,
                29.78714541230044,
                0.0
              ],
              [
                52.53218631329317,
                29.7871490761136,
                0.0
              ],
              [
                52.53218185796375,
                29.78715260802438,
                0.0
              ],
              [
                52.53217726610507,
                29.78715600526631,
                0.0
              ],
              [
                52.53217254384026,
                29.78715926235448,
                0.0
              ],
              [
                52.53216769631311,
                29.78716237742458,
                0.0
              ],
              [
                52.53216272861248,
                29.78716534500368,
                0.0
              ],
              [
                52.53215764793696,
                29.78716816230133,
                0.0
              ],
              [
                52.5319569980087,
                29.78727484447368,
                0.0
              ],
              [
                52.53169621686372,
                29.78690164804332,
                0.0
              ],
              [
                52.53169868060607,
                29.78690033819321,
                0.0
              ],
              [
                52.53201687105275,
                29.78673116167406,
                0.0
              ],
              [
                52.5320177313772,
                29.78673134389876,
                0.0
              ]
            ]
          ]
        ]
      }
    },
    {
      "type": "Feature",
      "properties": {
        "Name": "31",
        "masahat": 1956.36
      },
      "geometry": {
        "type": "MultiPolygon",
        "coordinates": [
          [
            [
              [
                52.53153070160913,
                29.78746124279229,
                0.0
              ],
              [
                52.53155299879005,
                29.7874931523683,
                0.0
              ],
              [
                52.53153543121506,
                29.78750364151784,
                0.0
              ],
              [
                52.53140770260739,
                29.78757991058595,
                0.0
              ],
              [
                52.53126581749759,
                29.78767086284735,
                0.0
              ],
              [
                52.53099050162913,
                29.78727686151788,
                0.0
              ],
              [
                52.53129043133605,
                29.78711739607256,
                0.0
              ],
              [
                52.53153070160913,
                29.78746124279229,
                0.0
              ]
            ]
          ]
        ]
      }
    },
    {
      "type": "Feature",
      "properties": {
        "Name": "30",
        "masahat": 2484.54
      },
      "geometry": {
        "type": "MultiPolygon",
        "coordinates": [
          [
            [
              [
                52.53126581749759,
                29.78767086284735,
                0.0
              ],
              [
                52.53115617311381,
                29.7877456643494,
                0.0
              ],
              [
                52.53104883628241,
                29.78782297096277,
                0.0
              ],
              [
                52.5309438837611,
                29.78790272856686,
                0.0
              ],
              [
                52.53063764147129,
                29.78746446645922,
                0.0
              ],
              [
                52.53099050162913,
                29.78727686151788,
                0.0
              ],
              [
                52.53126581749759,
                29.78767086284735,
                0.0
              ]
            ]
          ]
        ]
      }
    },
    {
      "type": "Feature",
      "properties": {
        "Name": "29",
        "masahat": 2825.89
      },
      "geometry": {
        "type": "MultiPolygon",
        "coordinates": [
          [
            [
              [
                52.5302847799828,
                29.78765207140211,
                0.0
              ],
              [
                52.53063764147129,
                29.78746446645922,
                0.0
              ],
              [
                52.5309438837611,
                29.78790272856686,
                0.0
              ],
              [
                52.53083987710799,
                29.78798612414222,
                0.0
              ],
              [
                52.53073847650764,
                29.78807192754488,
                0.0
              ],
              [
                52.53063975443209,
                29.7881600747788,
                0.0
              ],
              [
                52.5302847799828,
                29.78765207140211,
                0.0
              ]
            ]
          ]
        ]
      }
    },
    {
      "type": "Feature",
      "properties": {
        "Name": "27",
        "masahat": 1845.91
      },
      "geometry": {
        "type": "MultiPolygon",
        "coordinates": [
          [
            [
              [
                52.53014699137317,
                29.78814746884009,
                0.0
              ],
              [
                52.52979412657056,
                29.78833507257167,
                0.0
              ],
              [
                52.52957905295896,
                29.78802727768382,
                0.0
              ],
              [
                52.52993191713621,
                29.7878396745422,
                0.0
              ],
              [
                52.53014699137317,
                29.78814746884009,
                0.0
              ]
            ]
          ]
        ]
      }
    },
    {
      "type": "Feature",
      "properties": {
        "Name": "34",
        "masahat": 2144.12
      },
      "geometry": {
        "type": "MultiPolygon",
        "coordinates": [
          [
            [
              [
                52.53014699137317,
                29.78814746884009,
                0.0
              ],
              [
                52.53035444040749,
                29.78844434986549,
                0.0
              ],
              [
                52.53026274029133,
                29.78854662085027,
                0.0
              ],
              [
                52.53017439441298,
                29.78865111417452,
                0.0
              ],
              [
                52.53008947496234,
                29.78875774689748,
                0.0
              ],
              [
                52.52984789491467,
                29.78841202055584,
                0.0
              ],
              [
                52.52979412657056,
                29.78833507257167,
                0.0
              ],
              [
                52.53014699137317,
                29.78814746884009,
                0.0
              ]
            ]
          ]
        ]
      }
    },
    {
      "type": "Feature",
      "properties": {
        "Name": "40",
        "masahat": 3020.73
      },
      "geometry": {
        "type": "MultiPolygon",
        "coordinates": [
          [
            [
              [
                52.52850556931201,
                29.7900578791333,
                0.0
              ],
              [
                52.52821340605,
                29.79018380760538,
                0.0
              ],
              [
                52.52807831332893,
                29.79013902954691,
                0.0
              ],
              [
                52.52780179903006,
                29.78974329844644,
                0.0
              ],
              [
                52.52778881765778,
                29.78972472070683,
                0.0
              ],
              [
                52.52778528255798,
                29.78971966071578,
                0.0
              ],
              [
                52.52813815611159,
                29.78953206298339,
                0.0
              ],
              [
                52.52850556931201,
                29.7900578791333,
                0.0
              ]
            ]
          ]
        ]
      }
    },
    {
      "type": "Feature",
      "properties": {
        "Name": "21",
        "masahat": 3209.61
      },
      "geometry": {
        "type": "MultiPolygon",
        "coordinates": [
          [
            [
              [
                52.52813815611159,
                29.78953206298339,
                0.0
              ],
              [
                52.52778528255798,
                29.78971966071578,
                0.0
              ],
              [
                52.52744117100839,
                29.78922718391508,
                0.0
              ],
              [
                52.52745966704386,
                29.78916069431273,
                0.0
              ],
              [
                52.52746184169074,
                29.78915287488829,
                0.0
              ],
              [
                52.52772310526571,
                29.78901397968059,
                0.0
              ],
              [
                52.52776178282493,
                29.78899341709876,
                0.0
              ],
              [
                52.52813815611159,
                29.78953206298339,
                0.0
              ]
            ]
          ]
        ]
      }
    },
    {
      "type": "Feature",
      "properties": {
        "Name": "2",
        "masahat": 2307.35
      },
      "geometry": {
        "type": "MultiPolygon",
        "coordinates": [
          [
            [
              [
                52.53134292014435,
                29.78639604804032,
                0.0
              ],
              [
                52.53159510126096,
                29.7867569406273,
                0.0
              ],
              [
                52.53161018732082,
                29.78677853083584,
                0.0
              ],
              [
                52.53152419548569,
                29.78682425092006,
                0.0
              ],
              [
                52.53125733011554,
                29.78696613824447,
                0.0
              ],
              [
                52.53099171652183,
                29.78658601861648,
                0.0
              ],
              [
                52.53098848701072,
                29.78658139731065,
                0.0
              ],
              [
                52.5313413434482,
                29.7863937915416,
                0.0
              ],
              [
                52.53134292014435,
                29.78639604804032,
                0.0
              ]
            ]
          ]
        ]
      }
    },
    {
      "type": "Feature",
      "properties": {
        "Name": "3",
        "masahat": 2307.35
      },
      "geometry": {
        "type": "MultiPolygon",
        "coordinates": [
          [
            [
              [
                52.53093893243349,
                29.78661436562796,
                0.0
              ],
              [
                52.53120440106024,
                29.78699427950784,
                0.0
              ],
              [
                52.53085154229522,
                29.78718188497868,
                0.0
              ],
              [
                52.5305861019487,
                29.78680201065679,
                0.0
              ],
              [
                52.53058270113718,
                29.78679714408699,
                0.0
              ],
              [
                52.5309355591069,
                29.78660953845141,
                0.0
              ],
              [
                52.53093893243349,
                29.78661436562796,
                0.0
              ]
            ]
          ]
        ]
      }
    },
    {
      "type": "Feature",
      "properties": {
        "Name": "4",
        "masahat": 2307.36
      },
      "geometry": {
        "type": "MultiPolygon",
        "coordinates": [
          [
            [
              [
                52.5305861019487,
                29.78680201065679,
                0.0
              ],
              [
                52.53085154229522,
                29.78718188497868,
                0.0
              ],
              [
                52.53049868323382,
                29.78736949043914,
                0.0
              ],
              [
                52.53023296238344,
                29.78698921350078,
                0.0
              ],
              [
                52.5302298418094,
                29.78698474791982,
                0.0
              ],
              [
                52.53058270113718,
                29.78679714408699,
                0.0
              ],
              [
                52.5305861019487,
                29.78680201065679,
                0.0
              ]
            ]
          ]
        ]
      }
    },
    {
      "type": "Feature",
      "properties": {
        "Name": "5",
        "masahat": 2307.37
      },
      "geometry": {
        "type": "MultiPolygon",
        "coordinates": [
          [
            [
              [
                52.53023296238344,
                29.78698921350078,
                0.0
              ],
              [
                52.53049868323382,
                29.78736949043914,
                0.0
              ],
              [
                52.53014582178007,
                29.7875570941088,
                0.0
              ],
              [
                52.52987698115102,
                29.7871723517542,
                0.0
              ],
              [
                52.53022233969337,
                29.78698873642181,
                0.0
              ],
              [
                52.5302298418094,
                29.78698474791982,
                0.0
              ],
              [
                52.53023296238344,
                29.78698921350078,
                0.0
              ]
            ]
          ]
        ]
      }
    },
    {
      "type": "Feature",
      "properties": {
        "Name": "7",
        "masahat": 2307.35
      },
      "geometry": {
        "type": "MultiPolygon",
        "coordinates": [
          [
            [
              [
                52.52952711200656,
                29.78736425393095,
                0.0
              ],
              [
                52.52978829661655,
                29.78773802489616,
                0.0
              ],
              [
                52.52979295899569,
                29.78774469777997,
                0.0
              ],
              [
                52.52952485313283,
                29.7878872376123,
                0.0
              ],
              [
                52.52944009592863,
                29.78793230234288,
                0.0
              ],
              [
                52.52917329559993,
                29.78755047380561,
                0.0
              ],
              [
                52.52917125682179,
                29.78754755580697,
                0.0
              ],
              [
                52.52952411913458,
                29.78735995378581,
                0.0
              ],
              [
                52.52952711200656,
                29.78736425393095,
                0.0
              ]
            ]
          ]
        ]
      }
    },
    {
      "type": "Feature",
      "properties": {
        "Name": "8",
        "masahat": 2307.38
      },
      "geometry": {
        "type": "MultiPolygon",
        "coordinates": [
          [
            [
              [
                52.52917329559993,
                29.78755047380561,
                0.0
              ],
              [
                52.52944009592863,
                29.78793230234288,
                0.0
              ],
              [
                52.52908993535547,
                29.78811846258774,
                0.0
              ],
              [
                52.52908722938007,
                29.78811990151822,
                0.0
              ],
              [
                52.52881839211668,
                29.78773515603724,
                0.0
              ],
              [
                52.52883317902517,
                29.7877272944921,
                0.0
              ],
              [
                52.52903740027884,
                29.78761872047879,
                0.0
              ],
              [
                52.52910760868079,
                29.78758139481951,
                0.0
              ],
              [
                52.52917125682179,
                29.78754755580697,
                0.0
              ],
              [
                52.52917329559993,
                29.78755047380561,
                0.0
              ]
            ]
          ]
        ]
      }
    },
    {
      "type": "Feature",
      "properties": {
        "Name": "9",
        "masahat": 2307.38
      },
      "geometry": {
        "type": "MultiPolygon",
        "coordinates": [
          [
            [
              [
                52.52846552606723,
                29.78792275536685,
                0.0
              ],
              [
                52.52881839211668,
                29.78773515603724,
                0.0
              ],
              [
                52.52908722938007,
                29.78811990151822,
                0.0
              ],
              [
                52.52878729301574,
                29.78827936126754,
                0.0
              ],
              [
                52.52873436254884,
                29.78830750158521,
                0.0
              ],
              [
                52.52846552606723,
                29.78792275536685,
                0.0
              ]
            ]
          ]
        ]
      }
    },
    {
      "type": "Feature",
      "properties": {
        "Name": "10",
        "masahat": 2307.39
      },
      "geometry": {
        "type": "MultiPolygon",
        "coordinates": [
          [
            [
              [
                52.52873436254884,
                29.78830750158521,
                0.0
              ],
              [
                52.52838149542123,
                29.78849510164173,
                0.0
              ],
              [
                52.52811265868716,
                29.7881103546979,
                0.0
              ],
              [
                52.52846552606723,
                29.78792275536685,
                0.0
              ],
              [
                52.52873436254884,
                29.78830750158521,
                0.0
              ]
            ]
          ]
        ]
      }
    },
    {
      "type": "Feature",
      "properties": {
        "Name": "11",
        "masahat": 2307.39
      },
      "geometry": {
        "type": "MultiPolygon",
        "coordinates": [
          [
            [
              [
                52.52838149542123,
                29.78849510164173,
                0.0
              ],
              [
                52.52802862590125,
                29.78868269990729,
                0.0
              ],
              [
                52.52776124710826,
                29.78830003780535,
                0.0
              ],
              [
                52.52775978994902,
                29.78829795222604,
                0.0
              ],
              [
                52.5281048988399,
                29.78811448050906,
                0.0
              ],
              [
                52.52811265868716,
                29.7881103546979,
                0.0
              ],
              [
                52.52838149542123,
                29.78849510164173,
                0.0
              ]
            ]
          ]
        ]
      }
    },
    {
      "type": "Feature",
      "properties": {
        "Name": "12",
        "masahat": 2307.4
      },
      "geometry": {
        "type": "MultiPolygon",
        "coordinates": [
          [
            [
              [
                52.52776124710826,
                29.78830003780535,
                0.0
              ],
              [
                52.52802862590125,
                29.78868269990729,
                0.0
              ],
              [
                52.5276757550506,
                29.78887029817424,
                0.0
              ],
              [
                52.5274088074117,
                29.78848825116652,
                0.0
              ],
              [
                52.52740691988025,
                29.78848554975561,
                0.0
              ],
              [
                52.52775978994902,
                29.78829795222604,
                0.0
              ],
              [
                52.52776124710826,
                29.78830003780535,
                0.0
              ]
            ]
          ]
        ]
      }
    },
    {
      "type": "Feature",
      "properties": {
        "Name": "13",
        "masahat": 2265.87
      },
      "geometry": {
        "type": "MultiPolygon",
        "coordinates": [
          [
            [
              [
                52.5274088074117,
                29.78848825116652,
                0.0
              ],
              [
                52.5276757550506,
                29.78887029817424,
                0.0
              ],
              [
                52.5273758141154,
                29.78902975486105,
                0.0
              ],
              [
                52.52729062231035,
                29.78901172448806,
                0.0
              ],
              [
                52.52708630876311,
                29.78871931570017,
                0.0
              ],
              [
                52.52710451455116,
                29.7886538662657,
                0.0
              ],
              [
                52.52710697962336,
                29.78864500671778,
                0.0
              ],
              [
                52.52740691988025,
                29.78848554975561,
                0.0
              ],
              [
                52.5274088074117,
                29.78848825116652,
                0.0
              ]
            ]
          ]
        ]
      }
    },
    {
      "type": "Feature",
      "properties": {
        "Name": "41",
        "masahat": 2665.76
      },
      "geometry": {
        "type": "MultiPolygon",
        "coordinates": [
          [
            [
              [
                52.52791003597297,
                29.79020987552222,
                0.0
              ],
              [
                52.52790694866519,
                29.79021611109187,
                0.0
              ],
              [
                52.52785265886219,
                29.79032576940091,
                0.0
              ],
              [
                52.52771250029571,
                29.79037319778048,
                0.0
              ],
              [
                52.52757079142534,
                29.79041698229081,
                0.0
              ],
              [
                52.52727361348191,
                29.78999167691088,
                0.0
              ],
              [
                52.52761969871791,
                29.78980768976185,
                0.0
              ],
              [
                52.52762648897125,
                29.78980407958251,
                0.0
              ],
              [
                52.52791003597297,
                29.79020987552222,
                0.0
              ]
            ]
          ]
        ]
      }
    },
    {
      "type": "Feature",
      "properties": {
        "Name": "20",
        "masahat": 3209.63
      },
      "geometry": {
        "type": "MultiPolygon",
        "coordinates": [
          [
            [
              [
                52.52728237787206,
                29.78931160235704,
                0.0
              ],
              [
                52.52762648897125,
                29.78980407958251,
                0.0
              ],
              [
                52.52761969871791,
                29.78980768976185,
                0.0
              ],
              [
                52.52727361348191,
                29.78999167691088,
                0.0
              ],
              [
                52.52721984614443,
                29.78991472695494,
                0.0
              ],
              [
                52.52690016249131,
                29.78945720773364,
                0.0
              ],
              [
                52.52689724287725,
                29.78945302849688,
                0.0
              ],
              [
                52.5271971858398,
                29.78929357193245,
                0.0
              ],
              [
                52.52728237787206,
                29.78931160235704,
                0.0
              ]
            ]
          ]
        ]
      }
    },
    {
      "type": "Feature",
      "properties": {
        "Name": "19",
        "masahat": 3184.24
      },
      "geometry": {
        "type": "MultiPolygon",
        "coordinates": [
          [
            [
              [
                52.52690016249131,
                29.78945720773364,
                0.0
              ],
              [
                52.52721984614443,
                29.78991472695494,
                0.0
              ],
              [
                52.52681403747718,
                29.79013046192686,
                0.0
              ],
              [
                52.52649143632343,
                29.78966876243922,
                0.0
              ],
              [
                52.52685276085139,
                29.78947667616221,
                0.0
              ],
              [
                52.52689724287725,
                29.78945302849688,
                0.0
              ],
              [
                52.52690016249131,
                29.78945720773364,
                0.0
              ]
            ]
          ]
        ]
      }
    },
    {
      "type": "Feature",
      "properties": {
        "Name": "18",
        "masahat": 2768.92
      },
      "geometry": {
        "type": "MultiPolygon",
        "coordinates": [
          [
            [
              [
                52.52681403747718,
                29.79013046192686,
                0.0
              ],
              [
                52.52646116028796,
                29.79031805715898,
                0.0
              ],
              [
                52.52613855903834,
                29.78985635679839,
                0.0
              ],
              [
                52.52649143632343,
                29.78966876243922,
                0.0
              ],
              [
                52.52681403747718,
                29.79013046192686,
                0.0
              ]
            ]
          ]
        ]
      }
    },
    {
      "type": "Feature",
      "properties": {
        "Name": "43",
        "masahat": 2087.29
      },
      "geometry": {
        "type": "MultiPolygon",
        "coordinates": [
          [
            [
              [
                52.52709643069289,
                29.79053461179563,
                0.0
              ],
              [
                52.52695241619435,
                29.79056188896555,
                0.0
              ],
              [
                52.52680755259962,
                29.79058550602683,
                0.0
              ],
              [
                52.52666196478607,
                29.79060544258519,
                0.0
              ],
              [
                52.52646116028796,
                29.79031805715898,
                0.0
              ],
              [
                52.52681403747718,
                29.79013046192686,
                0.0
              ],
              [
                52.52709643069289,
                29.79053461179563,
                0.0
              ]
            ]
          ]
        ]
      }
    },
    {
      "type": "Feature",
      "properties": {
        "Name": "16",
        "masahat": 2307.42
      },
      "geometry": {
        "type": "MultiPolygon",
        "coordinates": [
          [
            [
              [
                52.52613923123176,
                29.78916468952057,
                0.0
              ],
              [
                52.52640540944991,
                29.78954564266521,
                0.0
              ],
              [
                52.52605253240137,
                29.78973323588625,
                0.0
              ],
              [
                52.52578620058492,
                29.78935206182103,
                0.0
              ],
              [
                52.52578370187606,
                29.78934848496584,
                0.0
              ],
              [
                52.52613657709459,
                29.78916089159196,
                0.0
              ],
              [
                52.52613923123176,
                29.78916468952057,
                0.0
              ]
            ]
          ]
        ]
      }
    },
    {
      "type": "Feature",
      "properties": {
        "Name": "17.1",
        "masahat": 7869.46
      },
      "geometry": {
        "type": "MultiPolygon",
        "coordinates": [
          [
            [
              [
                52.5249533412289,
                29.79010400176324,
                0.0
              ],
              [
                52.52506411296974,
                29.79005224129207,
                0.0
              ],
              [
                52.52531825737052,
                29.79046577591168,
                0.0
              ],
              [
                52.52544725886478,
                29.79040549071349,
                0.0
              ],
              [
                52.52565013000174,
                29.79073558536831,
                0.0
              ],
              [
                52.52577245178526,
                29.79067842320398,
                0.0
              ],
              [
                52.52583697107227,
                29.7907834094476,
                0.0
              ],
              [
                52.5256812857775,
                29.7908312062336,
                0.0
              ],
              [
                52.52552739634265,
                29.79088324109415,
                0.0
              ],
              [
                52.52535623897716,
                29.79094692647909,
                0.0
              ],
              [
                52.52518777087861,
                29.79101585291051,
                0.0
              ],
              [
                52.52506678182579,
                29.7908164604831,
                0.0
              ],
              [
                52.52506046264288,
                29.79080646342669,
                0.0
              ],
              [
                52.52505375536877,
                29.79079666033622,
                0.0
              ],
              [
                52.52504666640089,
                29.7907870637704,
                0.0
              ],
              [
                52.5250392051985,
                29.79077768354559,
                0.0
              ],
              [
                52.52503138022756,
                29.79076853219667,
                0.0
              ],
              [
                52.525023200961,
                29.79075962044218,
                0.0
              ],
              [
                52.52501467581006,
                29.79075095720829,
                0.0
              ],
              [
                52.5250058163299,
                29.79074255409182,
                0.0
              ],
              [
                52.52499663196603,
                29.79073442000704,
                0.0
              ],
              [
                52.52498729342978,
                29.79072669284498,
                0.0
              ],
              [
                52.52497766222354,
                29.79071924426843,
                0.0
              ],
              [
                52.52496774777911,
                29.79071208228946,
                0.0
              ],
              [
                52.52495756367913,
                29.79070521577456,
                0.0
              ],
              [
                52.52494711935541,
                29.79069865273578,
                0.0
              ],
              [
                52.52493642834954,
                29.79069239933317,
                0.0
              ],
              [
                52.52492550114125,
                29.79068646446898,
                0.0
              ],
              [
                52.52491435229275,
                29.79068085338917,
                0.0
              ],
              [
                52.52490299224271,
                29.79067557228951,
                0.0
              ],
              [
                52.52489143558066,
                29.79067062822026,
                0.0
              ],
              [
                52.52487969376589,
                29.79066602646313,
                0.0
              ],
              [
                52.52486778136056,
                29.79066177226405,
                0.0
              ],
              [
                52.52485571084455,
                29.79065786999065,
                0.0
              ],
              [
                52.5248434978143,
                29.79065432487689,
                0.0
              ],
              [
                52.52483115370171,
                29.7906511404002,
                0.0
              ],
              [
                52.52481869407585,
                29.79064831999023,
                0.0
              ],
              [
                52.52480613243719,
                29.79064586710055,
                0.0
              ],
              [
                52.52458487754836,
                29.79060606224047,
                0.0
              ],
              [
                52.52459453235448,
                29.79056007117169,
                0.0
              ],
              [
                52.52460243088103,
                29.79051382514975,
                0.0
              ],
              [
                52.52460856669724,
                29.79046737748637,
                0.0
              ],
              [
                52.52461293122177,
                29.79042077610404,
                0.0
              ],
              [
                52.52461552010622,
                29.79037407519265,
                0.0
              ],
              [
                52.5246163310161,
                29.79032732530945,
                0.0
              ],
              [
                52.52461536161692,
                29.79028057701165,
                0.0
              ],
              [
                52.52461261477301,
                29.79023388260107,
                0.0
              ],
              [
                52.524608093335,
                29.79018729347729,
                0.0
              ],
              [
                52.5246018001535,
                29.79014086103985,
                0.0
              ],
              [
                52.52459374530545,
                29.79009463570247,
                0.0
              ],
              [
                52.5245839347579,
                29.79004866973097,
                0.0
              ],
              [
                52.52457238169054,
                29.79000301350314,
                0.0
              ],
              [
                52.52479753862282,
                29.7898833196212,
                0.0
              ],
              [
                52.5249533412289,
                29.79010400176324,
                0.0
              ]
            ]
          ]
        ]
      }
    },
    {
      "type": "Feature",
      "properties": {
        "Name": "17.2",
        "masahat": 3088.74
      },
      "geometry": {
        "type": "MultiPolygon",
        "coordinates": [
          [
            [
              [
                52.52450249517628,
                29.79084889375558,
                0.0
              ],
              [
                52.52474772387342,
                29.7908930105264,
                0.0
              ],
              [
                52.52475077843194,
                29.79089360691951,
                0.0
              ],
              [
                52.52475380745283,
                29.79089429293748,
                0.0
              ],
              [
                52.52475680884014,
                29.79089506679983,
                0.0
              ],
              [
                52.52475977847035,
                29.79089592945648,
                0.0
              ],
              [
                52.52476271318585,
                29.79089687733453,
                0.0
              ],
              [
                52.5247656099111,
                29.79089791227411,
                0.0
              ],
              [
                52.52476846548848,
                29.79089903070236,
                0.0
              ],
              [
                52.52477127578081,
                29.79090023266697,
                0.0
              ],
              [
                52.52477403765781,
                29.79090151639945,
                0.0
              ],
              [
                52.52477674902354,
                29.7909028801193,
                0.0
              ],
              [
                52.52477940572711,
                29.79090432297207,
                0.0
              ],
              [
                52.52478200567257,
                29.79090584317731,
                0.0
              ],
              [
                52.52478454468167,
                29.79090743807622,
                0.0
              ],
              [
                52.52478702172013,
                29.79090910768075,
                0.0
              ],
              [
                52.52478943259602,
                29.79091084842994,
                0.0
              ],
              [
                52.52479177521337,
                29.79091265854335,
                0.0
              ],
              [
                52.52479404645563,
                29.79091453715457,
                0.0
              ],
              [
                52.52479627885121,
                29.79091651456749,
                0.0
              ],
              [
                52.52479843259052,
                29.79091855785525,
                0.0
              ],
              [
                52.52480050452964,
                29.79092066434717,
                0.0
              ],
              [
                52.52480249255891,
                29.79092283136057,
                0.0
              ],
              [
                52.52480439560302,
                29.7909250562009,
                0.0
              ],
              [
                52.52480620949737,
                29.79092733711156,
                0.0
              ],
              [
                52.52480793211865,
                29.79092967050769,
                0.0
              ],
              [
                52.52480956342581,
                29.79093205368287,
                0.0
              ],
              [
                52.52481109925432,
                29.79093448488043,
                0.0
              ],
              [
                52.5249316777016,
                29.79113322358609,
                0.0
              ],
              [
                52.52478871170373,
                29.79120532655486,
                0.0
              ],
              [
                52.52464841123928,
                29.79128131021308,
                0.0
              ],
              [
                52.52451091479503,
                29.79136109807897,
                0.0
              ],
              [
                52.5243763577427,
                29.79144461280474,
                0.0
              ],
              [
                52.52415198206183,
                29.79142226898798,
                0.0
              ],
              [
                52.52414863758938,
                29.79141906278596,
                0.0
              ],
              [
                52.52409399958098,
                29.79136667659344,
                0.0
              ],
              [
                52.52413450150966,
                29.79133307342953,
                0.0
              ],
              [
                52.52417364655999,
                29.79129826775889,
                0.0
              ],
              [
                52.52421138674873,
                29.79126230164302,
                0.0
              ],
              [
                52.52424767720943,
                29.79122521800989,
                0.0
              ],
              [
                52.5242824751582,
                29.79118706066572,
                0.0
              ],
              [
                52.52431573785235,
                29.79114787612324,
                0.0
              ],
              [
                52.52434742563869,
                29.79110770995721,
                0.0
              ],
              [
                52.52437749996687,
                29.79106661224131,
                0.0
              ],
              [
                52.52440592639668,
                29.79102463119708,
                0.0
              ],
              [
                52.52443267051537,
                29.79098181685041,
                0.0
              ],
              [
                52.52445769897211,
                29.79093822101952,
                0.0
              ],
              [
                52.52448098358772,
                29.79089389546299,
                0.0
              ],
              [
                52.52450249517628,
                29.79084889375558,
                0.0
              ]
            ]
          ]
        ]
      }
    },
    {
      "type": "Feature",
      "properties": {
        "Name": "17.3",
        "masahat": 8757.04
      },
      "geometry": {
        "type": "MultiPolygon",
        "coordinates": [
          [
            [
              [
                52.52382584747826,
                29.79079078028111,
                0.0
              ],
              [
                52.52362129141693,
                29.79049801062404,
                0.0
              ],
              [
                52.52454202126705,
                29.79000856288037,
                0.0
              ],
              [
                52.524544517175,
                29.79001782535343,
                0.0
              ],
              [
                52.52455578035445,
                29.79006380796038,
                0.0
              ],
              [
                52.52456524201779,
                29.79011009828419,
                0.0
              ],
              [
                52.52457289203341,
                29.79015664230252,
                0.0
              ],
              [
                52.52457872233823,
                29.79020338596915,
                0.0
              ],
              [
                52.52458272591708,
                29.790250276128,
                0.0
              ],
              [
                52.52458489779597,
                29.79029725779472,
                0.0
              ],
              [
                52.52458523508316,
                29.79034427686322,
                0.0
              ],
              [
                52.52458373798975,
                29.79039127919152,
                0.0
              ],
              [
                52.52458040876812,
                29.79043820880936,
                0.0
              ],
              [
                52.52457524972532,
                29.79048501335513,
                0.0
              ],
              [
                52.52456826725094,
                29.79053163681069,
                0.0
              ],
              [
                52.52455947089218,
                29.79057802673076,
                0.0
              ],
              [
                52.52454886913466,
                29.79062412887755,
                0.0
              ],
              [
                52.52453647563554,
                29.79066988895356,
                0.0
              ],
              [
                52.52452230304512,
                29.79071525447751,
                0.0
              ],
              [
                52.52450636919899,
                29.79076017381053,
                0.0
              ],
              [
                52.52448869293971,
                29.79080459349743,
                0.0
              ],
              [
                52.52446929316476,
                29.79084846369169,
                0.0
              ],
              [
                52.52444819286786,
                29.79089173179242,
                0.0
              ],
              [
                52.52442541716618,
                29.79093434878353,
                0.0
              ],
              [
                52.52440099219766,
                29.79097626473483,
                0.0
              ],
              [
                52.52437494517574,
                29.7910174324106,
                0.0
              ],
              [
                52.52434730741019,
                29.79105780182087,
                0.0
              ],
              [
                52.52431811132734,
                29.79109732837672,
                0.0
              ],
              [
                52.52428738931263,
                29.7911359647827,
                0.0
              ],
              [
                52.52425517794362,
                29.7911736673043,
                0.0
              ],
              [
                52.52422151483238,
                29.79121039219505,
                0.0
              ],
              [
                52.52418643760483,
                29.79124609661064,
                0.0
              ],
              [
                52.52414998803798,
                29.79128073856118,
                0.0
              ],
              [
                52.52411220898439,
                29.79131427875142,
                0.0
              ],
              [
                52.52407314227617,
                29.79134667880014,
                0.0
              ],
              [
                52.52382178874897,
                29.79110568322485,
                0.0
              ],
              [
                52.52395197284204,
                29.79097129575717,
                0.0
              ],
              [
                52.52382584747826,
                29.79079078028111,
                0.0
              ]
            ]
          ]
        ]
      }
    },
    {
      "type": "Feature",
      "properties": {
        "Name": "GIS_87158",
        "masahat": 34.61
      },
      "geometry": {
        "type": "MultiPolygon",
        "coordinates": [
          [
            [
              [
                52.52491055795504,
                29.78981265036019,
                0.0
              ],
              [
                52.52495484684175,
                29.78978945943426,
                0.0
              ],
              [
                52.52498675149216,
                29.7898358165454,
                0.0
              ],
              [
                52.52494246362767,
                29.78985900747038,
                0.0
              ],
              [
                52.52491055795504,
                29.78981265036019,
                0.0
              ]
            ]
          ]
        ]
      }
    },
    {
      "type": "Feature",
      "properties": {
        "Name": "32",
        "masahat": 2239.22
      },
      "geometry": {
        "type": "MultiPolygon",
        "coordinates": [
          [
            [
              [
                52.5319569980087,
                29.78727484447368,
                0.0
              ],
              [
                52.53193737115451,
                29.78728527994029,
                0.0
              ],
              [
                52.5317134172409,
                29.78740435456542,
                0.0
              ],
              [
                52.53160495194122,
                29.78746361464249,
                0.0
              ],
              [
                52.531583692154,
                29.78743319001412,
                0.0
              ],
              [
                52.53134336042887,
                29.78708925477381,
                0.0
              ],
              [
                52.53169621686372,
                29.78690164804332,
                0.0
              ],
              [
                52.5319569980087,
                29.78727484447368,
                0.0
              ]
            ]
          ]
        ]
      }
    },
    {
      "type": "Feature",
      "properties": {
        "Name": "28",
        "masahat": 3324.11
      },
      "geometry": {
        "type": "MultiPolygon",
        "coordinates": [
          [
            [
              [
                52.53014699137317,
                29.78814746884009,
                0.0
              ],
              [
                52.52993191713621,
                29.7878396745422,
                0.0
              ],
              [
                52.5302847799828,
                29.78765207140211,
                0.0
              ],
              [
                52.53063975443209,
                29.7881600747788,
                0.0
              ],
              [
                52.53054167826806,
                29.78825254292021,
                0.0
              ],
              [
                52.53044655015645,
                29.7883473247114,
                0.0
              ],
              [
                52.53035444040749,
                29.78844434986549,
                0.0
              ],
              [
                52.53014699137317,
                29.78814746884009,
                0.0
              ]
            ]
          ]
        ]
      }
    },
    {
      "type": "Feature",
      "properties": {
        "Name": "22",
        "masahat": 3230.37
      },
      "geometry": {
        "type": "MultiPolygon",
        "coordinates": [
          [
            [
              [
                52.52849102727277,
                29.78934446346002,
                0.0
              ],
              [
                52.52813815611159,
                29.78953206298339,
                0.0
              ],
              [
                52.52776178282493,
                29.78899341709876,
                0.0
              ],
              [
                52.52811465392577,
                29.78880581859582,
                0.0
              ],
              [
                52.52849102727277,
                29.78934446346002,
                0.0
              ]
            ]
          ]
        ]
      }
    },
    {
      "type": "Feature",
      "properties": {
        "Name": "1",
        "masahat": 2258.51
      },
      "geometry": {
        "type": "MultiPolygon",
        "coordinates": [
          [
            [
              [
                52.53173987525176,
                29.78627155156661,
                0.0
              ],
              [
                52.53192840949628,
                29.78654136031075,
                0.0
              ],
              [
                52.53194404441955,
                29.7865637354599,
                0.0
              ],
              [
                52.5319416730315,
                29.78657226285004,
                0.0
              ],
              [
                52.53194035197532,
                29.78657701176038,
                0.0
              ],
              [
                52.53193187355267,
                29.78660749493213,
                0.0
              ],
              [
                52.53192862893655,
                29.78660921988235,
                0.0
              ],
              [
                52.53163090386691,
                29.78676751613232,
                0.0
              ],
              [
                52.53161018732082,
                29.78677853083584,
                0.0
              ],
              [
                52.53159510126096,
                29.7867569406273,
                0.0
              ],
              [
                52.53134292014435,
                29.78639604804032,
                0.0
              ],
              [
                52.5313413434482,
                29.7863937915416,
                0.0
              ],
              [
                52.5315736216635,
                29.786270293574,
                0.0
              ],
              [
                52.53161926166837,
                29.78624602729578,
                0.0
              ],
              [
                52.53173987525176,
                29.78627155156661,
                0.0
              ]
            ]
          ]
        ]
      }
    },
    {
      "type": "Feature",
      "properties": {
        "Name": "6",
        "masahat": 2307.4
      },
      "geometry": {
        "type": "MultiPolygon",
        "coordinates": [
          [
            [
              [
                52.53014582178007,
                29.7875570941088,
                0.0
              ],
              [
                52.53013898251081,
                29.78756073024552,
                0.0
              ],
              [
                52.52979295899569,
                29.78774469777997,
                0.0
              ],
              [
                52.52978829661655,
                29.78773802489616,
                0.0
              ],
              [
                52.52952711200656,
                29.78736425393095,
                0.0
              ],
              [
                52.52952411913458,
                29.78735995378581,
                0.0
              ],
              [
                52.52987026092432,
                29.78717592423862,
                0.0
              ],
              [
                52.52987698115102,
                29.7871723517542,
                0.0
              ],
              [
                52.53014582178007,
                29.7875570941088,
                0.0
              ]
            ]
          ]
        ]
      }
    },
    {
      "type": "Feature",
      "properties": {
        "Name": "42",
        "masahat": 3144.62
      },
      "geometry": {
        "type": "MultiPolygon",
        "coordinates": [
          [
            [
              [
                52.52727361348191,
                29.78999167691088,
                0.0
              ],
              [
                52.52757079142534,
                29.79041698229081,
                0.0
              ],
              [
                52.52741415636569,
                29.79046065760621,
                0.0
              ],
              [
                52.52725598149849,
                29.79049988130829,
                0.0
              ],
              [
                52.52713432870161,
                29.79052636251221,
                0.0
              ],
              [
                52.52711547455884,
                29.7905304666593,
                0.0
              ],
              [
                52.52709643069289,
                29.79053461179563,
                0.0
              ],
              [
                52.52681403747718,
                29.79013046192686,
                0.0
              ],
              [
                52.52721984614443,
                29.78991472695494,
                0.0
              ],
              [
                52.52727361348191,
                29.78999167691088,
                0.0
              ]
            ]
          ]
        ]
      }
    },
    {
      "type": "Feature",
      "properties": {
        "Name": "14",
        "masahat": 2265.88
      },
      "geometry": {
        "type": "MultiPolygon",
        "coordinates": [
          [
            [
              [
                52.52692751609124,
                29.78880373370412,
                0.0
              ],
              [
                52.52704940175176,
                29.78897817288882,
                0.0
              ],
              [
                52.52713183040535,
                29.78909614273226,
                0.0
              ],
              [
                52.5271111595001,
                29.78917045261843,
                0.0
              ],
              [
                52.52681121571595,
                29.78932990899425,
                0.0
              ],
              [
                52.52654525231123,
                29.78894926459851,
                0.0
              ],
              [
                52.52654238349562,
                29.78894515875703,
                0.0
              ],
              [
                52.52684232558083,
                29.78878570301996,
                0.0
              ],
              [
                52.52692751609124,
                29.78880373370412,
                0.0
              ]
            ]
          ]
        ]
      }
    },
    {
      "type": "Feature",
      "properties": {
        "Name": "15",
        "masahat": 2307.42
      },
      "geometry": {
        "type": "MultiPolygon",
        "coordinates": [
          [
            [
              [
                52.52649205329735,
                29.78897702094384,
                0.0
              ],
              [
                52.52675828514035,
                29.78935804764116,
                0.0
              ],
              [
                52.52640540944991,
                29.78954564266521,
                0.0
              ],
              [
                52.52613923123176,
                29.78916468952057,
                0.0
              ],
              [
                52.52613657709459,
                29.78916089159196,
                0.0
              ],
              [
                52.52648945201673,
                29.78897329820747,
                0.0
              ],
              [
                52.52649205329735,
                29.78897702094384,
                0.0
              ]
            ]
          ]
        ]
      }
    },
    {
      "type": "Feature",
      "properties": {
        "Name": "17",
        "masahat": 2307.43
      },
      "geometry": {
        "type": "MultiPolygon",
        "coordinates": [
          [
            [
              [
                52.52573076994992,
                29.78937662322356,
                0.0
              ],
              [
                52.52599960140591,
                29.7897613751448,
                0.0
              ],
              [
                52.52564672281133,
                29.78994896732984,
                0.0
              ],
              [
                52.52537789215108,
                29.78956421557337,
                0.0
              ],
              [
                52.52573076994992,
                29.78937662322356,
                0.0
              ]
            ]
          ]
        ]
      }
    },
    {
      "type": "Feature",
      "properties": {
        "Name": "35",
        "masahat": 2503.91
      },
      "geometry": {
        "type": "MultiPolygon",
        "coordinates": [
          [
            [
              [
                52.53007055541399,
                29.78878240809927,
                0.0
              ],
              [
                52.5298369872323,
                29.78908900221923,
                0.0
              ],
              [
                52.52954879689681,
                29.7886765725424,
                0.0
              ],
              [
                52.52949502861131,
                29.78859962353423,
                0.0
              ],
              [
                52.52984789491467,
                29.78841202055584,
                0.0
              ],
              [
                52.53008947496234,
                29.78875774689748,
                0.0
              ],
              [
                52.53007055541399,
                29.78878240809927,
                0.0
              ]
            ]
          ]
        ]
      }
    },
    {
      "type": "Feature",
      "properties": {
        "Name": "26",
        "masahat": 2307.39
      },
      "geometry": {
        "type": "MultiPolygon",
        "coordinates": [
          [
            [
              [
                52.52949502861131,
                29.78859962353423,
                0.0
              ],
              [
                52.52922618845788,
                29.78821487901065,
                0.0
              ],
              [
                52.52957905295896,
                29.78802727768382,
                0.0
              ],
              [
                52.52979412657056,
                29.78833507257167,
                0.0
              ],
              [
                52.52984789491467,
                29.78841202055584,
                0.0
              ],
              [
                52.52949502861131,
                29.78859962353423,
                0.0
              ]
            ]
          ]
        ]
      }
    },
    {
      "type": "Feature",
      "properties": {
        "Name": "25",
        "masahat": 2768.87
      },
      "geometry": {
        "type": "MultiPolygon",
        "coordinates": [
          [
            [
              [
                52.52919593011323,
                29.78886417385346,
                0.0
              ],
              [
                52.52887332159185,
                29.78840248035089,
                0.0
              ],
              [
                52.52922618845788,
                29.78821487901065,
                0.0
              ],
              [
                52.52949502861131,
                29.78859962353423,
                0.0
              ],
              [
                52.52954879689681,
                29.7886765725424,
                0.0
              ],
              [
                52.52919593011323,
                29.78886417385346,
                0.0
              ]
            ]
          ]
        ]
      }
    },
    {
      "type": "Feature",
      "properties": {
        "Name": "36",
        "masahat": 2881.87
      },
      "geometry": {
        "type": "MultiPolygon",
        "coordinates": [
          [
            [
              [
                52.5298369872323,
                29.78908900221923,
                0.0
              ],
              [
                52.52975943239023,
                29.78919080236967,
                0.0
              ],
              [
                52.52971584789231,
                29.78924613208395,
                0.0
              ],
              [
                52.52967032302939,
                29.78930025978282,
                0.0
              ],
              [
                52.52962290253985,
                29.78935313441636,
                0.0
              ],
              [
                52.52960405971204,
                29.78937285623729,
                0.0
              ],
              [
                52.5296013969653,
                29.78937564275331,
                0.0
              ],
              [
                52.52957363014183,
                29.7894047058488,
                0.0
              ],
              [
                52.52919593011323,
                29.78886417385346,
                0.0
              ],
              [
                52.52954879689681,
                29.7886765725424,
                0.0
              ],
              [
                52.5298369872323,
                29.78908900221923,
                0.0
              ]
            ]
          ]
        ]
      }
    },
    {
      "type": "Feature",
      "properties": {
        "Name": "24",
        "masahat": 3230.36
      },
      "geometry": {
        "type": "MultiPolygon",
        "coordinates": [
          [
            [
              [
                52.52914819164073,
                29.78889974448358,
                0.0
              ],
              [
                52.5291967676441,
                29.78896926258923,
                0.0
              ],
              [
                52.52919318837591,
                29.78897116549501,
                0.0
              ],
              [
                52.5288438981375,
                29.78915686392608,
                0.0
              ],
              [
                52.52846881487346,
                29.78862006937035,
                0.0
              ],
              [
                52.52846752266166,
                29.78861822010624,
                0.0
              ],
              [
                52.52881488776092,
                29.78843354562973,
                0.0
              ],
              [
                52.52882039107372,
                29.78843061980182,
                0.0
              ],
              [
                52.52914819164073,
                29.78889974448358,
                0.0
              ]
            ]
          ]
        ]
      }
    },
    {
      "type": "Feature",
      "properties": {
        "Name": "23",
        "masahat": 3230.36
      },
      "geometry": {
        "type": "MultiPolygon",
        "coordinates": [
          [
            [
              [
                52.52846881487346,
                29.78862006937035,
                0.0
              ],
              [
                52.5288438981375,
                29.78915686392608,
                0.0
              ],
              [
                52.52849102727277,
                29.78934446346002,
                0.0
              ],
              [
                52.52811465392577,
                29.78880581859582,
                0.0
              ],
              [
                52.52845186026724,
                29.78862654650887,
                0.0
              ],
              [
                52.52846752266166,
                29.78861822010624,
                0.0
              ],
              [
                52.52846881487346,
                29.78862006937035,
                0.0
              ]
            ]
          ]
        ]
      }
    },
    {
      "type": "Feature",
      "properties": {
        "Name": "37",
        "masahat": 3081.46
      },
      "geometry": {
        "type": "MultiPolygon",
        "coordinates": [
          [
            [
              [
                52.52953068723652,
                29.78944713925765,
                0.0
              ],
              [
                52.52952858087015,
                29.78944909912002,
                0.0
              ],
              [
                52.52950821078762,
                29.78946804996726,
                0.0
              ],
              [
                52.52948972165785,
                29.78948525199531,
                0.0
              ],
              [
                52.52947291352069,
                29.78950088888612,
                0.0
              ],
              [
                52.52941308261902,
                29.78955289824573,
                0.0
              ],
              [
                52.52935126397087,
                29.78960310787911,
                0.0
              ],
              [
                52.52928752701613,
                29.78965145832895,
                0.0
              ],
              [
                52.52923235392992,
                29.78969052760483,
                0.0
              ],
              [
                52.52922194749689,
                29.78969789638133,
                0.0
              ],
              [
                52.52922175503152,
                29.78969762069158,
                0.0
              ],
              [
                52.5288438981375,
                29.78915686392608,
                0.0
              ],
              [
                52.52919318837591,
                29.78897116549501,
                0.0
              ],
              [
                52.5291967676441,
                29.78896926258923,
                0.0
              ],
              [
                52.52953068723652,
                29.78944713925765,
                0.0
              ]
            ]
          ]
        ]
      }
    },
    {
      "type": "Feature",
      "properties": {
        "Name": "38",
        "masahat": 3301.11
      },
      "geometry": {
        "type": "MultiPolygon",
        "coordinates": [
          [
            [
              [
                52.52922175503152,
                29.78969762069158,
                0.0
              ],
              [
                52.52922194749689,
                29.78969789638133,
                0.0
              ],
              [
                52.52919889323287,
                29.78971312997414,
                0.0
              ],
              [
                52.52915595451405,
                29.78974150227271,
                0.0
              ],
              [
                52.52908833581512,
                29.7897831697935,
                0.0
              ],
              [
                52.52901916623271,
                29.78982285386163,
                0.0
              ],
              [
                52.52894852268219,
                29.78986051027331,
                0.0
              ],
              [
                52.52887648210675,
                29.78989609662921,
                0.0
              ],
              [
                52.52849102727277,
                29.78934446346002,
                0.0
              ],
              [
                52.5288438981375,
                29.78915686392608,
                0.0
              ],
              [
                52.52922175503152,
                29.78969762069158,
                0.0
              ]
            ]
          ]
        ]
      }
    },
    {
      "type": "Feature",
      "properties": {
        "Name": "39",
        "masahat": 3234.48
      },
      "geometry": {
        "type": "MultiPolygon",
        "coordinates": [
          [
            [
              [
                52.52813815611159,
                29.78953206298339,
                0.0
              ],
              [
                52.52849102727277,
                29.78934446346002,
                0.0
              ],
              [
                52.52887648210675,
                29.78989609662921,
                0.0
              ],
              [
                52.52883283622596,
                29.78991634163429,
                0.0
              ],
              [
                52.52878873809002,
                29.78993582668354,
                0.0
              ],
              [
                52.52850556931201,
                29.7900578791333,
                0.0
              ],
              [
                52.52813815611159,
                29.78953206298339,
                0.0
              ]
            ]
          ]
        ]
      }
    },
    {
      "type": "Feature",
      "properties": {
        "Name": "GIS_92627",
        "masahat": 120.78
      },
      "geometry": {
        "type": "MultiPolygon",
        "coordinates": [
          [
            [
              [
                52.52500767111847,
                29.79104653016033,
                0.0
              ],
              [
                52.52496201411928,
                29.79106760650352,
                0.0
              ],
              [
                52.5248659150588,
                29.79090921539126,
                0.0
              ],
              [
                52.52486407668349,
                29.79090627516304,
                0.0
              ],
              [
                52.52486215511808,
                29.79090337469456,
                0.0
              ],
              [
                52.52486015248591,
                29.7909005175706,
                0.0
              ],
              [
                52.52490590498088,
                29.79087939775238,
                0.0
              ],
              [
                52.52500767111847,
                29.79104653016033,
                0.0
              ]
            ]
          ]
        ]
      }
    },
    {
      "type": "Feature",
      "properties": {
        "Name": "GIS_92628",
        "masahat": 121.42
      },
      "geometry": {
        "type": "MultiPolygon",
        "coordinates": [
          [
            [
              [
                52.52496075925398,
                29.7908540763485,
                0.0
              ],
              [
                52.5250064521265,
                29.79083298425397,
                0.0
              ],
              [
                52.52501201849688,
                29.7908417727598,
                0.0
              ],
              [
                52.5251081177132,
                29.79100016376151,
                0.0
              ],
              [
                52.52506246074362,
                29.79102123923589,
                0.0
              ],
              [
                52.52496075925398,
                29.7908540763485,
                0.0
              ]
            ]
          ]
        ]
      }
    },
    {
      "type": "Feature",
      "properties": {
        "Name": "GIS_92629",
        "masahat": 102.86
      },
      "geometry": {
        "type": "MultiPolygon",
        "coordinates": [
          [
            [
              [
                52.5246092860523,
                29.79076689205892,
                0.0
              ],
              [
                52.52479119733977,
                29.79080058720627,
                0.0
              ],
              [
                52.52478068944627,
                29.79084502800429,
                0.0
              ],
              [
                52.52477565507263,
                29.79084355663511,
                0.0
              ],
              [
                52.52477056506261,
                29.79084223659611,
                0.0
              ],
              [
                52.52476542668368,
                29.79084106960809,
                0.0
              ],
              [
                52.52476024615528,
                29.79084005650162,
                0.0
              ],
              [
                52.52459885198246,
                29.79081102159258,
                0.0
              ],
              [
                52.5246092860523,
                29.79076689205892,
                0.0
              ]
            ]
          ]
        ]
      }
    },
    {
      "type": "Feature",
      "properties": {
        "Name": "GIS_92630",
        "masahat": 104.62
      },
      "geometry": {
        "type": "MultiPolygon",
        "coordinates": [
          [
            [
              [
                52.52480377010362,
                29.79074741693907,
                0.0
              ],
              [
                52.52462180736075,
                29.79071393805618,
                0.0
              ],
              [
                52.52463224244663,
                29.79066980850887,
                0.0
              ],
              [
                52.5247936363986,
                29.79069884338541,
                0.0
              ],
              [
                52.52480397557061,
                29.79070085992274,
                0.0
              ],
              [
                52.52481423234858,
                29.79070317337292,
                0.0
              ],
              [
                52.52480377010362,
                29.79074741693907,
                0.0
              ]
            ]
          ]
        ]
      }
    },
    {
      "type": "Feature",
      "properties": {
        "Name": "17.4",
        "masahat": 1189.3
      },
      "geometry": {
        "type": "MultiPolygon",
        "coordinates": [
          [
            [
              [
                52.52362129141693,
                29.79049801062404,
                0.0
              ],
              [
                52.52382584747826,
                29.79079078028111,
                0.0
              ],
              [
                52.52366333348246,
                29.79095375697014,
                0.0
              ],
              [
                52.52351499073902,
                29.79081152585748,
                0.0
              ],
              [
                52.52345112733598,
                29.79075029372433,
                0.0
              ],
              [
                52.52347996628298,
                29.79057313681859,
                0.0
              ],
              [
                52.52356133896804,
                29.79052988067801,
                0.0
              ],
              [
                52.52362129141693,
                29.79049801062404,
                0.0
              ]
            ]
          ]
        ]
      }
    },
    {
      "type": "Feature",
      "properties": {
        "Name": "17.5",
        "masahat": 563.62
      },
      "geometry": {
        "type": "MultiPolygon",
        "coordinates": [
          [
            [
              [
                52.52382584747826,
                29.79079078028111,
                0.0
              ],
              [
                52.52395197284204,
                29.79097129575717,
                0.0
              ],
              [
                52.52382178874897,
                29.79110568322485,
                0.0
              ],
              [
                52.52366333348246,
                29.79095375697014,
                0.0
              ],
              [
                52.52382584747826,
                29.79079078028111,
                0.0
              ]
            ]
          ]
        ]
      }
    }
  ],
  "center": [
    52.5276591535407,
    29.789236089294317
  ],
  "bounds": [
    [
      52.52345112733598,
      29.78624602729578
    ],
    [
      52.53225178133386,
      29.79144461280474
    ]
  ]
}