{
  "type": "FeatureCollection",
  "name": "ناحیه 33 هکتاری",
  "centroid": [
    52.480516,
    29.815916
  ],
  "crs": {
    "type": "name",
    "properties": {
      "name": "urn:ogc:def:crs:OGC:1.3:CRS84"
    }
  },
  "features": [
    {
      "type": "Feature",
      "geometry": {
        "type": "Polygon",
        "coordinates": [
          [
            [
              52.4820918281631,
              29.81393902522415
            ],
            [
              52.48257562132132,
              29.815341579878
            ],
            [
              52.48247832136025,
              29.81544186784371
            ],
            [
              52.4824033635341,
              29.815459691731
            ],
            [
              52.48232916135709,
              29.81547978097594
            ],
            [
              52.48225580655588,
              29.81550211109014
            ],
            [
              52.48218338667915,
              29.81552665492524
            ],
            [
              52.48211199340086,
              29.81555338438446
            ],
            [
              52.48204171002555,
              29.81558226514871
            ],
            [
              52.48197262192725,
              29.81561326287586
            ],
            [
              52.4819048144271,
              29.81564633961516
            ],
            [
              52.48183836866843,
              29.81568145475586
            ],
            [
              52.48177336576829,
              29.81571856588296
            ],
            [
              52.48170988375377,
              29.81575763151854
            ],
            [
              52.48164800047938,
              29.81579859845636
            ],
            [
              52.48158779078946,
              29.81584141984042
            ],
            [
              52.4815293263452,
              29.8158860434364
            ],
            [
              52.48147268089073,
              29.81593241788904
            ],
            [
              52.48141792078223,
              29.81598048200031
            ],
            [
              52.48136511455186,
              29.81603018176647
            ],
            [
              52.48131432333057,
              29.81608145243875
            ],
            [
              52.4812656114466,
              29.81613423554891
            ],
            [
              52.48121903588013,
              29.81618846549236
            ],
            [
              52.48117465468626,
              29.81624407935952
            ],
            [
              52.48113252268373,
              29.81630100525361
            ],
            [
              52.48109268855071,
              29.81635917585839
            ],
            [
              52.48105520091256,
              29.81641852024879
            ],
            [
              52.48102010530456,
              29.81647896843661
            ],
            [
              52.48098744718251,
              29.8165404450205
            ],
            [
              52.48095726271791,
              29.81660287650774
            ],
            [
              52.48092958907729,
              29.81666618668733
            ],
            [
              52.48090446031036,
              29.8167302984808
            ],
            [
              52.48088190735008,
              29.81679513394211
            ],
            [
              52.48086195908707,
              29.8168606169527
            ],
            [
              52.48084463601574,
              29.81692666336695
            ],
            [
              52.48076896449479,
              29.81721424580121
            ],
            [
              52.48067911944276,
              29.81755624160068
            ],
            [
              52.48067869451776,
              29.81755774062603
            ],
            [
              52.48067821043457,
              29.81755922768176
            ],
            [
              52.4806776691826,
              29.81756069733158
            ],
            [
              52.48067706871922,
              29.81756215140306
            ],
            [
              52.48067641210836,
              29.81756358715484
            ],
            [
              52.48067570034471,
              29.81756500186878
            ],
            [
              52.48067493131916,
              29.81756639286153
            ],
            [
              52.48067411023131,
              29.81756776187945
            ],
            [
              52.48067323495878,
              29.81756910533704
            ],
            [
              52.48067230859205,
              29.81757042229729
            ],
            [
              52.48067133005662,
              29.81757171006526
            ],
            [
              52.4806703003738,
              29.81757296772716
            ],
            [
              52.48066922366869,
              29.81757419433445
            ],
            [
              52.48066809886679,
              29.81757538719214
            ],
            [
              52.48066692698938,
              29.81757654538647
            ],
            [
              52.48066571010568,
              29.81757766889424
            ],
            [
              52.48066445129287,
              29.81757875587629
            ],
            [
              52.48066314947648,
              29.81757980363768
            ],
            [
              52.48066180672566,
              29.8175808121552
            ],
            [
              52.48066042610437,
              29.81758177868752
            ],
            [
              52.48065900868706,
              29.81758270592961
            ],
            [
              52.48065755442055,
              29.81758359027269
            ],
            [
              52.48065606739004,
              29.81758442806169
            ],
            [
              52.48065454763541,
              29.81758522200313
            ],
            [
              52.480652997186,
              29.81758596936729
            ],
            [
              52.48065141813756,
              29.81758667193531
            ],
            [
              52.48064981354071,
              29.8175873260637
            ],
            [
              52.48064818338215,
              29.81758793085026
            ],
            [
              52.480646530779,
              29.8175884871624
            ],
            [
              52.48064485675251,
              29.81758899408633
            ],
            [
              52.48064316437992,
              29.81758944978288
            ],
            [
              52.4806414547091,
              29.81758985514268
            ],
            [
              52.48001669977239,
              29.81771900268711
            ],
            [
              52.47938762403746,
              29.81783107753822
            ],
            [
              52.47875484186598,
              29.81792596898288
            ],
            [
              52.47873227297354,
              29.81792902695801
            ],
            [
              52.47873012053756,
              29.81792901946915
            ],
            [
              52.47872796925444,
              29.8179289497064
            ],
            [
              52.47872582326259,
              29.81792881762339
            ],
            [
              52.4787236814743,
              29.81792861962301
            ],
            [
              52.47872155019013,
              29.81792836195103
            ],
            [
              52.47871942935698,
              29.81792804099872
            ],
            [
              52.47871732105732,
              29.81792765764511
            ],
            [
              52.47871523047746,
              29.8179272127345
            ],
            [
              52.47871315660936,
              29.81792670808283
            ],
            [
              52.47871110459945,
              29.8179261418278
            ],
            [
              52.47870907653024,
              29.81792551484845
            ],
            [
              52.47870707244156,
              29.81792482985137
            ],
            [
              52.47870509648511,
              29.81792408769238
            ],
            [
              52.4787031475997,
              29.8179232865787
            ],
            [
              52.47870123408875,
              29.81792242822208
            ],
            [
              52.47869935393617,
              29.8179215162544
            ],
            [
              52.4786975091713,
              29.81792054794595
            ],
            [
              52.47869570398568,
              29.81791952685915
            ],
            [
              52.47869393837932,
              29.81791845299399
            ],
            [
              52.47869221548258,
              29.81791732812014
            ],
            [
              52.47868421279979,
              29.81791052567438
            ],
            [
              52.47867595083522,
              29.81790396434613
            ],
            [
              52.47866743897995,
              29.81789764944421
            ],
            [
              52.47865868872082,
              29.81789158805866
            ],
            [
              52.4786497084541,
              29.81788578821648
            ],
            [
              52.47864050964007,
              29.81788025520333
            ],
            [
              52.4786311017096,
              29.81787499703461
            ],
            [
              52.47862149404044,
              29.817870018117
            ],
            [
              52.47861169916728,
              29.81786532643114
            ],
            [
              52.47860172852377,
              29.81786092545837
            ],
            [
              52.47859159357013,
              29.81785682048436
            ],
            [
              52.47858130575328,
              29.81785301589266
            ],
            [
              52.47857087652018,
              29.81784951606677
            ],
            [
              52.47856031628311,
              29.81784632540178
            ],
            [
              52.47854963956623,
              29.81784344644211
            ],
            [
              52.47853885784304,
              29.81784088537569
            ],
            [
              52.47852798250729,
              29.81783864297726
            ],
            [
              52.47852589324122,
              29.81783807623392
            ],
            [
              52.47852382788938,
              29.81783744696192
            ],
            [
              52.47852178853424,
              29.81783675604028
            ],
            [
              52.47851977829291,
              29.81783600433649
            ],
            [
              52.47851779924785,
              29.81783519272954
            ],
            [
              52.4785158513858,
              29.81783432031726
            ],
            [
              52.47851394096748,
              29.8178333906389
            ],
            [
              52.47851206800615,
              29.81783240459668
            ],
            [
              52.47851023458432,
              29.81783136306959
            ],
            [
              52.47850844484037,
              29.81783026601134
            ],
            [
              52.47850685143267,
              29.81782922089576
            ],
            [
              52.47850529775035,
              29.81782813292589
            ],
            [
              52.47850378273225,
              29.81782700030899
            ],
            [
              52.47850231059645,
              29.81782582841182
            ],
            [
              52.47850087927374,
              29.81782461725755
            ],
            [
              52.47849949599306,
              29.81782336586296
            ],
            [
              52.4784981556345,
              29.81782207789466
            ],
            [
              52.47849686338434,
              29.81782075419697
            ],
            [
              52.47849347716241,
              29.81781474736472
            ],
            [
              52.47849032133702,
              29.81780864591594
            ],
            [
              52.47848740015275,
              29.8178024570218
            ],
            [
              52.4784847126945,
              29.81779618881355
            ],
            [
              52.47848226522292,
              29.81778984483049
            ],
            [
              52.4784800599267,
              29.81778343316913
            ],
            [
              52.47847809798643,
              29.81777696374192
            ],
            [
              52.4784763815244,
              29.81777044013446
            ],
            [
              52.47846497344841,
              29.81771259380892
            ],
            [
              52.47845135945499,
              29.81765511234781
            ],
            [
              52.47843555496151,
              29.81759805874117
            ],
            [
              52.47841757951033,
              29.81754149503045
            ],
            [
              52.47839745268349,
              29.81748548596353
            ],
            [
              52.47837519505758,
              29.81743009357007
            ],
            [
              52.4783508323422,
              29.81737537711524
            ],
            [
              52.47832439446475,
              29.81732140123094
            ],
            [
              52.47829590503865,
              29.81726822340092
            ],
            [
              52.47826540010549,
              29.8172159018722
            ],
            [
              52.47823291160806,
              29.81716449764459
            ],
            [
              52.47819847863811,
              29.81711406532153
            ],
            [
              52.47816213411942,
              29.81706466228238
            ],
            [
              52.4781239223029,
              29.81701634217049
            ],
            [
              52.4781193482765,
              29.81701054983685
            ],
            [
              52.47811500510913,
              29.81700462408176
            ],
            [
              52.47811090217848,
              29.81699856931201
            ],
            [
              52.47810703961724,
              29.81699239454946
            ],
            [
              52.47810342477376,
              29.81698610693059
            ],
            [
              52.47810006500959,
              29.81697971449404
            ],
            [
              52.47809695732711,
              29.81697322449206
            ],
            [
              52.47809410907463,
              29.81696664406109
            ],
            [
              52.47809152452321,
              29.81695998217672
            ],
            [
              52.47808920480031,
              29.81695324514269
            ],
            [
              52.47808715421682,
              29.81694644464108
            ],
            [
              52.47808537490825,
              29.81693958515971
            ],
            [
              52.47808386907646,
              29.81693267569727
            ],
            [
              52.47808263787546,
              29.81692572436187
            ],
            [
              52.47808168455497,
              29.81691874104283
            ],
            [
              52.47808100611736,
              29.81691173299233
            ],
            [
              52.4780806088896,
              29.81690470826062
            ],
            [
              52.47808048886598,
              29.81689767591585
            ],
            [
              52.47808064925643,
              29.81689064314078
            ],
            [
              52.47808108714293,
              29.8168836226007
            ],
            [
              52.47808180463444,
              29.81687661697901
            ],
            [
              52.47808279878642,
              29.81686963713668
            ],
            [
              52.47808406973154,
              29.81686269209555
            ],
            [
              52.47808561447217,
              29.81685578910778
            ],
            [
              52.4780874341623,
              29.81684893628148
            ],
            [
              52.47808952274036,
              29.81684214361013
            ],
            [
              52.47809188031248,
              29.81683541831118
            ],
            [
              52.47809450182513,
              29.81682876856216
            ],
            [
              52.4780973883792,
              29.8168221988624
            ],
            [
              52.47810053087576,
              29.81681572375103
            ],
            [
              52.47810393142373,
              29.81680934591143
            ],
            [
              52.47810757979664,
              29.81680307357899
            ],
            [
              52.4781114781964,
              29.8167969157524
            ],
            [
              52.47811561638325,
              29.81679087976488
            ],
            [
              52.4781199903117,
              29.81678497197798
            ],
            [
              52.47812459905337,
              29.81677919962074
            ],
            [
              52.47812943235523,
              29.81677356912418
            ],
            [
              52.47813448723295,
              29.81676808864267
            ],
            [
              52.47813975548947,
              29.81676276368191
            ],
            [
              52.47814523203144,
              29.81675759971284
            ],
            [
              52.47815090976278,
              29.81675260674051
            ],
            [
              52.4781567835238,
              29.81674778572494
            ],
            [
              52.47818819702697,
              29.81672143170937
            ],
            [
              52.47821865238085,
              29.81669423750723
            ],
            [
              52.47824811886649,
              29.81666622511884
            ],
            [
              52.47827656796691,
              29.81663742554332
            ],
            [
              52.47830397212025,
              29.81660786435502
            ],
            [
              52.47833030592683,
              29.8165775734205
            ],
            [
              52.47835553975578,
              29.81654657833723
            ],
            [
              52.47837965546306,
              29.81651491179292
            ],
            [
              52.47840333389752,
              29.81647575174855
            ],
            [
              52.47842556562144,
              29.8164359518935
            ],
            [
              52.47843861005595,
              29.81641171362037
            ],
            [
              52.47845069179672,
              29.81638709901839
            ],
            [
              52.47846179470255,
              29.81636213624075
            ],
            [
              52.47847190574934,
              29.8163368543081
            ],
            [
              52.47848101402202,
              29.81631128492445
            ],
            [
              52.47848910753115,
              29.81628545709886
            ],
            [
              52.47849617843896,
              29.81625940069617
            ],
            [
              52.47850221480918,
              29.81623314833414
            ],
            [
              52.47850300905917,
              29.81623009497321
            ],
            [
              52.47850395608619,
              29.81622638390626
            ],
            [
              52.47850551934221,
              29.81622010873057
            ],
            [
              52.47850716633785,
              29.81621326595247
            ],
            [
              52.47850881586295,
              29.81620617319971
            ],
            [
              52.47851100862168,
              29.81619626720878
            ],
            [
              52.47851295997304,
              29.81618697299439
            ],
            [
              52.4785139531128,
              29.81618203604276
            ],
            [
              52.47851512677096,
              29.81617600615002
            ],
            [
              52.47851859387522,
              29.81615671697135
            ],
            [
              52.47852127977125,
              29.81613982049974
            ],
            [
              52.47852369800958,
              29.81612259586719
            ],
            [
              52.47852459781814,
              29.81611553586751
            ],
            [
              52.47852583885526,
              29.81610508468999
            ],
            [
              52.47852620547259,
              29.81610180150802
            ],
            [
              52.47852656992674,
              29.81609844165196
            ],
            [
              52.47852685352141,
              29.81609577479041
            ],
            [
              52.47852701835414,
              29.81609417852286
            ],
            [
              52.47852813226837,
              29.81608275334572
            ],
            [
              52.47852903413653,
              29.81607245845822
            ],
            [
              52.47853009710835,
              29.81605869680803
            ],
            [
              52.47853095153092,
              29.81604574056837
            ],
            [
              52.47853180803311,
              29.81602997263496
            ],
            [
              52.47853233059412,
              29.81601795041479
            ],
            [
              52.47853343431798,
              29.81596329546726
            ],
            [
              52.47853181151678,
              29.81587911330159
            ],
            [
              52.47852998543953,
              29.81583828059849
            ],
            [
              52.4785276779271,
              29.81579658523831
            ],
            [
              52.47852486249659,
              29.81575075114523
            ],
            [
              52.47852239143943,
              29.81571123133555
            ],
            [
              52.47852080446751,
              29.81568481704619
            ],
            [
              52.47851913471509,
              29.81565467614423
            ],
            [
              52.4785178257875,
              29.81562774892464
            ],
            [
              52.47851696045009,
              29.8156067062702
            ],
            [
              52.4785165858558,
              29.81559608819453
            ],
            [
              52.47851627083833,
              29.81558607311311
            ],
            [
              52.47851603717606,
              29.81557750807319
            ],
            [
              52.47851595852804,
              29.81557434356806
            ],
            [
              52.47851582869699,
              29.81556861520443
            ],
            [
              52.4785144736042,
              29.81552926968753
            ],
            [
              52.47851456274216,
              29.81548990530087
            ],
            [
              52.47851609671989,
              29.815450563545
            ],
            [
              52.4785190740773,
              29.81541128594363
            ],
            [
              52.4785234922666,
              29.81537211042316
            ],
            [
              52.47852934362025,
              29.81533307857668
            ],
            [
              52.47853662666493,
              29.81529423102548
            ],
            [
              52.47854533056303,
              29.81525560488634
            ],
            [
              52.4785554476471,
              29.81521724175215
            ],
            [
              52.47856696608493,
              29.81517918145772
            ],
            [
              52.47859744473641,
              29.81512724222696
            ],
            [
              52.47862990501549,
              29.81507622555446
            ],
            [
              52.47866430946403,
              29.81502618780273
            ],
            [
              52.47870062478894,
              29.81497718709227
            ],
            [
              52.47873880414178,
              29.8149292744766
            ],
            [
              52.47877880700133,
              29.81488250905938
            ],
            [
              52.47882058856227,
              29.81483694006649
            ],
            [
              52.47886409891316,
              29.81479262129268
            ],
            [
              52.47890929425729,
              29.81474960014785
            ],
            [
              52.47895611843656,
              29.81470792778962
            ],
            [
              52.4790045224422,
              29.81466764897924
            ],
            [
              52.47905444902901,
              29.8146288112772
            ],
            [
              52.47910584294159,
              29.81459145680773
            ],
            [
              52.47915864685565,
              29.81455562771821
            ],
            [
              52.479212799309,
              29.81452136620245
            ],
            [
              52.47926824082917,
              29.81448870901802
            ],
            [
              52.47932490987483,
              29.81445769294567
            ],
            [
              52.47938928066866,
              29.81443020716168
            ],
            [
              52.47945370489143,
              29.81440269819037
            ],
            [
              52.47959649903611,
              29.81434386230993
            ],
            [
              52.47967505009456,
              29.81431289158362
            ],
            [
              52.47980412720332,
              29.81426695907657
            ],
            [
              52.47985393755166,
              29.81425040189298
            ],
            [
              52.47995467642271,
              29.81421993502326
            ],
            [
              52.48000553682396,
              29.81420596654535
            ],
            [
              52.48015900972803,
              29.81416657934342
            ],
            [
              52.48026251493767,
              29.8141436734816
            ],
            [
              52.48051665604847,
              29.81408717672183
            ],
            [
              52.48066727467452,
              29.81405354081122
            ],
            [
              52.48193493523176,
              29.81383632746932
            ],
            [
              52.4820918281631,
              29.81393902522415
            ]
          ]
        ]
      },
      "properties": {
        "name": "10",
        "area_m2": 137551.81,
        "centroid": [
          52.480168,
          29.815799
        ]
      }
    },
    {
      "type": "Feature",
      "geometry": {
        "type": "Polygon",
        "coordinates": [
          [
            [
              52.48060413138744,
              29.82126515567086
            ],
            [
              52.48058704453666,
              29.82126605912299
            ],
            [
              52.48057000458182,
              29.82126747637666
            ],
            [
              52.48055303217546,
              29.82126940449339
            ],
            [
              52.48053614592747,
              29.82127184236235
            ],
            [
              52.48051936442112,
              29.82127478706826
            ],
            [
              52.48050271035167,
              29.82127823384519
            ],
            [
              52.48048620231571,
              29.82128218068008
            ],
            [
              52.48046986092597,
              29.821286621928
            ],
            [
              52.48045370369122,
              29.82129155197879
            ],
            [
              52.48043775223222,
              29.82129696337158
            ],
            [
              52.4804220240977,
              29.82130285320278
            ],
            [
              52.48040653986054,
              29.8213092131209
            ],
            [
              52.48039131385917,
              29.82131603303973
            ],
            [
              52.4803763698369,
              29.82132330908392
            ],
            [
              52.48036171900173,
              29.82133102939767
            ],
            [
              52.48034738503049,
              29.82133918559476
            ],
            [
              52.48033338124039,
              29.82134776850273
            ],
            [
              52.4803197250606,
              29.82135676709837
            ],
            [
              52.48030643289896,
              29.82136617127228
            ],
            [
              52.48019127539633,
              29.82126919589
            ],
            [
              52.48007942663341,
              29.82117609945109
            ],
            [
              52.48007080791075,
              29.82116789455991
            ],
            [
              52.4800625094805,
              29.82115944515682
            ],
            [
              52.48005453663546,
              29.82115075930357
            ],
            [
              52.48004689887344,
              29.82114184952645
            ],
            [
              52.48003960352988,
              29.82113272205966
            ],
            [
              52.48003266008927,
              29.82112338852733
            ],
            [
              52.48002607595353,
              29.82111385967455
            ],
            [
              52.4800198595326,
              29.8211041444305
            ],
            [
              52.48001401515106,
              29.82109425537941
            ],
            [
              52.48000854916284,
              29.82108420237583
            ],
            [
              52.47997290388272,
              29.82097882852945
            ],
            [
              52.47994932078441,
              29.82091513271453
            ],
            [
              52.4798403659938,
              29.82063127402625
            ],
            [
              52.47978120770186,
              29.82049003141311
            ],
            [
              52.47975022963883,
              29.82041983587424
            ],
            [
              52.47971830023835,
              29.820349964092
            ],
            [
              52.4796807678973,
              29.82027035753292
            ],
            [
              52.47962490281174,
              29.82015314225093
            ],
            [
              52.47956696060067,
              29.82002606244445
            ],
            [
              52.47954080217824,
              29.81996270217372
            ],
            [
              52.47952871134184,
              29.81993099607785
            ],
            [
              52.47951737705904,
              29.81989922736745
            ],
            [
              52.47950551656027,
              29.81986348706721
            ],
            [
              52.47946866814878,
              29.81974317216086
            ],
            [
              52.47944897744507,
              29.81968122647658
            ],
            [
              52.47942679133606,
              29.81961889185647
            ],
            [
              52.47941442034892,
              29.81958783134502
            ],
            [
              52.4794012543253,
              29.81955702968163
            ],
            [
              52.47938389985286,
              29.81951915641919
            ],
            [
              52.47936563883096,
              29.81948183921716
            ],
            [
              52.47932981268111,
              29.81941391217093
            ],
            [
              52.47929208729808,
              29.81934735987956
            ],
            [
              52.4792532959029,
              29.81928198622852
            ],
            [
              52.47921416362149,
              29.81921749254634
            ],
            [
              52.47915476722344,
              29.81912074447346
            ],
            [
              52.47913963399801,
              29.81909625225948
            ],
            [
              52.47908119577406,
              29.81900202175664
            ],
            [
              52.4789910086578,
              29.81885677866998
            ],
            [
              52.47890165973654,
              29.81871151891069
            ],
            [
              52.47878939791653,
              29.81852604774257
            ],
            [
              52.47866144354757,
              29.8183121355229
            ],
            [
              52.47866860792794,
              29.81830613241957
            ],
            [
              52.47867554268775,
              29.81829992525176
            ],
            [
              52.47868223553126,
              29.81829352227811
            ],
            [
              52.47868868342108,
              29.81828692804434
            ],
            [
              52.47869487617052,
              29.81828015349248
            ],
            [
              52.4787008076251,
              29.81827320230079
            ],
            [
              52.47870647377923,
              29.81826608353749
            ],
            [
              52.4787118644064,
              29.81825880543806
            ],
            [
              52.47871697650909,
              29.81825137525472
            ],
            [
              52.47872180399924,
              29.81824380117669
            ],
            [
              52.47872634080206,
              29.8182360922953
            ],
            [
              52.47873058185082,
              29.81822825588597
            ],
            [
              52.47873452211865,
              29.81822030193065
            ],
            [
              52.47873816070381,
              29.81821223946277
            ],
            [
              52.47874148942249,
              29.81820407489031
            ],
            [
              52.47874450637819,
              29.81819581996484
            ],
            [
              52.47874690843442,
              29.81818979797754
            ],
            [
              52.47874953611505,
              29.8181838492606
            ],
            [
              52.47875238843855,
              29.8181779774344
            ],
            [
              52.47875545934335,
              29.81817219249241
            ],
            [
              52.47875874990388,
              29.81816649712957
            ],
            [
              52.47876225095477,
              29.81816090137414
            ],
            [
              52.47876596254908,
              29.81815540883484
            ],
            [
              52.47876987958021,
              29.8181500240805
            ],
            [
              52.47877402243472,
              29.8181447261292
            ],
            [
              52.47877836370954,
              29.81813955138101
            ],
            [
              52.47878289934592,
              29.81813450529533
            ],
            [
              52.47878762317607,
              29.81812959064817
            ],
            [
              52.47879253224225,
              29.81812481739832
            ],
            [
              52.4787976193288,
              29.81812018743114
            ],
            [
              52.47880287833434,
              29.81811570803363
            ],
            [
              52.47880830722949,
              29.81811138193543
            ],
            [
              52.47881389574793,
              29.81810721466549
            ],
            [
              52.4788196388096,
              29.81810321259695
            ],
            [
              52.47882553230267,
              29.81809937758048
            ],
            [
              52.47883156801672,
              29.81809571421966
            ],
            [
              52.47884466609411,
              29.81808938210593
            ],
            [
              52.47885800482871,
              29.81808344161647
            ],
            [
              52.47887156779984,
              29.81807790195829
            ],
            [
              52.47888533954165,
              29.81807276691385
            ],
            [
              52.4788993025856,
              29.81806804479959
            ],
            [
              52.4789134425005,
              29.81806373938633
            ],
            [
              52.47892774176465,
              29.81805985538185
            ],
            [
              52.47894218493888,
              29.81805639837291
            ],
            [
              52.4789567545148,
              29.81805337396947
            ],
            [
              52.47897143497355,
              29.81805078234524
            ],
            [
              52.47898735934838,
              29.8180484799773
            ],
            [
              52.47966868043349,
              29.81793949162563
            ],
            [
              52.48034544826103,
              29.81781072024659
            ],
            [
              52.48057765639864,
              29.81776174807012
            ],
            [
              52.48057938865022,
              29.81776140020732
            ],
            [
              52.48058113412808,
              29.81776110723856
            ],
            [
              52.48058288757944,
              29.81776086380869
            ],
            [
              52.48058465425709,
              29.81776067527287
            ],
            [
              52.48058642272726,
              29.81776053814988
            ],
            [
              52.48058819922412,
              29.81776045417456
            ],
            [
              52.48058997548421,
              29.81776042434181
            ],
            [
              52.4805917525155,
              29.81776044683569
            ],
            [
              52.48059352827542,
              29.81776052348374
            ],
            [
              52.48059529861227,
              29.81776065343018
            ],
            [
              52.48059706351274,
              29.8177608357728
            ],
            [
              52.48059882090765,
              29.81776107053483
            ],
            [
              52.48060056773312,
              29.81776136045756
            ],
            [
              52.48060229977093,
              29.81776170017431
            ],
            [
              52.4806040211861,
              29.81776209144302
            ],
            [
              52.48060572372842,
              29.81776253616087
            ],
            [
              52.48060740835273,
              29.81776302890314
            ],
            [
              52.4806090720217,
              29.81776357421553
            ],
            [
              52.48061071364756,
              29.8177641685009
            ],
            [
              52.48061233116111,
              29.81776481178245
            ],
            [
              52.48061392247985,
              29.81776550318119
            ],
            [
              52.480615485508,
              29.81776624091594
            ],
            [
              52.48061701612043,
              29.81776702593527
            ],
            [
              52.4806185184157,
              29.81776785548624
            ],
            [
              52.48061998515158,
              29.81776872965003
            ],
            [
              52.48062141632809,
              29.81776964842664
            ],
            [
              52.48062281190534,
              29.81777060910948
            ],
            [
              52.48062416876621,
              29.81777161083123
            ],
            [
              52.48062548379363,
              29.81777265272443
            ],
            [
              52.48062675696102,
              29.81777373298474
            ],
            [
              52.48062798828163,
              29.81777485251434
            ],
            [
              52.48062917457192,
              29.81777600593491
            ],
            [
              52.48063031276799,
              29.8177771959878
            ],
            [
              52.4806314059204,
              29.81777841902949
            ],
            [
              52.4806324467737,
              29.81777967423895
            ],
            [
              52.48063344152217,
              29.81778096064445
            ],
            [
              52.48063438287044,
              29.8177822747184
            ],
            [
              52.4806352718531,
              29.81778361644923
            ],
            [
              52.48063610740896,
              29.81778498404414
            ],
            [
              52.4806368874555,
              29.81778637662417
            ],
            [
              52.48063761400874,
              29.81778779055737
            ],
            [
              52.4806382839915,
              29.81778922768291
            ],
            [
              52.48063889626277,
              29.81779068079489
            ],
            [
              52.48063945193694,
              29.81779215529486
            ],
            [
              52.48063994672933,
              29.81779364130515
            ],
            [
              52.48064036517157,
              29.81779507222655
            ],
            [
              52.48064072889974,
              29.81779651188215
            ],
            [
              52.48064103896171,
              29.81779796116253
            ],
            [
              52.48064129429633,
              29.81779941827496
            ],
            [
              52.48064149282106,
              29.81780088234043
            ],
            [
              52.48064163864773,
              29.81780235150817
            ],
            [
              52.48064172762463,
              29.8178038249224
            ],
            [
              52.48064176383696,
              29.81780529892801
            ],
            [
              52.48064174314634,
              29.81780677357137
            ],
            [
              52.48064166551284,
              29.81780824614592
            ],
            [
              52.48064153507489,
              29.81780971660529
            ],
            [
              52.48064134868879,
              29.81781118227772
            ],
            [
              52.48063533433972,
              29.81785883419394
            ],
            [
              52.48063120446389,
              29.81790663733469
            ],
            [
              52.48062896550833,
              29.81795453748789
            ],
            [
              52.48062861761945,
              29.81800247419565
            ],
            [
              52.48063016311922,
              29.81805039419427
            ],
            [
              52.48063359909006,
              29.81809823976701
            ],
            [
              52.48063892367564,
              29.8181459549899
            ],
            [
              52.48064612670285,
              29.81819348132503
            ],
            [
              52.48065520215017,
              29.81824076109022
            ],
            [
              52.48066613993746,
              29.81828774206277
            ],
            [
              52.48067892576626,
              29.8183343666531
            ],
            [
              52.48069354434328,
              29.81838057998976
            ],
            [
              52.48070997934055,
              29.81842632721284
            ],
            [
              52.48072821030483,
              29.81847155441091
            ],
            [
              52.48074821468693,
              29.81851620589132
            ],
            [
              52.48076997310786,
              29.81856023043748
            ],
            [
              52.48079345377313,
              29.81860357697196
            ],
            [
              52.4808186331384,
              29.81864619252007
            ],
            [
              52.48084547838753,
              29.81868802691807
            ],
            [
              52.48087396291189,
              29.8187290299326
            ],
            [
              52.48090404669261,
              29.81876915418754
            ],
            [
              52.48093569798752,
              29.81880835221402
            ],
            [
              52.48096887676403,
              29.81884657573374
            ],
            [
              52.48100354615971,
              29.8188837809445
            ],
            [
              52.48103966310426,
              29.81891992411372
            ],
            [
              52.48107718552183,
              29.81895495879065
            ],
            [
              52.48111606942678,
              29.81898884937396
            ],
            [
              52.4811562686443,
              29.81902155216588
            ],
            [
              52.48119773498338,
              29.8190530271006
            ],
            [
              52.48124041722874,
              29.81908323956026
            ],
            [
              52.48128426929804,
              29.81911215216246
            ],
            [
              52.48132923689838,
              29.81913973212856
            ],
            [
              52.48137526675793,
              29.81916594576619
            ],
            [
              52.48142230356205,
              29.81919076121064
            ],
            [
              52.48147029101454,
              29.81921415021754
            ],
            [
              52.48151917490152,
              29.81923608542163
            ],
            [
              52.48244758575734,
              29.81966701895589
            ],
            [
              52.48244989560996,
              29.8196682247183
            ],
            [
              52.48245215682624,
              29.819669500506
            ],
            [
              52.48245436626235,
              29.81967084364731
            ],
            [
              52.48245652182243,
              29.81967225236105
            ],
            [
              52.48245861729878,
              29.81967372671694
            ],
            [
              52.48246065572869,
              29.81967526216918
            ],
            [
              52.48246262988314,
              29.81967685970128
            ],
            [
              52.48246453866094,
              29.81967851481392
            ],
            [
              52.48246638102749,
              29.81968022751869
            ],
            [
              52.4824681548869,
              29.81968199603447
            ],
            [
              52.48246985602083,
              29.81968381499462
            ],
            [
              52.48247148547721,
              29.81968568528969
            ],
            [
              52.48247303703499,
              29.81968760608718
            ],
            [
              52.48247451367821,
              29.81968956923261
            ],
            [
              52.4824759082045,
              29.81969157751383
            ],
            [
              52.48247722366442,
              29.81969362728722
            ],
            [
              52.48247845586626,
              29.81969571499057
            ],
            [
              52.48247960580468,
              29.81969783790567
            ],
            [
              52.48248067037581,
              29.81969999606737
            ],
            [
              52.48248164639594,
              29.8197021840974
            ],
            [
              52.48248253592095,
              29.81970440107038
            ],
            [
              52.48248333578041,
              29.81970664251022
            ],
            [
              52.48248404700894,
              29.81970890840532
            ],
            [
              52.48248466643612,
              29.81971119427957
            ],
            [
              52.48248519502997,
              29.81971349561047
            ],
            [
              52.48248563176917,
              29.81971581331183
            ],
            [
              52.48248597555254,
              29.81971814288433
            ],
            [
              52.48248622529221,
              29.81972048073085
            ],
            [
              52.48248638406536,
              29.81972282501219
            ],
            [
              52.48248644768027,
              29.81972517216607
            ],
            [
              52.48248641817956,
              29.8197275203649
            ],
            [
              52.48248629655785,
              29.81972986689054
            ],
            [
              52.48248607859681,
              29.81973220637634
            ],
            [
              52.48248576948282,
              29.81973453966638
            ],
            [
              52.48248536708008,
              29.81973686227301
            ],
            [
              52.48248487340455,
              29.81973917056428
            ],
            [
              52.48248428636035,
              29.81974146275902
            ],
            [
              52.48248360901139,
              29.81974373611587
            ],
            [
              52.48248284232571,
              29.8197459861123
            ],
            [
              52.48248198628998,
              29.81974821184613
            ],
            [
              52.48248104087757,
              29.81975041151297
            ],
            [
              52.48248000913909,
              29.81975258146929
            ],
            [
              52.48247889204256,
              29.81975471719255
            ],
            [
              52.48247768960128,
              29.81975681958493
            ],
            [
              52.48247640381793,
              29.81975888411229
            ],
            [
              52.48247503774309,
              29.81976090713107
            ],
            [
              52.48247359241137,
              29.81976288862967
            ],
            [
              52.48247206775621,
              29.81976482409714
            ],
            [
              52.48225730599555,
              29.82001773668506
            ],
            [
              52.48205965908259,
              29.82023427702545
            ],
            [
              52.48185353826452,
              29.82044554687308
            ],
            [
              52.48177021442012,
              29.82053758548375
            ],
            [
              52.48169010673597,
              29.82062409276879
            ],
            [
              52.48139369403302,
              29.82092855507448
            ],
            [
              52.48107638788805,
              29.82122986093582
            ],
            [
              52.48106897749315,
              29.82123588587605
            ],
            [
              52.48106132981116,
              29.82124167886994
            ],
            [
              52.48105345200472,
              29.82124723442315
            ],
            [
              52.48104535639634,
              29.82125254608112
            ],
            [
              52.48103705426061,
              29.82125760649879
            ],
            [
              52.4810285507042,
              29.82126241110721
            ],
            [
              52.48101986010563,
              29.82126695252644
            ],
            [
              52.48101099271814,
              29.82127122432521
            ],
            [
              52.48100195882164,
              29.82127522187655
            ],
            [
              52.48099276975726,
              29.8212789423463
            ],
            [
              52.48098343679959,
              29.82128237838934
            ],
            [
              52.4809739713031,
              29.8212855280737
            ],
            [
              52.48096438455573,
              29.82128838495648
            ],
            [
              52.48095468894655,
              29.82129094709407
            ],
            [
              52.48094489685138,
              29.82129321164073
            ],
            [
              52.4809350185767,
              29.8212951757739
            ],
            [
              52.48092506751968,
              29.82129683573401
            ],
            [
              52.48091505608272,
              29.82129819047971
            ],
            [
              52.48090499770284,
              29.82129923895799
            ],
            [
              52.48089527386792,
              29.82129995704091
            ],
            [
              52.48088552821415,
              29.8213003884261
            ],
            [
              52.48087577210933,
              29.82130053208379
            ],
            [
              52.48086601693451,
              29.82130038788638
            ],
            [
              52.48085626892419,
              29.82129995756867
            ],
            [
              52.48084654565395,
              29.82129924003129
            ],
            [
              52.48083685646221,
              29.82129823697423
            ],
            [
              52.48082721168208,
              29.82129694737932
            ],
            [
              52.48081762172652,
              29.8212953756415
            ],
            [
              52.48080809797658,
              29.82129352163321
            ],
            [
              52.48079864979726,
              29.82129138885882
            ],
            [
              52.48078929170013,
              29.82128897896029
            ],
            [
              52.48077303833004,
              29.8212842984857
            ],
            [
              52.48075660903974,
              29.82128010904503
            ],
            [
              52.48074002563613,
              29.82127641580778
            ],
            [
              52.48072330578758,
              29.82127322398984
            ],
            [
              52.48070646712255,
              29.82127053610057
            ],
            [
              52.48068953456511,
              29.82126835817691
            ],
            [
              52.48067252466917,
              29.82126669003325
            ],
            [
              52.48065545818039,
              29.82126553504637
            ],
            [
              52.48063835683912,
              29.82126489387491
            ],
            [
              52.48062124031647,
              29.82126476720072
            ],
            [
              52.48060413138744,
              29.82126515567086
            ]
          ]
        ]
      },
      "properties": {
        "name": "9",
        "area_m2": 87334.51,
        "centroid": [
          52.480471,
          29.819551
        ]
      }
    },
    {
      "type": "Feature",
      "geometry": {
        "type": "Polygon",
        "coordinates": [
          [
            [
              52.48260456352949,
              29.8110012284274
            ],
            [
              52.48260997071826,
              29.81100142852733
            ],
            [
              52.48261536481179,
              29.81100179299862
            ],
            [
              52.48262074165869,
              29.81100232098549
            ],
            [
              52.48262609299609,
              29.811003013483
            ],
            [
              52.48263141464594,
              29.81100386783103
            ],
            [
              52.4826367004011,
              29.81100488409925
            ],
            [
              52.48264193885517,
              29.81100606061099
            ],
            [
              52.48264712893371,
              29.81100739467129
            ],
            [
              52.48265226237381,
              29.81100888727525
            ],
            [
              52.4826573329284,
              29.81101053578594
            ],
            [
              52.48266233433708,
              29.81101233666431
            ],
            [
              52.48266726037939,
              29.81101428907782
            ],
            [
              52.48267210686398,
              29.81101638946419
            ],
            [
              52.4826768644535,
              29.81101863612353
            ],
            [
              52.48268152895659,
              29.81102102549358
            ],
            [
              52.48268609520063,
              29.81102355763236
            ],
            [
              52.48269055791978,
              29.81102622628266
            ],
            [
              52.48269491190151,
              29.81102902879597
            ],
            [
              52.48269915088538,
              29.81103196163324
            ],
            [
              52.48270326863762,
              29.81103502305976
            ],
            [
              52.48270726298266,
              29.81103820588129
            ],
            [
              52.48271112564429,
              29.8110415101907
            ],
            [
              52.48271485444695,
              29.81104492879378
            ],
            [
              52.48271844419136,
              29.8110484599442
            ],
            [
              52.4827218896117,
              29.81105209738474
            ],
            [
              52.48272518859898,
              29.81105583843208
            ],
            [
              52.48272833588735,
              29.811059676829
            ],
            [
              52.48273132729874,
              29.81106360991539
            ],
            [
              52.4827341606443,
              29.81106762959481
            ],
            [
              52.48273682866897,
              29.81107173504638
            ],
            [
              52.48273933125294,
              29.81107591815046
            ],
            [
              52.48274166730842,
              29.81108017530991
            ],
            [
              52.48274382950049,
              29.81108450029072
            ],
            [
              52.48274581776257,
              29.81108888858202
            ],
            [
              52.4827476289245,
              29.8110933357077
            ],
            [
              52.48289083684238,
              29.81146635010753
            ],
            [
              52.48311369397744,
              29.81204682071869
            ],
            [
              52.48314972105646,
              29.81215137475475
            ],
            [
              52.48320711466981,
              29.81234149174403
            ],
            [
              52.48320809848085,
              29.81234526327879
            ],
            [
              52.48320893370413,
              29.81234906264922
            ],
            [
              52.4832096202331,
              29.81235288263787
            ],
            [
              52.48321015597202,
              29.81235672146358
            ],
            [
              52.48321054106736,
              29.81236058905039
            ],
            [
              52.48321077317036,
              29.81236446647567
            ],
            [
              52.48321085322233,
              29.81236834741252
            ],
            [
              52.4832107791142,
              29.81237222917763
            ],
            [
              52.48321055282182,
              29.81237610543249
            ],
            [
              52.48321017430521,
              29.81237997347055
            ],
            [
              52.48320964348447,
              29.8123838278787
            ],
            [
              52.48320896132752,
              29.8123876641344
            ],
            [
              52.48320812671988,
              29.8123914768362
            ],
            [
              52.48320714375978,
              29.81239526323105
            ],
            [
              52.48320601238061,
              29.81239901880806
            ],
            [
              52.48320473247581,
              29.81240273634975
            ],
            [
              52.4832033081569,
              29.8124064140053
            ],
            [
              52.48320173934395,
              29.81241004636159
            ],
            [
              52.48320002806609,
              29.81241363068888
            ],
            [
              52.48319817629918,
              29.81241716064859
            ],
            [
              52.48319618709354,
              29.8124206325972
            ],
            [
              52.48319406144376,
              29.81242404381653
            ],
            [
              52.48319180342144,
              29.81242738974916
            ],
            [
              52.48318941398117,
              29.81243066497041
            ],
            [
              52.4831868972345,
              29.81243386762946
            ],
            [
              52.48318425517059,
              29.81243699228996
            ],
            [
              52.48318149395675,
              29.81244003617567
            ],
            [
              52.48317861250517,
              29.81244299568945
            ],
            [
              52.48317561592196,
              29.81244586626234
            ],
            [
              52.48317250830534,
              29.81244864514132
            ],
            [
              52.48316929376686,
              29.81245133047554
            ],
            [
              52.48316597324782,
              29.81245391593813
            ],
            [
              52.48316255296882,
              29.81245640236156
            ],
            [
              52.48315903802266,
              29.81245878427465
            ],
            [
              52.48315543148635,
              29.81246105983822
            ],
            [
              52.48315173639692,
              29.81246322450648
            ],
            [
              52.48314795896166,
              29.81246527820974
            ],
            [
              52.48314410225755,
              29.81246721910881
            ],
            [
              52.48314017238533,
              29.81246903991651
            ],
            [
              52.48313617250192,
              29.81247074420675
            ],
            [
              52.48313210768681,
              29.81247232560616
            ],
            [
              52.48312798417391,
              29.81247378584943
            ],
            [
              52.48312380190996,
              29.8124751213278
            ],
            [
              52.48311957329619,
              29.81247633099978
            ],
            [
              52.48311529622357,
              29.81247741218197
            ],
            [
              52.48311098311995,
              29.81247836563724
            ],
            [
              52.48310663291085,
              29.81247918867063
            ],
            [
              52.48310225179023,
              29.81247988031029
            ],
            [
              52.48309784701322,
              29.81248044137709
            ],
            [
              52.4827910947571,
              29.81251881725809
            ],
            [
              52.48275224952931,
              29.81252618312013
            ],
            [
              52.48271371299773,
              29.81253469507863
            ],
            [
              52.48267553155591,
              29.8125443417853
            ],
            [
              52.48263774539014,
              29.8125551119615
            ],
            [
              52.48260040089407,
              29.812566994259
            ],
            [
              52.48256354131786,
              29.81257997465788
            ],
            [
              52.48252720576024,
              29.81259403828256
            ],
            [
              52.48249143847945,
              29.81260916929716
            ],
            [
              52.48245628161146,
              29.81262534828045
            ],
            [
              52.48242177422866,
              29.81264255855251
            ],
            [
              52.48238795536354,
              29.81266078072694
            ],
            [
              52.48235486503009,
              29.81267999179704
            ],
            [
              52.48232254119984,
              29.81270017058364
            ],
            [
              52.48229102080993,
              29.8127212959193
            ],
            [
              52.48226034173898,
              29.81274334030963
            ],
            [
              52.48223053673291,
              29.81276627902488
            ],
            [
              52.48220164162807,
              29.81279008639827
            ],
            [
              52.48217368810943,
              29.8128147359073
            ],
            [
              52.48214670989124,
              29.8128401982997
            ],
            [
              52.48212073860547,
              29.81286644344423
            ],
            [
              52.48209580382839,
              29.81289344213504
            ],
            [
              52.48206312690569,
              29.81294258339162
            ],
            [
              52.48203942195932,
              29.81298316282461
            ],
            [
              52.48202185294544,
              29.81301680125895
            ],
            [
              52.48200757005903,
              29.81304706329657
            ],
            [
              52.48199449978385,
              29.81307774124149
            ],
            [
              52.48198266017058,
              29.81310879609122
            ],
            [
              52.48197206206806,
              29.81314019163111
            ],
            [
              52.48196272246591,
              29.81317188706584
            ],
            [
              52.48195464706693,
              29.81320384804302
            ],
            [
              52.48194785076514,
              29.81323603198618
            ],
            [
              52.48194234029798,
              29.81326840453126
            ],
            [
              52.48193812123524,
              29.81330092230392
            ],
            [
              52.48193519821869,
              29.81333354915889
            ],
            [
              52.48193357478898,
              29.81336624445152
            ],
            [
              52.48193325557462,
              29.81339897113429
            ],
            [
              52.48193423993813,
              29.8134316859023
            ],
            [
              52.48193652421826,
              29.81346435089864
            ],
            [
              52.48194294922271,
              29.81351685235487
            ],
            [
              52.48195712086636,
              29.81358777917965
            ],
            [
              52.48195772719028,
              29.81358932078188
            ],
            [
              52.48195827378945,
              29.81359088200301
            ],
            [
              52.48195875748036,
              29.81359245746476
            ],
            [
              52.4819591761806,
              29.81359404628814
            ],
            [
              52.48195953296722,
              29.81359564663398
            ],
            [
              52.48195982368868,
              29.81359725764651
            ],
            [
              52.48196004829173,
              29.81359887571701
            ],
            [
              52.48196021092795,
              29.81360050170123
            ],
            [
              52.48196030635797,
              29.81360213114629
            ],
            [
              52.48196033868012,
              29.81360376129923
            ],
            [
              52.4819603027083,
              29.81360539131586
            ],
            [
              52.48196020360197,
              29.81360702023597
            ],
            [
              52.48196003820426,
              29.81360864448567
            ],
            [
              52.48195980857093,
              29.81361026313955
            ],
            [
              52.4819595146621,
              29.81361187349108
            ],
            [
              52.48195915541658,
              29.81361347374745
            ],
            [
              52.48195873184228,
              29.81361506209273
            ],
            [
              52.48195824391263,
              29.81361663672255
            ],
            [
              52.48195769575251,
              29.8136181966883
            ],
            [
              52.48195708419173,
              29.81361973751385
            ],
            [
              52.48195641128609,
              29.81362125827385
            ],
            [
              52.481955679118,
              29.81362275984725
            ],
            [
              52.4819548855119,
              29.81362423503978
            ],
            [
              52.48195403259012,
              29.81362568743699
            ],
            [
              52.48195312236854,
              29.81362711340691
            ],
            [
              52.4819521578976,
              29.81362850930602
            ],
            [
              52.4819511371082,
              29.8136298751575
            ],
            [
              52.481950059987,
              29.8136312100592
            ],
            [
              52.48194893165359,
              29.81363251034432
            ],
            [
              52.48194775415043,
              29.8136337741853
            ],
            [
              52.48194652336593,
              29.81363500343293
            ],
            [
              52.48194524441966,
              29.81363619442045
            ],
            [
              52.48194391934076,
              29.81363734441811
            ],
            [
              52.48194254710802,
              29.81363845433967
            ],
            [
              52.48194113388884,
              29.81363952140897
            ],
            [
              52.48193967760081,
              29.81364054474704
            ],
            [
              52.48193823462553,
              29.81364148853048
            ],
            [
              52.48193675688446,
              29.8136423902942
            ],
            [
              52.4819352464068,
              29.81364324730846
            ],
            [
              52.48193370112342,
              29.81364405959648
            ],
            [
              52.48193212515925,
              29.81364482620961
            ],
            [
              52.48193052265252,
              29.81364554710147
            ],
            [
              52.48192889148088,
              29.81364621868653
            ],
            [
              52.48192723582248,
              29.81364684362492
            ],
            [
              52.48192555769322,
              29.81364741828469
            ],
            [
              52.48192385605854,
              29.81364794267744
            ],
            [
              52.48192213715237,
              29.81364841853792
            ],
            [
              52.48192039988695,
              29.813648842269
            ],
            [
              52.48191864737927,
              29.81364921473807
            ],
            [
              52.48191688274627,
              29.81364953681244
            ],
            [
              52.48191510593475,
              29.81364980488344
            ],
            [
              52.48191331905375,
              29.81365002163438
            ],
            [
              52.48186542444024,
              29.81365386678294
            ],
            [
              52.48156948798982,
              29.81368177245241
            ],
            [
              52.48127453803483,
              29.81371673618094
            ],
            [
              52.48098079865465,
              29.8137587311017
            ],
            [
              52.48075227035626,
              29.81379641767983
            ],
            [
              52.48072206460844,
              29.81380316187403
            ],
            [
              52.48038817890286,
              29.81387764636532
            ],
            [
              52.4802526243607,
              29.813907792593
            ],
            [
              52.48019901918738,
              29.81391980678043
            ],
            [
              52.48004330648379,
              29.81395617373757
            ],
            [
              52.47987977871375,
              29.81399902920282
            ],
            [
              52.47975847734141,
              29.81403571420027
            ],
            [
              52.4797443050055,
              29.81402105661986
            ],
            [
              52.47903742145533,
              29.8124737630673
            ],
            [
              52.47903490020033,
              29.81246795229032
            ],
            [
              52.4790326086399,
              29.81246207036464
            ],
            [
              52.47903055201314,
              29.81245612174331
            ],
            [
              52.4790287304528,
              29.81245011544819
            ],
            [
              52.47902714817673,
              29.81244405684607
            ],
            [
              52.47902580531767,
              29.81243795495883
            ],
            [
              52.47902470507217,
              29.812431816067
            ],
            [
              52.47902384860754,
              29.81242564918087
            ],
            [
              52.4790232370114,
              29.8124194578976
            ],
            [
              52.47902286838725,
              29.81241325396878
            ],
            [
              52.47902274590509,
              29.81240704187058
            ],
            [
              52.4790228696711,
              29.81240082882048
            ],
            [
              52.47902323879677,
              29.8123946247541
            ],
            [
              52.47902385336175,
              29.81238843508456
            ],
            [
              52.47902471140314,
              29.81238226705247
            ],
            [
              52.47902581304042,
              29.81237612877753
            ],
            [
              52.47902715631066,
              29.81237002750035
            ],
            [
              52.47902874027228,
              29.81236396954781
            ],
            [
              52.47903056297565,
              29.81235796306272
            ],
            [
              52.4790326203888,
              29.81235201530891
            ],
            [
              52.47903491363919,
              29.81234613259004
            ],
            [
              52.47903743560449,
              29.81234032310684
            ],
            [
              52.47904018946798,
              29.81233459223767
            ],
            [
              52.47904316497715,
              29.81232894641365
            ],
            [
              52.47904636329932,
              29.81232339464498
            ],
            [
              52.47904977830687,
              29.81231794241429
            ],
            [
              52.47905340698912,
              29.81231259607158
            ],
            [
              52.47905724632207,
              29.81230736106469
            ],
            [
              52.47906128813562,
              29.81230224470374
            ],
            [
              52.4790655304536,
              29.81229725332714
            ],
            [
              52.47906996819628,
              29.81229239330811
            ],
            [
              52.47907459520947,
              29.81228766832484
            ],
            [
              52.47907940537887,
              29.8122830847621
            ],
            [
              52.47908439467255,
              29.81227864988366
            ],
            [
              52.47908955588856,
              29.81227436647715
            ],
            [
              52.47909488396041,
              29.81227024181791
            ],
            [
              52.47910037169944,
              29.81226627959574
            ],
            [
              52.47910601193023,
              29.81226248440264
            ],
            [
              52.47911179849869,
              29.81225885991677
            ],
            [
              52.47911786283025,
              29.81225533699184
            ],
            [
              52.47912406444092,
              29.81225200201986
            ],
            [
              52.47913039821111,
              29.81224885866747
            ],
            [
              52.47913685492296,
              29.81224591335417
            ],
            [
              52.47914342737452,
              29.81224316886758
            ],
            [
              52.47915010419913,
              29.81224062623724
            ],
            [
              52.4813722028151,
              29.81143524508117
            ],
            [
              52.48141087420855,
              29.81142789962721
            ],
            [
              52.48145407009292,
              29.81141969403873
            ],
            [
              52.48170495886539,
              29.81139035664882
            ],
            [
              52.48189580488031,
              29.81132118287819
            ],
            [
              52.48213083945875,
              29.81116564172507
            ],
            [
              52.48216701734238,
              29.81114716216307
            ],
            [
              52.48254119643867,
              29.81101153667041
            ],
            [
              52.48254622846923,
              29.811009802771
            ],
            [
              52.48255132691655,
              29.81100822242513
            ],
            [
              52.48255648456556,
              29.8110067975184
            ],
            [
              52.48256169837924,
              29.81100553259655
            ],
            [
              52.4825669579591,
              29.81100442416692
            ],
            [
              52.48257225926022,
              29.81100347859123
            ],
            [
              52.48257759397976,
              29.81100269415794
            ],
            [
              52.48258295800628,
              29.8110020727179
            ],
            [
              52.48258834411139,
              29.8110016152545
            ],
            [
              52.48259374400561,
              29.81100132095845
            ],
            [
              52.48259915254292,
              29.81100119169213
            ],
            [
              52.48260456352949,
              29.8110012284274
            ]
          ]
        ]
      },
      "properties": {
        "name": "9",
        "area_m2": 89337.31,
        "centroid": [
          52.481094,
          29.812544
        ]
      }
    }
  ],
  "boundary": [
    [
      52.482599,
      29.811001
    ],
    [
      52.482594,
      29.811001
    ],
    [
      52.482588,
      29.811002
    ],
    [
      52.482583,
      29.811002
    ],
    [
      52.482578,
      29.811003
    ],
    [
      52.482572,
      29.811003
    ],
    [
      52.482567,
      29.811004
    ],
    [
      52.482562,
      29.811006
    ],
    [
      52.482556,
      29.811007
    ],
    [
      52.482551,
      29.811008
    ],
    [
      52.482546,
      29.81101
    ],
    [
      52.482541,
      29.811012
    ],
    [
      52.47915,
      29.812241
    ],
    [
      52.479143,
      29.812243
    ],
    [
      52.479137,
      29.812246
    ],
    [
      52.47913,
      29.812249
    ],
    [
      52.479124,
      29.812252
    ],
    [
      52.479118,
      29.812255
    ],
    [
      52.479112,
      29.812259
    ],
    [
      52.479106,
      29.812262
    ],
    [
      52.4791,
      29.812266
    ],
    [
      52.479095,
      29.81227
    ],
    [
      52.47909,
      29.812274
    ],
    [
      52.479084,
      29.812279
    ],
    [
      52.479079,
      29.812283
    ],
    [
      52.479075,
      29.812288
    ],
    [
      52.47907,
      29.812292
    ],
    [
      52.479066,
      29.812297
    ],
    [
      52.479061,
      29.812302
    ],
    [
      52.479057,
      29.812307
    ],
    [
      52.479053,
      29.812313
    ],
    [
      52.47905,
      29.812318
    ],
    [
      52.479046,
      29.812323
    ],
    [
      52.479043,
      29.812329
    ],
    [
      52.47904,
      29.812335
    ],
    [
      52.479037,
      29.81234
    ],
    [
      52.479035,
      29.812346
    ],
    [
      52.479033,
      29.812352
    ],
    [
      52.479031,
      29.812358
    ],
    [
      52.479029,
      29.812364
    ],
    [
      52.479027,
      29.81237
    ],
    [
      52.479026,
      29.812376
    ],
    [
      52.478084,
      29.816863
    ],
    [
      52.478083,
      29.81687
    ],
    [
      52.478082,
      29.816877
    ],
    [
      52.478081,
      29.816884
    ],
    [
      52.478081,
      29.816891
    ],
    [
      52.47808,
      29.816898
    ],
    [
      52.478081,
      29.816905
    ],
    [
      52.478081,
      29.816912
    ],
    [
      52.478082,
      29.816919
    ],
    [
      52.478083,
      29.816926
    ],
    [
      52.478084,
      29.816933
    ],
    [
      52.478085,
      29.81694
    ],
    [
      52.478087,
      29.816946
    ],
    [
      52.478089,
      29.816953
    ],
    [
      52.478092,
      29.81696
    ],
    [
      52.478094,
      29.816967
    ],
    [
      52.478661,
      29.818312
    ],
    [
      52.480009,
      29.821084
    ],
    [
      52.480014,
      29.821094
    ],
    [
      52.48002,
      29.821104
    ],
    [
      52.480026,
      29.821114
    ],
    [
      52.480033,
      29.821123
    ],
    [
      52.48004,
      29.821133
    ],
    [
      52.480047,
      29.821142
    ],
    [
      52.480055,
      29.821151
    ],
    [
      52.480063,
      29.821159
    ],
    [
      52.480071,
      29.821168
    ],
    [
      52.480079,
      29.821176
    ],
    [
      52.480306,
      29.821366
    ],
    [
      52.480915,
      29.821298
    ],
    [
      52.480925,
      29.821297
    ],
    [
      52.480935,
      29.821295
    ],
    [
      52.480945,
      29.821293
    ],
    [
      52.480955,
      29.821291
    ],
    [
      52.480964,
      29.821288
    ],
    [
      52.480974,
      29.821286
    ],
    [
      52.480983,
      29.821282
    ],
    [
      52.480993,
      29.821279
    ],
    [
      52.481002,
      29.821275
    ],
    [
      52.481011,
      29.821271
    ],
    [
      52.48102,
      29.821267
    ],
    [
      52.481029,
      29.821262
    ],
    [
      52.481037,
      29.821258
    ],
    [
      52.481045,
      29.821253
    ],
    [
      52.481053,
      29.821247
    ],
    [
      52.481061,
      29.821242
    ],
    [
      52.481069,
      29.821236
    ],
    [
      52.481076,
      29.82123
    ],
    [
      52.481394,
      29.820929
    ],
    [
      52.48169,
      29.820624
    ],
    [
      52.48206,
      29.820234
    ],
    [
      52.482257,
      29.820018
    ],
    [
      52.482472,
      29.819765
    ],
    [
      52.482474,
      29.819763
    ],
    [
      52.482475,
      29.819761
    ],
    [
      52.482476,
      29.819759
    ],
    [
      52.482478,
      29.819757
    ],
    [
      52.482479,
      29.819755
    ],
    [
      52.48248,
      29.819753
    ],
    [
      52.482481,
      29.81975
    ],
    [
      52.482482,
      29.819748
    ],
    [
      52.482483,
      29.819746
    ],
    [
      52.482484,
      29.819744
    ],
    [
      52.482484,
      29.819741
    ],
    [
      52.482485,
      29.819739
    ],
    [
      52.482485,
      29.819737
    ],
    [
      52.482486,
      29.819735
    ],
    [
      52.482486,
      29.819732
    ],
    [
      52.48321,
      29.81238
    ],
    [
      52.483211,
      29.812376
    ],
    [
      52.483211,
      29.812372
    ],
    [
      52.483211,
      29.812368
    ],
    [
      52.483211,
      29.812364
    ],
    [
      52.483211,
      29.812361
    ],
    [
      52.48321,
      29.812357
    ],
    [
      52.48321,
      29.812353
    ],
    [
      52.483209,
      29.812349
    ],
    [
      52.483208,
      29.812345
    ],
    [
      52.483207,
      29.812341
    ],
    [
      52.48315,
      29.812151
    ],
    [
      52.483114,
      29.812047
    ],
    [
      52.482748,
      29.811093
    ],
    [
      52.482746,
      29.811089
    ],
    [
      52.482744,
      29.811085
    ],
    [
      52.482742,
      29.81108
    ],
    [
      52.482739,
      29.811076
    ],
    [
      52.482737,
      29.811072
    ],
    [
      52.482734,
      29.811068
    ],
    [
      52.482731,
      29.811064
    ],
    [
      52.482728,
      29.81106
    ],
    [
      52.482725,
      29.811056
    ],
    [
      52.482722,
      29.811052
    ],
    [
      52.482718,
      29.811048
    ],
    [
      52.482715,
      29.811045
    ],
    [
      52.482711,
      29.811042
    ],
    [
      52.482707,
      29.811038
    ],
    [
      52.482703,
      29.811035
    ],
    [
      52.482699,
      29.811032
    ],
    [
      52.482695,
      29.811029
    ],
    [
      52.482691,
      29.811026
    ],
    [
      52.482686,
      29.811024
    ],
    [
      52.482682,
      29.811021
    ],
    [
      52.482677,
      29.811019
    ],
    [
      52.482672,
      29.811016
    ],
    [
      52.482667,
      29.811014
    ],
    [
      52.482662,
      29.811012
    ],
    [
      52.482657,
      29.811011
    ],
    [
      52.482652,
      29.811009
    ],
    [
      52.482647,
      29.811007
    ],
    [
      52.482642,
      29.811006
    ],
    [
      52.482637,
      29.811005
    ],
    [
      52.482631,
      29.811004
    ],
    [
      52.482626,
      29.811003
    ],
    [
      52.482621,
      29.811002
    ],
    [
      52.482615,
      29.811002
    ],
    [
      52.48261,
      29.811001
    ],
    [
      52.482605,
      29.811001
    ],
    [
      52.482599,
      29.811001
    ]
  ],
  "boundary_count": 160
}