{
  "type": "FeatureCollection",
  "name": "ناحیه غرب 50 هکتاری",
  "centroid": [
    52.482175,
    29.816293
  ],
  "crs": {
    "type": "name",
    "properties": {
      "name": "urn:ogc:def:crs:OGC:1.3:CRS84"
    }
  },
  "features": [
    {
      "type": "Feature",
      "geometry": {
        "type": "Polygon",
        "coordinates": [
          [
            [
              52.48338208991245,
              29.81547811510179
            ],
            [
              52.48338210940509,
              29.81547845415987
            ],
            [
              52.48338228171735,
              29.8154814344335
            ],
            [
              52.48338454322895,
              29.81552064966929
            ],
            [
              52.48338845618681,
              29.81558831675138
            ],
            [
              52.48338963115906,
              29.81561806698987
            ],
            [
              52.48339391897913,
              29.81572660912386
            ],
            [
              52.48339433958119,
              29.81586497976345
            ],
            [
              52.48338971391819,
              29.8160032942689
            ],
            [
              52.48338005023694,
              29.81614141178375
            ],
            [
              52.48336535779232,
              29.81627918963498
            ],
            [
              52.48334564902304,
              29.81641649052725
            ],
            [
              52.48332094463142,
              29.81655317616952
            ],
            [
              52.48329127256224,
              29.81668910818892
            ],
            [
              52.48323091743887,
              29.81673790448281
            ],
            [
              52.48305673809581,
              29.81676121268299
            ],
            [
              52.48288324854742,
              29.81678814570227
            ],
            [
              52.48281639230888,
              29.81674521149783
            ],
            [
              52.48281806379499,
              29.81600688277231
            ],
            [
              52.48279188732027,
              29.81554526539073
            ],
            [
              52.48284803389051,
              29.81549136692621
            ],
            [
              52.48292962183475,
              29.81547589474
            ],
            [
              52.48301169814292,
              29.81546252487047
            ],
            [
              52.48309418853035,
              29.81545127168549
            ],
            [
              52.48317702584794,
              29.81544214225433
            ],
            [
              52.48331561460354,
              29.81543605481936
            ],
            [
              52.48338208991245,
              29.81547811510179
            ]
          ]
        ]
      },
      "properties": {
        "name": "2",
        "area_m2": 8868.58,
        "centroid": [
          52.48309,
          29.816085
        ]
      }
    },
    {
      "type": "Feature",
      "geometry": {
        "type": "Polygon",
        "coordinates": [
          [
            [
              52.48336693320664,
              29.81521574536793
            ],
            [
              52.48336760054281,
              29.81522730397141
            ],
            [
              52.4833233197009,
              29.81526052061292
            ],
            [
              52.48331129566432,
              29.81526953997599
            ],
            [
              52.48330526164168,
              29.81527406614615
            ],
            [
              52.48315990721389,
              29.81528059406055
            ],
            [
              52.48307348172983,
              29.81528994693082
            ],
            [
              52.48298740399918,
              29.81530147948586
            ],
            [
              52.48292769433992,
              29.81531102956124
            ],
            [
              52.4829017452422,
              29.81531518009906
            ],
            [
              52.48281657775387,
              29.81533103983895
            ],
            [
              52.48273836182024,
              29.81534768233234
            ],
            [
              52.48273197165366,
              29.81534904257999
            ],
            [
              52.48266255641429,
              29.81531044923187
            ],
            [
              52.48249540859708,
              29.81482621582588
            ],
            [
              52.48248267934881,
              29.81478933775936
            ],
            [
              52.4833021792127,
              29.81475347481065
            ],
            [
              52.48334013371295,
              29.81475181339068
            ],
            [
              52.48336693320664,
              29.81521574536793
            ]
          ]
        ]
      },
      "properties": {
        "name": "4",
        "area_m2": 5175.18,
        "centroid": [
          52.482957,
          29.815027
        ]
      }
    },
    {
      "type": "Feature",
      "geometry": {
        "type": "Polygon",
        "coordinates": [
          [
            [
              52.48322526987245,
              29.81379986446926
            ],
            [
              52.48322892727808,
              29.81380257371952
            ],
            [
              52.48328782146311,
              29.81384620623754
            ],
            [
              52.48328962016687,
              29.81387734900063
            ],
            [
              52.48334013371295,
              29.81475181339068
            ],
            [
              52.4833021792127,
              29.81475347481065
            ],
            [
              52.48248267934881,
              29.81478933775936
            ],
            [
              52.48218486372385,
              29.81392653183531
            ],
            [
              52.48223381264541,
              29.81387210350044
            ],
            [
              52.48223569905623,
              29.81387000606932
            ],
            [
              52.4826298630671,
              29.81384205868428
            ],
            [
              52.48321851878831,
              29.81380032014123
            ],
            [
              52.48322524161977,
              29.81379984313046
            ],
            [
              52.48322526987245,
              29.81379986446926
            ]
          ]
        ]
      },
      "properties": {
        "name": "5",
        "area_m2": 11540.6,
        "centroid": [
          52.482817,
          29.814283
        ]
      }
    },
    {
      "type": "Feature",
      "geometry": {
        "type": "Polygon",
        "coordinates": [
          [
            [
              52.48206784000526,
              29.81358190735865
            ],
            [
              52.48206092732407,
              29.81355373015357
            ],
            [
              52.48205511901223,
              29.81352536370251
            ],
            [
              52.48205041764366,
              29.81349684226537
            ],
            [
              52.48204683404204,
              29.81346819820488
            ],
            [
              52.48204436765099,
              29.81343946401139
            ],
            [
              52.482043024148,
              29.81341067390993
            ],
            [
              52.48204280606699,
              29.81338185945379
            ],
            [
              52.48204370873992,
              29.813353054984
            ],
            [
              52.48204573577517,
              29.81332429474876
            ],
            [
              52.48204888249138,
              29.81329561218681
            ],
            [
              52.48205314728428,
              29.81326703889781
            ],
            [
              52.48205852339011,
              29.8132386074415
            ],
            [
              52.48206500511964,
              29.81321035307254
            ],
            [
              52.48207258464801,
              29.81318230655791
            ],
            [
              52.48208125522487,
              29.81315450135951
            ],
            [
              52.48209100387928,
              29.81312697010658
            ],
            [
              52.48210182175193,
              29.81309974357765
            ],
            [
              52.48211369377625,
              29.81307285262076
            ],
            [
              52.48212660699476,
              29.81304633076737
            ],
            [
              52.48214054837014,
              29.81302020613576
            ],
            [
              52.48215550180144,
              29.81299450958551
            ],
            [
              52.48217144811073,
              29.81296927381549
            ],
            [
              52.48218836903489,
              29.81294452339317
            ],
            [
              52.48220004213785,
              29.81292933160178
            ],
            [
              52.48221228425659,
              29.81291448533574
            ],
            [
              52.48222508005907,
              29.81289999739955
            ],
            [
              52.48223841636227,
              29.81288588598761
            ],
            [
              52.48225227886871,
              29.81287216389282
            ],
            [
              52.48226665127847,
              29.81285884844224
            ],
            [
              52.48228152137655,
              29.81284595330769
            ],
            [
              52.48229686867165,
              29.81283349225394
            ],
            [
              52.48231267887974,
              29.81282147897605
            ],
            [
              52.48232893253081,
              29.81280992632496
            ],
            [
              52.48236080146911,
              29.81278892971242
            ],
            [
              52.48239345826401,
              29.81276887531167
            ],
            [
              52.48242686913529,
              29.81274978786413
            ],
            [
              52.48246099299441,
              29.81273168768156
            ],
            [
              52.48249579287782,
              29.81271459412715
            ],
            [
              52.48253123080084,
              29.8126985274779
            ],
            [
              52.48256726769107,
              29.81268350441372
            ],
            [
              52.4826038583222,
              29.81266954529291
            ],
            [
              52.48264096664577,
              29.81265666134753
            ],
            [
              52.48267855048601,
              29.81264486929243
            ],
            [
              52.48271656554491,
              29.81263418225693
            ],
            [
              52.48275496959356,
              29.81262461334723
            ],
            [
              52.48279371928877,
              29.81261617026807
            ],
            [
              52.4828327713672,
              29.81260886613731
            ],
            [
              52.48287208454153,
              29.81260270773439
            ],
            [
              52.48291161026933,
              29.81259770101786
            ],
            [
              52.48295130723668,
              29.81259385096289
            ],
            [
              52.48310502257616,
              29.81257597561873
            ],
            [
              52.48317943751368,
              29.81262463954382
            ],
            [
              52.48320361384148,
              29.81275692172249
            ],
            [
              52.48322311163783,
              29.81288979149799
            ],
            [
              52.48323790933711,
              29.81302312098366
            ],
            [
              52.48324799784117,
              29.81315678576171
            ],
            [
              52.48326726414867,
              29.81349033418499
            ],
            [
              52.48321166166397,
              29.81354378185403
            ],
            [
              52.48295544862315,
              29.81356576389682
            ],
            [
              52.48213522939869,
              29.81362383534932
            ],
            [
              52.48206784000526,
              29.81358190735865
            ]
          ]
        ]
      },
      "properties": {
        "name": "1533",
        "area_m2": 12639.58,
        "centroid": [
          52.48269,
          29.813146
        ]
      }
    },
    {
      "type": "Feature",
      "geometry": {
        "type": "Polygon",
        "coordinates": [
          [
            [
              52.48317095596693,
              29.81693419967164
            ],
            [
              52.48324097444932,
              29.81699898244766
            ],
            [
              52.48323343676714,
              29.81703896820263
            ],
            [
              52.48322799486684,
              29.81706783715599
            ],
            [
              52.48307388712852,
              29.81792318698367
            ],
            [
              52.48293016951553,
              29.81872085749192
            ],
            [
              52.48201429037236,
              29.81857460772562
            ],
            [
              52.48227420005919,
              29.81713819889323
            ],
            [
              52.48227557875475,
              29.81713058127438
            ],
            [
              52.482281618662,
              29.81709719939678
            ],
            [
              52.48250182789712,
              29.81704428538911
            ],
            [
              52.48266776313083,
              29.81700886367962
            ],
            [
              52.48283462190658,
              29.81697692161922
            ],
            [
              52.48299742126475,
              29.8169492595638
            ],
            [
              52.48316091302819,
              29.81692490831399
            ],
            [
              52.48317095596693,
              29.81693419967164
            ]
          ]
        ]
      },
      "properties": {
        "name": "6",
        "area_m2": 19244.93,
        "centroid": [
          52.482636,
          29.817823
        ]
      }
    },
    {
      "type": "Feature",
      "geometry": {
        "type": "Polygon",
        "coordinates": [
          [
            [
              52.48257890138801,
              29.81939470222815
            ],
            [
              52.48253494865612,
              29.81945814126893
            ],
            [
              52.48253376850031,
              29.81945972005914
            ],
            [
              52.48253252156982,
              29.81946126170078
            ],
            [
              52.48253121818419,
              29.81946276427335
            ],
            [
              52.4825298531437,
              29.81946422603056
            ],
            [
              52.48252843160812,
              29.81946564601216
            ],
            [
              52.4825269535508,
              29.81946702241378
            ],
            [
              52.48252542203565,
              29.81946835249405
            ],
            [
              52.48252383808399,
              29.81946963533918
            ],
            [
              52.48252220269046,
              29.81947086823099
            ],
            [
              52.48252052000687,
              29.81947205202522
            ],
            [
              52.48251879101454,
              29.81947318310153
            ],
            [
              52.48251701881735,
              29.8194742614251
            ],
            [
              52.48251520340195,
              29.81947528609372
            ],
            [
              52.48251334780565,
              29.81947625256167
            ],
            [
              52.48251145517223,
              29.81947716350064
            ],
            [
              52.48250952857891,
              29.81947801707145
            ],
            [
              52.48250756591651,
              29.81947881059076
            ],
            [
              52.48250557546196,
              29.8194795439657
            ],
            [
              52.48250355513272,
              29.81948021631727
            ],
            [
              52.48250151010187,
              29.81948082758746
            ],
            [
              52.48249944241201,
              29.81948137594866
            ],
            [
              52.48249735308446,
              29.81948186048708
            ],
            [
              52.48249524628429,
              29.81948228296063
            ],
            [
              52.48249312401419,
              29.81948263883517
            ],
            [
              52.48249098838333,
              29.81948293079407
            ],
            [
              52.48248884042631,
              29.81948315882567
            ],
            [
              52.48248668838015,
              29.81948332013057
            ],
            [
              52.4824845291676,
              29.81948341654793
            ],
            [
              52.48248236794846,
              29.81948344711757
            ],
            [
              52.48248020680525,
              29.8194834127184
            ],
            [
              52.48247804881522,
              29.81948331151124
            ],
            [
              52.48247589399168,
              29.81948314439827
            ],
            [
              52.48247374959026,
              29.81948291220041
            ],
            [
              52.48247161458966,
              29.81948261583146
            ],
            [
              52.48246949311503,
              29.81948225434277
            ],
            [
              52.48246738829684,
              29.81948182950388
            ],
            [
              52.48246530009517,
              29.81948133860826
            ],
            [
              52.48246323272838,
              29.81948078702255
            ],
            [
              52.48246118924704,
              29.81948017110321
            ],
            [
              52.48245917177366,
              29.81947949443573
            ],
            [
              52.48245718341209,
              29.81947875698528
            ],
            [
              52.48245522519694,
              29.81947795874025
            ],
            [
              52.48245329818944,
              29.81947710149344
            ],
            [
              52.48243609284493,
              29.81946911222084
            ],
            [
              52.48242697180428,
              29.81946487616163
            ],
            [
              52.48239960663091,
              29.81945216890547
            ],
            [
              52.48226851873422,
              29.81939129590446
            ],
            [
              52.48227337662168,
              29.81938334238214
            ],
            [
              52.48226781274516,
              29.81938075917352
            ],
            [
              52.48224810644383,
              29.81941302841214
            ],
            [
              52.48223721057324,
              29.81943086976067
            ],
            [
              52.48217558121388,
              29.81940144680752
            ],
            [
              52.48218297009012,
              29.8193893484525
            ],
            [
              52.48220580254468,
              29.8193519631161
            ],
            [
              52.48220023763694,
              29.81934937991612
            ],
            [
              52.48219538075308,
              29.81935733161995
            ],
            [
              52.48197699034331,
              29.81925591880431
            ],
            [
              52.48197545097184,
              29.81925517360256
            ],
            [
              52.48197394096531,
              29.81925438475943
            ],
            [
              52.48197246341424,
              29.81925355133792
            ],
            [
              52.48197101933994,
              29.81925267242422
            ],
            [
              52.48196960984358,
              29.81925175251769
            ],
            [
              52.48196823804229,
              29.81925079248565
            ],
            [
              52.48196690494409,
              29.81924979051213
            ],
            [
              52.48196561060221,
              29.8192487502059
            ],
            [
              52.4819643581338,
              29.81924767243428
            ],
            [
              52.48196314858679,
              29.81924655808787
            ],
            [
              52.48196198299579,
              29.81924540715508
            ],
            [
              52.48196086348326,
              29.81924422322139
            ],
            [
              52.48195979007583,
              29.81924300809121
            ],
            [
              52.48195876482942,
              29.81924176083911
            ],
            [
              52.48195778880523,
              29.81924048325785
            ],
            [
              52.48195686408585,
              29.81923917622645
            ],
            [
              52.48195599075109,
              29.81923784515796
            ],
            [
              52.48195516978235,
              29.81923648643204
            ],
            [
              52.48195440230741,
              29.81923510635241
            ],
            [
              52.48195368726503,
              29.81923370312627
            ],
            [
              52.48195302988151,
              29.81923228030435
            ],
            [
              52.4819524280743,
              29.81923083700764
            ],
            [
              52.48195188293129,
              29.8192293768333
            ],
            [
              52.48195139451899,
              29.81922790429225
            ],
            [
              52.48195096380549,
              29.81922641486195
            ],
            [
              52.48195059295315,
              29.81922491483448
            ],
            [
              52.48195028092739,
              29.81922340422143
            ],
            [
              52.48195002674681,
              29.81922188664315
            ],
            [
              52.48194983143272,
              29.81922036118586
            ],
            [
              52.48194969709427,
              29.81921883053288
            ],
            [
              52.48194962275009,
              29.81921729830455
            ],
            [
              52.48194960733894,
              29.81921576270813
            ],
            [
              52.48194965196198,
              29.81921422824289
            ],
            [
              52.48194975664583,
              29.81921269671325
            ],
            [
              52.4819499224384,
              29.81921116900974
            ],
            [
              52.48195014624916,
              29.81920964606939
            ],
            [
              52.48203235595425,
              29.81871806897832
            ],
            [
              52.4820326486558,
              29.81871651639029
            ],
            [
              52.48203300149773,
              29.81871497215089
            ],
            [
              52.4820334166291,
              29.81871344165003
            ],
            [
              52.48203389298866,
              29.81871192309491
            ],
            [
              52.48203442960838,
              29.8187104210081
            ],
            [
              52.48203502648825,
              29.81870893538957
            ],
            [
              52.48203568263359,
              29.81870746895746
            ],
            [
              52.4820363960151,
              29.81870602444156
            ],
            [
              52.48203716661948,
              29.81870460093968
            ],
            [
              52.48203799451328,
              29.81870320296272
            ],
            [
              52.48203887866189,
              29.81870183052228
            ],
            [
              52.48203981704932,
              29.81870048725033
            ],
            [
              52.48204080653184,
              29.81869917047513
            ],
            [
              52.48204185134104,
              29.81869788646554
            ],
            [
              52.48204294424797,
              29.81869663620497
            ],
            [
              52.48204408832984,
              29.81869541785424
            ],
            [
              52.48204528054936,
              29.81869423595909
            ],
            [
              52.48204651780274,
              29.81869309055433
            ],
            [
              52.48204780219908,
              29.8186919843233
            ],
            [
              52.48204912856538,
              29.81869091732404
            ],
            [
              52.48205049796286,
              29.81868989134928
            ],
            [
              52.4820519052584,
              29.81868890916364
            ],
            [
              52.4820533535159,
              29.81868796802572
            ],
            [
              52.4820548376422,
              29.81868707340666
            ],
            [
              52.48205635657605,
              29.8186862235137
            ],
            [
              52.48205790827485,
              29.81868542017443
            ],
            [
              52.48205949276525,
              29.81868466519318
            ],
            [
              52.48206110592212,
              29.81868395951861
            ],
            [
              52.48206274566294,
              29.81868330227171
            ],
            [
              52.4820644109797,
              29.81868269526846
            ],
            [
              52.48206609982984,
              29.81868214033645
            ],
            [
              52.48206781116543,
              29.8186816365851
            ],
            [
              52.48206953777084,
              29.81868118589999
            ],
            [
              52.48207128377119,
              29.81868078733257
            ],
            [
              52.48207304505468,
              29.81868044273359
            ],
            [
              52.48207481746956,
              29.8186801512473
            ],
            [
              52.48207660311168,
              29.81867991465487
            ],
            [
              52.4820783957734,
              29.8186797330259
            ],
            [
              52.48208019440678,
              29.81867960546986
            ],
            [
              52.48208199797725,
              29.81867953199835
            ],
            [
              52.48208380235967,
              29.81867951355995
            ],
            [
              52.48208560549815,
              29.81867955108009
            ],
            [
              52.48208740736605,
              29.81867964275438
            ],
            [
              52.48208920487289,
              29.81867978951984
            ],
            [
              52.48209099386692,
              29.81867999052072
            ],
            [
              52.48209277540936,
              29.81868024754976
            ],
            [
              52.48279336030526,
              29.81879186909598
            ],
            [
              52.48279512296592,
              29.81879217866263
            ],
            [
              52.48279687397037,
              29.81879253979303
            ],
            [
              52.48279861025473,
              29.81879295522855
            ],
            [
              52.4828003255581,
              29.81879342143013
            ],
            [
              52.48280202303757,
              29.81879394197166
            ],
            [
              52.48280369848812,
              29.81879451238871
            ],
            [
              52.48280535190977,
              29.81879513268124
            ],
            [
              52.48280697710815,
              29.81879580382114
            ],
            [
              52.48280857612588,
              29.8187965239808
            ],
            [
              52.48281014479787,
              29.81879729140232
            ],
            [
              52.48281168312415,
              29.81879810608571
            ],
            [
              52.48281318594497,
              29.81879896899119
            ],
            [
              52.48281465421504,
              29.81879987469407
            ],
            [
              52.48281608484387,
              29.81880082413138
            ],
            [
              52.48281747783143,
              29.81880181730311
            ],
            [
              52.48281883006059,
              29.81880285334191
            ],
            [
              52.4828201404435,
              29.81880392865067
            ],
            [
              52.48282140586299,
              29.81880504236207
            ],
            [
              52.48282262735366,
              29.81880619446446
            ],
            [
              52.48282380073713,
              29.81880738229777
            ],
            [
              52.48282492706134,
              29.81880860675256
            ],
            [
              52.48282600419048,
              29.81880986334118
            ],
            [
              52.4828270290207,
              29.8188111520984
            ],
            [
              52.48282800360794,
              29.81881247209888
            ],
            [
              52.48282892272585,
              29.8188138197919
            ],
            [
              52.48282978946495,
              29.81881519424049
            ],
            [
              52.48283059863888,
              29.8188165946005
            ],
            [
              52.48283135435944,
              29.81881801902113
            ],
            [
              52.48283205036569,
              29.81881946396333
            ],
            [
              52.4828326887535,
              29.81882093120823
            ],
            [
              52.4828332705042,
              29.8188224171355
            ],
            [
              52.48283378935685,
              29.81882391820606
            ],
            [
              52.48283424946323,
              29.81882543527568
            ],
            [
              52.48283464870082,
              29.81882696475883
            ],
            [
              52.4828349860217,
              29.81882850576495
            ],
            [
              52.48283526346847,
              29.81883005646645
            ],
            [
              52.482835477884,
              29.81883161328945
            ],
            [
              52.48283562822036,
              29.81883317534336
            ],
            [
              52.48283571759473,
              29.81883474349553
            ],
            [
              52.48283574489256,
              29.81883631234449
            ],
            [
              52.4828357090526,
              29.81883788009747
            ],
            [
              52.48283560904026,
              29.81883944676611
            ],
            [
              52.48283544790608,
              29.8188410087068
            ],
            [
              52.48283522461545,
              29.81884256593119
            ],
            [
              52.48283493911509,
              29.81884411483055
            ],
            [
              52.48283459241297,
              29.81884565358887
            ],
            [
              52.48283418448248,
              29.8188471804018
            ],
            [
              52.48281202025379,
              29.81891873506811
            ],
            [
              52.48278700177924,
              29.81898956922256
            ],
            [
              52.4827591588397,
              29.8190595977102
            ],
            [
              52.48272852640275,
              29.81912873622006
            ],
            [
              52.4826951424868,
              29.81919689679742
            ],
            [
              52.48265904731311,
              29.81926400048605
            ],
            [
              52.48262028411388,
              29.81932996197941
            ],
            [
              52.48257890138801,
              29.81939470222815
            ]
          ]
        ]
      },
      "properties": {
        "name": "1",
        "area_m2": 6160.12,
        "centroid": [
          52.482368,
          29.819051
        ]
      }
    },
    {
      "type": "Feature",
      "geometry": {
        "type": "Polygon",
        "coordinates": [
          [
            [
              52.4822572144981,
              29.81714206105916
            ],
            [
              52.48200409517697,
              29.81857323685901
            ],
            [
              52.48188334226211,
              29.81925598578801
            ],
            [
              52.48188237281026,
              29.81926146660029
            ],
            [
              52.48159693013424,
              29.81912968835196
            ],
            [
              52.4814422779566,
              29.81905470823988
            ],
            [
              52.4813008731404,
              29.81896484160522
            ],
            [
              52.48115135150437,
              29.81884141242917
            ],
            [
              52.48102966608943,
              29.81870838690999
            ],
            [
              52.48095033260533,
              29.81859236107059
            ],
            [
              52.48093672153983,
              29.81857245480305
            ],
            [
              52.48092536206334,
              29.81855584116995
            ],
            [
              52.48083684466164,
              29.81836579429968
            ],
            [
              52.48081249068195,
              29.81827794279069
            ],
            [
              52.4808033978772,
              29.81824514476729
            ],
            [
              52.48079006352783,
              29.81819704290317
            ],
            [
              52.48077027902694,
              29.81802887227051
            ],
            [
              52.48078997282966,
              29.81777187655672
            ],
            [
              52.48083426851157,
              29.81759359616716
            ],
            [
              52.48097386621296,
              29.81748615162281
            ],
            [
              52.4816156295099,
              29.8173166361153
            ],
            [
              52.48225802725978,
              29.81713746448251
            ],
            [
              52.4822572144981,
              29.81714206105916
            ]
          ]
        ]
      },
      "properties": {
        "name": "7",
        "area_m2": 25283.69,
        "centroid": [
          52.48152,
          29.818123
        ]
      }
    },
    {
      "type": "Feature",
      "geometry": {
        "type": "Polygon",
        "coordinates": [
          [
            [
              52.48222385039481,
              29.81691846296532
            ],
            [
              52.48099147148341,
              29.81725864856652
            ],
            [
              52.48093551504766,
              29.81720386359428
            ],
            [
              52.48101553034831,
              29.81687461138505
            ],
            [
              52.48109240787884,
              29.81665443578856
            ],
            [
              52.48115089762301,
              29.816539546547
            ],
            [
              52.481255099371,
              29.81637740754186
            ],
            [
              52.48133038567357,
              29.8162841843968
            ],
            [
              52.48145581514898,
              29.8161555382203
            ],
            [
              52.48165459818249,
              29.81599085124954
            ],
            [
              52.48173607985781,
              29.81593228196577
            ],
            [
              52.48181064882353,
              29.81588195808213
            ],
            [
              52.48188276294042,
              29.81583638089238
            ],
            [
              52.48199084963053,
              29.8157735896922
            ],
            [
              52.48222385039481,
              29.81691846296532
            ]
          ]
        ]
      },
      "properties": {
        "name": "3",
        "area_m2": 13376.36,
        "centroid": [
          52.481622,
          29.816605
        ]
      }
    },
    {
      "type": "Feature",
      "geometry": {
        "type": "Polygon",
        "coordinates": [
          [
            [
              52.48199084963053,
              29.8157735896922
            ],
            [
              52.48199154521857,
              29.81577318486313
            ],
            [
              52.48218400616451,
              29.81567721750194
            ],
            [
              52.48226933790371,
              29.81563936015888
            ],
            [
              52.48237053349941,
              29.81559836150564
            ],
            [
              52.48249674216876,
              29.8155535214969
            ],
            [
              52.48256199918816,
              29.81559599289476
            ],
            [
              52.48257227915526,
              29.81573530233864
            ],
            [
              52.48258908530654,
              29.81596302847838
            ],
            [
              52.4825945048994,
              29.8162262177254
            ],
            [
              52.48259919382029,
              29.81654366338261
            ],
            [
              52.48260264897142,
              29.81677764449885
            ],
            [
              52.48254558373833,
              29.81682964925683
            ],
            [
              52.48222385039481,
              29.81691846296532
            ],
            [
              52.48199084963053,
              29.8157735896922
            ]
          ]
        ]
      },
      "properties": {
        "name": "3.1",
        "area_m2": 7572.99,
        "centroid": [
          52.482344,
          29.816211
        ]
      }
    }
  ],
  "boundary": [
    [
      52.480787,
      29.818202
    ],
    [
      52.480769,
      29.818012
    ],
    [
      52.480798,
      29.817727
    ],
    [
      52.480834,
      29.817597
    ],
    [
      52.480931,
      29.817526
    ],
    [
      52.480935,
      29.817205
    ],
    [
      52.481007,
      29.816908
    ],
    [
      52.481094,
      29.816647
    ],
    [
      52.481216,
      29.816433
    ],
    [
      52.481462,
      29.816148
    ],
    [
      52.481729,
      29.815935
    ],
    [
      52.482198,
      29.815674
    ],
    [
      52.482566,
      29.815543
    ],
    [
      52.482566,
      29.815044
    ],
    [
      52.482183,
      29.813928
    ],
    [
      52.48218,
      29.813632
    ],
    [
      52.482075,
      29.813596
    ],
    [
      52.482053,
      29.813537
    ],
    [
      52.482046,
      29.813287
    ],
    [
      52.482111,
      29.813074
    ],
    [
      52.482198,
      29.812931
    ],
    [
      52.48232,
      29.812812
    ],
    [
      52.482624,
      29.812658
    ],
    [
      52.483111,
      29.812587
    ],
    [
      52.483183,
      29.812646
    ],
    [
      52.483251,
      29.813204
    ],
    [
      52.483266,
      29.813833
    ],
    [
      52.483287,
      29.813857
    ],
    [
      52.483367,
      29.815199
    ],
    [
      52.483367,
      29.81546
    ],
    [
      52.483388,
      29.815579
    ],
    [
      52.483392,
      29.815935
    ],
    [
      52.483338,
      29.816469
    ],
    [
      52.483291,
      29.816695
    ],
    [
      52.483241,
      29.816742
    ],
    [
      52.483233,
      29.817051
    ],
    [
      52.482927,
      29.818725
    ],
    [
      52.482836,
      29.818725
    ],
    [
      52.482833,
      29.818855
    ],
    [
      52.482735,
      29.819128
    ],
    [
      52.48253,
      29.819473
    ],
    [
      52.482173,
      29.819413
    ],
    [
      52.482169,
      29.819354
    ],
    [
      52.48201,
      29.819271
    ],
    [
      52.481869,
      29.819271
    ],
    [
      52.481584,
      29.81914
    ],
    [
      52.481155,
      29.818855
    ],
    [
      52.480928,
      29.81857
    ],
    [
      52.480838,
      29.81838
    ],
    [
      52.480787,
      29.818202
    ]
  ],
  "boundary_count": 50
}