{
  "type": "FeatureCollection",
  "name": "ناحیه 86 هکتاری",
  "centroid": [
    52.436991,
    29.831876
  ],
  "crs": {
    "type": "name",
    "properties": {
      "name": "urn:ogc:def:crs:OGC:1.3:CRS84"
    }
  },
  "features": [
    {
      "type": "Feature",
      "geometry": {
        "type": "Polygon",
        "coordinates": [
          [
            [
              52.43805899267982,
              29.83506086727701
            ],
            [
              52.43804764557038,
              29.83506470847296
            ],
            [
              52.43803615808104,
              29.83506821462407
            ],
            [
              52.43802454155591,
              29.83507138289975
            ],
            [
              52.43801280942159,
              29.83507421134906
            ],
            [
              52.43800097502716,
              29.83507669260795
            ],
            [
              52.43798905390763,
              29.83507882740954
            ],
            [
              52.43797705533748,
              29.83508061294581
            ],
            [
              52.43796499478714,
              29.83508204543894
            ],
            [
              52.43795288466134,
              29.83508312385149
            ],
            [
              52.43794074150406,
              29.83508384710098
            ],
            [
              52.43792857879362,
              29.83508421684533
            ],
            [
              52.43791640786122,
              29.8350842293518
            ],
            [
              52.4379042411375,
              29.83508388538737
            ],
            [
              52.43789209830955,
              29.83508318654237
            ],
            [
              52.43787998556045,
              29.83508213094481
            ],
            [
              52.43786792264194,
              29.83508072469601
            ],
            [
              52.43785591882854,
              29.835078964988
            ],
            [
              52.43722233173706,
              29.8349955429224
            ],
            [
              52.43720448451801,
              29.83499291192312
            ],
            [
              52.43718675271669,
              29.83498974006652
            ],
            [
              52.43716916013371,
              29.8349860270936
            ],
            [
              52.43715172653379,
              29.83498178000806
            ],
            [
              52.43713447476021,
              29.83497700397539
            ],
            [
              52.43711742662144,
              29.8349717041724
            ],
            [
              52.43710060080864,
              29.83496588490743
            ],
            [
              52.43708401818584,
              29.83495955768397
            ],
            [
              52.43706770054857,
              29.83495272677661
            ],
            [
              52.43705166772605,
              29.83494540370008
            ],
            [
              52.43703593945705,
              29.83493759365376
            ],
            [
              52.4370205335141,
              29.83492930907708
            ],
            [
              52.43700546866572,
              29.8349205596917
            ],
            [
              52.4369907657371,
              29.83491135429448
            ],
            [
              52.43697644045692,
              29.83490170715187
            ],
            [
              52.43696251471093,
              29.83489162885391
            ],
            [
              52.43694899898922,
              29.83488112921231
            ],
            [
              52.43693591423313,
              29.8348702251438
            ],
            [
              52.43692327613246,
              29.8348589282082
            ],
            [
              52.43691109936808,
              29.83484725178099
            ],
            [
              52.43689939966851,
              29.83483521012861
            ],
            [
              52.43688818967079,
              29.83482281845344
            ],
            [
              52.43687748515505,
              29.83481009463073
            ],
            [
              52.43686729558932,
              29.83479704938562
            ],
            [
              52.43685763989682,
              29.83478370326622
            ],
            [
              52.43684852343218,
              29.83477006884709
            ],
            [
              52.43664539850043,
              29.83445363824249
            ],
            [
              52.43658102492449,
              29.83435335678528
            ],
            [
              52.43625090022715,
              29.83383907755174
            ],
            [
              52.43595038918624,
              29.83335826441525
            ],
            [
              52.43592196568217,
              29.83330646333335
            ],
            [
              52.43589561990446,
              29.83325383386526
            ],
            [
              52.43587138280114,
              29.83320044154665
            ],
            [
              52.43584927802494,
              29.83314634838301
            ],
            [
              52.43582933653632,
              29.833091620812
            ],
            [
              52.4358115830611,
              29.8330363235343
            ],
            [
              52.43579603715099,
              29.83298052130679
            ],
            [
              52.43578271741313,
              29.83292428521286
            ],
            [
              52.43577164132935,
              29.83286768003167
            ],
            [
              52.43576282021146,
              29.83281077331639
            ],
            [
              52.43575626542276,
              29.83275363622886
            ],
            [
              52.43575198617949,
              29.8326963345401
            ],
            [
              52.4357499855279,
              29.83263893679513
            ],
            [
              52.43575026758768,
              29.83258151423422
            ],
            [
              52.43575283020533,
              29.83252413365399
            ],
            [
              52.43575767025713,
              29.83246686637322
            ],
            [
              52.43576478558961,
              29.83240977918828
            ],
            [
              52.43577416269267,
              29.8323529408236
            ],
            [
              52.43578579427782,
              29.83229642083822
            ],
            [
              52.43579966472688,
              29.83224028527222
            ],
            [
              52.43581575534328,
              29.83218460200375
            ],
            [
              52.43583405054777,
              29.83212943977927
            ],
            [
              52.43585452639283,
              29.83207486111976
            ],
            [
              52.43587715902137,
              29.83202093486148
            ],
            [
              52.43590192034714,
              29.83196772357025
            ],
            [
              52.43592878026615,
              29.83191529344304
            ],
            [
              52.4359577096449,
              29.83186370615451
            ],
            [
              52.43598866898957,
              29.83181302258954
            ],
            [
              52.43602162504094,
              29.83176330536987
            ],
            [
              52.43623664401135,
              29.83139657088312
            ],
            [
              52.43822881979484,
              29.82797772459395
            ],
            [
              52.4382421018487,
              29.82796177999528
            ],
            [
              52.43825598670997,
              29.82794623217732
            ],
            [
              52.43827045804262,
              29.82793109665757
            ],
            [
              52.43828550159303,
              29.82791638983315
            ],
            [
              52.43830110103814,
              29.82790212812377
            ],
            [
              52.43831723595486,
              29.82788833070073
            ],
            [
              52.43833389100322,
              29.82787501036366
            ],
            [
              52.43835104467377,
              29.82786218268639
            ],
            [
              52.43836868266136,
              29.82784986045724
            ],
            [
              52.43838678137423,
              29.82783805837038
            ],
            [
              52.43840532133368,
              29.82782678927049
            ],
            [
              52.43842428514343,
              29.82781606688196
            ],
            [
              52.43844364709068,
              29.82780590231269
            ],
            [
              52.43632765722185,
              29.83143724216605
            ],
            [
              52.43611577841707,
              29.83180375586419
            ],
            [
              52.43608785628527,
              29.83184833639222
            ],
            [
              52.43606148323878,
              29.83189362825937
            ],
            [
              52.43603668146336,
              29.83193959061996
            ],
            [
              52.43601347622343,
              29.83198618079018
            ],
            [
              52.43599188559178,
              29.83203335977366
            ],
            [
              52.43597192855994,
              29.83208108044303
            ],
            [
              52.43595339186319,
              29.83213013376274
            ],
            [
              52.435936614173,
              29.832179668754
            ],
            [
              52.43592161128677,
              29.83222963200761
            ],
            [
              52.43590839703573,
              29.83227997735445
            ],
            [
              52.43589698213396,
              29.8323306577568
            ],
            [
              52.43588209385488,
              29.83246968431302
            ],
            [
              52.43587628524772,
              29.83252666706175
            ],
            [
              52.43587275135646,
              29.8325837902075
            ],
            [
              52.43587149743883,
              29.83264098692005
            ],
            [
              52.435872524536,
              29.83269818500089
            ],
            [
              52.43587583586194,
              29.83275531944647
            ],
            [
              52.43588090539453,
              29.83280788427643
            ],
            [
              52.43588790579023,
              29.83286028103169
            ],
            [
              52.43589683106521,
              29.83291245292958
            ],
            [
              52.43590767015202,
              29.8329643495589
            ],
            [
              52.43592041295337,
              29.83301591598621
            ],
            [
              52.43593543511881,
              29.83306837982039
            ],
            [
              52.43595266156387,
              29.83312104978237
            ],
            [
              52.4359718872239,
              29.83317319179155
            ],
            [
              52.43599309571533,
              29.83322474556843
            ],
            [
              52.43601631690501,
              29.83327577304866
            ],
            [
              52.43604147786245,
              29.83332609545857
            ],
            [
              52.43606855298086,
              29.83337565893505
            ],
            [
              52.43611402737492,
              29.83345141667111
            ],
            [
              52.43616234519002,
              29.83352582515058
            ],
            [
              52.4362794889615,
              29.83370831540671
            ],
            [
              52.43630752444565,
              29.83376082444681
            ],
            [
              52.4362699481093,
              29.83379471170738
            ],
            [
              52.43639449075047,
              29.83398881299176
            ],
            [
              52.43654938802821,
              29.83423022297896
            ],
            [
              52.43657776903246,
              29.83427445554462
            ],
            [
              52.43661965090245,
              29.83433972726992
            ],
            [
              52.43663243910559,
              29.83435963994666
            ],
            [
              52.43679206350345,
              29.83460830533272
            ],
            [
              52.43680977947602,
              29.83463590284145
            ],
            [
              52.43682021367961,
              29.83465215866079
            ],
            [
              52.43688068270892,
              29.83474635919436
            ],
            [
              52.43688878817905,
              29.83475848597388
            ],
            [
              52.4368973692614,
              29.83477036304413
            ],
            [
              52.43690641639757,
              29.83478197336456
            ],
            [
              52.43691591904597,
              29.83479330351466
            ],
            [
              52.4369258666521,
              29.83480433917176
            ],
            [
              52.43693624456103,
              29.8348150687648
            ],
            [
              52.43694704431363,
              29.83482547975294
            ],
            [
              52.43695825019427,
              29.83483555877202
            ],
            [
              52.43696984855691,
              29.83484529243532
            ],
            [
              52.43698182684194,
              29.83485467095365
            ],
            [
              52.43699416934661,
              29.83486368186502
            ],
            [
              52.43700686351126,
              29.83487231538028
            ],
            [
              52.43700879254858,
              29.83487353600919
            ],
            [
              52.43701989263705,
              29.83488056175528
            ],
            [
              52.43703323998636,
              29.83488840853931
            ],
            [
              52.43704689199052,
              29.83489584775885
            ],
            [
              52.43706083095457,
              29.83490287238768
            ],
            [
              52.43707503910608,
              29.83490946998632
            ],
            [
              52.43708950189318,
              29.83491563620135
            ],
            [
              52.43710420159503,
              29.83492136220215
            ],
            [
              52.43711911844706,
              29.83492664098497
            ],
            [
              52.43713423686255,
              29.83493146820771
            ],
            [
              52.43714953703813,
              29.83493583416002
            ],
            [
              52.43716500134333,
              29.83493973632672
            ],
            [
              52.43718061107414,
              29.83494316949725
            ],
            [
              52.437192712949,
              29.8349454912599
            ],
            [
              52.43720488320437,
              29.83494752894275
            ],
            [
              52.43721711048323,
              29.83494928447404
            ],
            [
              52.43769236998542,
              29.835011861861
            ],
            [
              52.43773635957422,
              29.83475790597241
            ],
            [
              52.43783856369447,
              29.83477136245024
            ],
            [
              52.4378499551998,
              29.83477286263712
            ],
            [
              52.43785508267187,
              29.83477346191032
            ],
            [
              52.43786023076438,
              29.83477391117051
            ],
            [
              52.43786539119896,
              29.83477421050782
            ],
            [
              52.43787056191894,
              29.83477436084699
            ],
            [
              52.43787573562902,
              29.83477435865807
            ],
            [
              52.43788090512441,
              29.83477420672656
            ],
            [
              52.43788606627881,
              29.83477390599968
            ],
            [
              52.43789121389241,
              29.8347734547294
            ],
            [
              52.43789634174349,
              29.83477285208111
            ],
            [
              52.43790144161828,
              29.83477210265594
            ],
            [
              52.4379065113955,
              29.83477120286763
            ],
            [
              52.4379115449568,
              29.83477015909918
            ],
            [
              52.43791653293734,
              29.8347689678432
            ],
            [
              52.43792147435399,
              29.83476763271977
            ],
            [
              52.43792636196318,
              29.83476615380773
            ],
            [
              52.43793118962074,
              29.83476453568571
            ],
            [
              52.43793595314871,
              29.83476277569218
            ],
            [
              52.43794064640294,
              29.83476087840572
            ],
            [
              52.43794526424819,
              29.83475884658932
            ],
            [
              52.43794992485866,
              29.83475662120653
            ],
            [
              52.43795449653029,
              29.83475425602707
            ],
            [
              52.43795897002742,
              29.83475175656552
            ],
            [
              52.4379633443282,
              29.83474912373537
            ],
            [
              52.43796761124473,
              29.83474636394216
            ],
            [
              52.4379717686945,
              29.83474347630623
            ],
            [
              52.43797580953731,
              29.83474046812404
            ],
            [
              52.43797972962107,
              29.83473733853849
            ],
            [
              52.43798352388814,
              29.83473409572569
            ],
            [
              52.43808559057634,
              29.83464381970052
            ],
            [
              52.4382953849532,
              29.83482411704186
            ],
            [
              52.43814710522049,
              29.834955270741
            ],
            [
              52.43813984203666,
              29.83496149386156
            ],
            [
              52.4381323555065,
              29.8349675145829
            ],
            [
              52.43812465067479,
              29.83497332382668
            ],
            [
              52.43811673989445,
              29.83497891694665
            ],
            [
              52.43810862928379,
              29.83498428755976
            ],
            [
              52.43810032705658,
              29.83498943106485
            ],
            [
              52.43809184140075,
              29.83499434105634
            ],
            [
              52.4380831795082,
              29.83499901384652
            ],
            [
              52.43805899267982,
              29.83506086727701
            ]
          ]
        ]
      },
      "properties": {
        "name": "810.4",
        "area_m2": 11499.06,
        "centroid": [
          52.436991,
          29.831876
        ]
      }
    }
  ],
  "boundary": [
    [
      52.438059,
      29.835061
    ],
    [
      52.438048,
      29.835065
    ],
    [
      52.438036,
      29.835068
    ],
    [
      52.438025,
      29.835071
    ],
    [
      52.438013,
      29.835074
    ],
    [
      52.438001,
      29.835077
    ],
    [
      52.437989,
      29.835079
    ],
    [
      52.437977,
      29.835081
    ],
    [
      52.437965,
      29.835082
    ],
    [
      52.437953,
      29.835083
    ],
    [
      52.437941,
      29.835084
    ],
    [
      52.437929,
      29.835084
    ],
    [
      52.437916,
      29.835084
    ],
    [
      52.437904,
      29.835084
    ],
    [
      52.437892,
      29.835083
    ],
    [
      52.43788,
      29.835082
    ],
    [
      52.437868,
      29.835081
    ],
    [
      52.437856,
      29.835079
    ],
    [
      52.437222,
      29.834996
    ],
    [
      52.437204,
      29.834993
    ],
    [
      52.437187,
      29.83499
    ],
    [
      52.437169,
      29.834986
    ],
    [
      52.437152,
      29.834982
    ],
    [
      52.437134,
      29.834977
    ],
    [
      52.437117,
      29.834972
    ],
    [
      52.437101,
      29.834966
    ],
    [
      52.437084,
      29.83496
    ],
    [
      52.437068,
      29.834953
    ],
    [
      52.437052,
      29.834945
    ],
    [
      52.437036,
      29.834938
    ],
    [
      52.437021,
      29.834929
    ],
    [
      52.437005,
      29.834921
    ],
    [
      52.436991,
      29.834911
    ],
    [
      52.436976,
      29.834902
    ],
    [
      52.436963,
      29.834892
    ],
    [
      52.436949,
      29.834881
    ],
    [
      52.436936,
      29.83487
    ],
    [
      52.436923,
      29.834859
    ],
    [
      52.436911,
      29.834847
    ],
    [
      52.436899,
      29.834835
    ],
    [
      52.436888,
      29.834823
    ],
    [
      52.436877,
      29.83481
    ],
    [
      52.436867,
      29.834797
    ],
    [
      52.436858,
      29.834784
    ],
    [
      52.436849,
      29.83477
    ],
    [
      52.436645,
      29.834454
    ],
    [
      52.436581,
      29.834353
    ],
    [
      52.436251,
      29.833839
    ],
    [
      52.43595,
      29.833358
    ],
    [
      52.435922,
      29.833306
    ],
    [
      52.435896,
      29.833254
    ],
    [
      52.435871,
      29.8332
    ],
    [
      52.435849,
      29.833146
    ],
    [
      52.435829,
      29.833092
    ],
    [
      52.435812,
      29.833036
    ],
    [
      52.435796,
      29.832981
    ],
    [
      52.435783,
      29.832924
    ],
    [
      52.435772,
      29.832868
    ],
    [
      52.435763,
      29.832811
    ],
    [
      52.435756,
      29.832754
    ],
    [
      52.435752,
      29.832696
    ],
    [
      52.43575,
      29.832639
    ],
    [
      52.43575,
      29.832582
    ],
    [
      52.435753,
      29.832524
    ],
    [
      52.435758,
      29.832467
    ],
    [
      52.435765,
      29.83241
    ],
    [
      52.435774,
      29.832353
    ],
    [
      52.435786,
      29.832296
    ],
    [
      52.4358,
      29.83224
    ],
    [
      52.435816,
      29.832185
    ],
    [
      52.435834,
      29.832129
    ],
    [
      52.435855,
      29.832075
    ],
    [
      52.435877,
      29.832021
    ],
    [
      52.435902,
      29.831968
    ],
    [
      52.435929,
      29.831915
    ],
    [
      52.435958,
      29.831864
    ],
    [
      52.435989,
      29.831813
    ],
    [
      52.436022,
      29.831763
    ],
    [
      52.436237,
      29.831397
    ],
    [
      52.438229,
      29.827978
    ],
    [
      52.438242,
      29.827962
    ],
    [
      52.438256,
      29.827946
    ],
    [
      52.43827,
      29.827931
    ],
    [
      52.438286,
      29.827916
    ],
    [
      52.438301,
      29.827902
    ],
    [
      52.438317,
      29.827888
    ],
    [
      52.438334,
      29.827875
    ],
    [
      52.438351,
      29.827862
    ],
    [
      52.438369,
      29.82785
    ],
    [
      52.438387,
      29.827838
    ],
    [
      52.438405,
      29.827827
    ],
    [
      52.438424,
      29.827816
    ],
    [
      52.438444,
      29.827806
    ],
    [
      52.436328,
      29.831437
    ],
    [
      52.436116,
      29.831804
    ],
    [
      52.436088,
      29.831848
    ],
    [
      52.436061,
      29.831894
    ],
    [
      52.436037,
      29.83194
    ],
    [
      52.436013,
      29.831986
    ],
    [
      52.435992,
      29.832033
    ],
    [
      52.435972,
      29.832081
    ],
    [
      52.435953,
      29.83213
    ],
    [
      52.435937,
      29.83218
    ],
    [
      52.435922,
      29.83223
    ],
    [
      52.435908,
      29.83228
    ],
    [
      52.435897,
      29.832331
    ],
    [
      52.435882,
      29.83247
    ],
    [
      52.435876,
      29.832527
    ],
    [
      52.435873,
      29.832584
    ],
    [
      52.435871,
      29.832641
    ],
    [
      52.435873,
      29.832698
    ],
    [
      52.435876,
      29.832755
    ],
    [
      52.435881,
      29.832808
    ],
    [
      52.435888,
      29.83286
    ],
    [
      52.435897,
      29.832912
    ],
    [
      52.435908,
      29.832964
    ],
    [
      52.43592,
      29.833016
    ],
    [
      52.435935,
      29.833068
    ],
    [
      52.435953,
      29.833121
    ],
    [
      52.435972,
      29.833173
    ],
    [
      52.435993,
      29.833225
    ],
    [
      52.436016,
      29.833276
    ],
    [
      52.436041,
      29.833326
    ],
    [
      52.436069,
      29.833376
    ],
    [
      52.436114,
      29.833451
    ],
    [
      52.436162,
      29.833526
    ],
    [
      52.436279,
      29.833708
    ],
    [
      52.436308,
      29.833761
    ],
    [
      52.43627,
      29.833795
    ],
    [
      52.436394,
      29.833989
    ],
    [
      52.436549,
      29.83423
    ],
    [
      52.436578,
      29.834274
    ],
    [
      52.43662,
      29.83434
    ],
    [
      52.436632,
      29.83436
    ],
    [
      52.436792,
      29.834608
    ],
    [
      52.43681,
      29.834636
    ],
    [
      52.43682,
      29.834652
    ],
    [
      52.436881,
      29.834746
    ],
    [
      52.436889,
      29.834758
    ],
    [
      52.436897,
      29.83477
    ],
    [
      52.436906,
      29.834782
    ],
    [
      52.436916,
      29.834793
    ],
    [
      52.436926,
      29.834804
    ],
    [
      52.436936,
      29.834815
    ],
    [
      52.436947,
      29.834825
    ],
    [
      52.436958,
      29.834836
    ],
    [
      52.43697,
      29.834845
    ],
    [
      52.436982,
      29.834855
    ],
    [
      52.436994,
      29.834864
    ],
    [
      52.437007,
      29.834872
    ],
    [
      52.437009,
      29.834874
    ],
    [
      52.43702,
      29.834881
    ],
    [
      52.437033,
      29.834888
    ],
    [
      52.437047,
      29.834896
    ],
    [
      52.437061,
      29.834903
    ],
    [
      52.437075,
      29.834909
    ],
    [
      52.43709,
      29.834916
    ],
    [
      52.437104,
      29.834921
    ],
    [
      52.437119,
      29.834927
    ],
    [
      52.437134,
      29.834931
    ],
    [
      52.43715,
      29.834936
    ],
    [
      52.437165,
      29.83494
    ],
    [
      52.437181,
      29.834943
    ],
    [
      52.437193,
      29.834945
    ],
    [
      52.437205,
      29.834948
    ],
    [
      52.437217,
      29.834949
    ],
    [
      52.437692,
      29.835012
    ],
    [
      52.437736,
      29.834758
    ],
    [
      52.437839,
      29.834771
    ],
    [
      52.43785,
      29.834773
    ],
    [
      52.437855,
      29.834773
    ],
    [
      52.43786,
      29.834774
    ],
    [
      52.437865,
      29.834774
    ],
    [
      52.437871,
      29.834774
    ],
    [
      52.437876,
      29.834774
    ],
    [
      52.437881,
      29.834774
    ],
    [
      52.437886,
      29.834774
    ],
    [
      52.437891,
      29.834773
    ],
    [
      52.437896,
      29.834773
    ],
    [
      52.437901,
      29.834772
    ],
    [
      52.437907,
      29.834771
    ],
    [
      52.437912,
      29.83477
    ],
    [
      52.437917,
      29.834769
    ],
    [
      52.437921,
      29.834768
    ],
    [
      52.437926,
      29.834766
    ],
    [
      52.437931,
      29.834765
    ],
    [
      52.437936,
      29.834763
    ],
    [
      52.437941,
      29.834761
    ],
    [
      52.437945,
      29.834759
    ],
    [
      52.43795,
      29.834757
    ],
    [
      52.437954,
      29.834754
    ],
    [
      52.437959,
      29.834752
    ],
    [
      52.437963,
      29.834749
    ],
    [
      52.437968,
      29.834746
    ],
    [
      52.437972,
      29.834743
    ],
    [
      52.437976,
      29.83474
    ],
    [
      52.43798,
      29.834737
    ],
    [
      52.437984,
      29.834734
    ],
    [
      52.438086,
      29.834644
    ],
    [
      52.438295,
      29.834824
    ],
    [
      52.438147,
      29.834955
    ],
    [
      52.43814,
      29.834961
    ],
    [
      52.438132,
      29.834968
    ],
    [
      52.438125,
      29.834973
    ],
    [
      52.438117,
      29.834979
    ],
    [
      52.438109,
      29.834984
    ],
    [
      52.4381,
      29.834989
    ],
    [
      52.438092,
      29.834994
    ],
    [
      52.438083,
      29.834999
    ],
    [
      52.438059,
      29.835061
    ]
  ],
  "boundary_count": 210
}