{
  "type": "FeatureCollection",
  "name": "ناحیه عمران فارس و بوشهر",
  "centroid": [
    52.448595,
    29.828748
  ],
  "crs": {
    "type": "name",
    "properties": {
      "name": "urn:ogc:def:crs:OGC:1.3:CRS84"
    }
  },
  "features": [
    {
      "type": "Feature",
      "geometry": {
        "type": "Polygon",
        "coordinates": [
          [
            [
              52.44801422555879,
              29.82917343944536
            ],
            [
              52.448004846411,
              29.82916261044739
            ],
            [
              52.44810715977047,
              29.82896150540984
            ],
            [
              52.44820163436862,
              29.82899804652904
            ],
            [
              52.44807540886122,
              29.82924615399775
            ],
            [
              52.44804257695902,
              29.82920425656889
            ],
            [
              52.44801422555879,
              29.82917343944536
            ]
          ]
        ]
      },
      "properties": {
        "name": "624",
        "area_m2": 313.49,
        "centroid": [
          52.448099,
          29.829093
        ]
      }
    },
    {
      "type": "Feature",
      "geometry": {
        "type": "Polygon",
        "coordinates": [
          [
            [
              52.44821229307166,
              29.82919934048024
            ],
            [
              52.44813310708216,
              29.82935498760842
            ],
            [
              52.44812731622629,
              29.82934030690051
            ],
            [
              52.4481210195042,
              29.82932578333135
            ],
            [
              52.4481142254281,
              29.82931143304964
            ],
            [
              52.44810693308055,
              29.82929726418633
            ],
            [
              52.44809967842931,
              29.82928420207776
            ],
            [
              52.44809199898565,
              29.82927132148425
            ],
            [
              52.44808390943113,
              29.82925863577985
            ],
            [
              52.44807540886122,
              29.82924615399775
            ],
            [
              52.44820163436862,
              29.82899804652904
            ],
            [
              52.44829611421982,
              29.8290345884236
            ],
            [
              52.44821229307166,
              29.82919934048024
            ]
          ]
        ]
      },
      "properties": {
        "name": "625",
        "area_m2": 394.36,
        "centroid": [
          52.448179,
          29.829159
        ]
      }
    },
    {
      "type": "Feature",
      "geometry": {
        "type": "Polygon",
        "coordinates": [
          [
            [
              52.44838913615143,
              29.82907056874017
            ],
            [
              52.44839059105925,
              29.82907113208649
            ],
            [
              52.4483693467594,
              29.82911288882897
            ],
            [
              52.44830677209737,
              29.82923588327317
            ],
            [
              52.44821229307166,
              29.82919934048024
            ],
            [
              52.44829611421982,
              29.8290345884236
            ],
            [
              52.44838913615143,
              29.82907056874017
            ]
          ]
        ]
      },
      "properties": {
        "name": "627",
        "area_m2": 230.85,
        "centroid": [
          52.448301,
          29.829135
        ]
      }
    },
    {
      "type": "Feature",
      "geometry": {
        "type": "Polygon",
        "coordinates": [
          [
            [
              52.44818216168388,
              29.82948080772541
            ],
            [
              52.44816027775782,
              29.82947234281774
            ],
            [
              52.44815852524129,
              29.82945674166394
            ],
            [
              52.44815622500587,
              29.82944119433933
            ],
            [
              52.44815338449014,
              29.82942571429739
            ],
            [
              52.44814939546995,
              29.82940781053584
            ],
            [
              52.44814468805924,
              29.82939003827097
            ],
            [
              52.44813925334913,
              29.82937242557281
            ],
            [
              52.44813310708216,
              29.82935498760842
            ],
            [
              52.44821229307166,
              29.82919934048024
            ],
            [
              52.44830677209737,
              29.82923588327317
            ],
            [
              52.44818216168388,
              29.82948080772541
            ]
          ]
        ]
      },
      "properties": {
        "name": "626",
        "area_m2": 291.23,
        "centroid": [
          52.448209,
          29.829325
        ]
      }
    },
    {
      "type": "Feature",
      "geometry": {
        "type": "Polygon",
        "coordinates": [
          [
            [
              52.44913384232486,
              29.8287380991556
            ],
            [
              52.44925851344507,
              29.82873752170894
            ],
            [
              52.44919596116996,
              29.82886047028658
            ],
            [
              52.44911214064793,
              29.82902522468001
            ],
            [
              52.44909433137848,
              29.82906023406257
            ],
            [
              52.44899040478548,
              29.82902003904877
            ],
            [
              52.44913384232486,
              29.8287380991556
            ]
          ]
        ]
      },
      "properties": {
        "name": "638",
        "area_m2": 465.97,
        "centroid": [
          52.449121,
          29.828889
        ]
      }
    },
    {
      "type": "Feature",
      "geometry": {
        "type": "Polygon",
        "coordinates": [
          [
            [
              52.44884372300255,
              29.82930835510724
            ],
            [
              52.4489694526711,
              29.82906122781349
            ],
            [
              52.44899040478548,
              29.82902003904877
            ],
            [
              52.44909433137848,
              29.82906023406257
            ],
            [
              52.44907442274699,
              29.8290993621858
            ],
            [
              52.44894764881075,
              29.82934855023811
            ],
            [
              52.44884372300255,
              29.82930835510724
            ]
          ]
        ]
      },
      "properties": {
        "name": "642",
        "area_m2": 444.37,
        "centroid": [
          52.448969,
          29.829184
        ]
      }
    },
    {
      "type": "Feature",
      "geometry": {
        "type": "Polygon",
        "coordinates": [
          [
            [
              52.44902050769579,
              29.82873862610757
            ],
            [
              52.44913384232486,
              29.8287380991556
            ],
            [
              52.44899040478548,
              29.82902003904877
            ],
            [
              52.4489694526711,
              29.82906122781349
            ],
            [
              52.44887497359225,
              29.82902468549636
            ],
            [
              52.44902050769579,
              29.82873862610757
            ]
          ]
        ]
      },
      "properties": {
        "name": "637",
        "area_m2": 426.78,
        "centroid": [
          52.449001,
          29.828891
        ]
      }
    },
    {
      "type": "Feature",
      "geometry": {
        "type": "Polygon",
        "coordinates": [
          [
            [
              52.44874924684616,
              29.82927181357589
            ],
            [
              52.44887497359225,
              29.82902468549636
            ],
            [
              52.4489694526711,
              29.82906122781349
            ],
            [
              52.44884372300255,
              29.82930835510724
            ],
            [
              52.44874924684616,
              29.82927181357589
            ]
          ]
        ]
      },
      "properties": {
        "name": "643",
        "area_m2": 346.27,
        "centroid": [
          52.448859,
          29.829167
        ]
      }
    },
    {
      "type": "Feature",
      "geometry": {
        "type": "Polygon",
        "coordinates": [
          [
            [
              52.44890717405693,
              29.82873915024434
            ],
            [
              52.44902050769579,
              29.82873862610757
            ],
            [
              52.44887497359225,
              29.82902468549636
            ],
            [
              52.44878049769699,
              29.82898814397727
            ],
            [
              52.44890717405693,
              29.82873915024434
            ]
          ]
        ]
      },
      "properties": {
        "name": "636",
        "area_m2": 374.84,
        "centroid": [
          52.448897,
          29.828873
        ]
      }
    },
    {
      "type": "Feature",
      "geometry": {
        "type": "Polygon",
        "coordinates": [
          [
            [
              52.44865476970839,
              29.82923527108358
            ],
            [
              52.44878049769699,
              29.82898814397727
            ],
            [
              52.44887497359225,
              29.82902468549636
            ],
            [
              52.44874924684616,
              29.82927181357589
            ],
            [
              52.44865476970839,
              29.82923527108358
            ]
          ]
        ]
      },
      "properties": {
        "name": "644",
        "area_m2": 346.26,
        "centroid": [
          52.448765,
          29.82913
        ]
      }
    },
    {
      "type": "Feature",
      "geometry": {
        "type": "Polygon",
        "coordinates": [
          [
            [
              52.44879383836917,
              29.828739676111
            ],
            [
              52.44890717405693,
              29.82873915024434
            ],
            [
              52.44878049769699,
              29.82898814397727
            ],
            [
              52.44868601979865,
              29.82895160241079
            ],
            [
              52.44879383836917,
              29.828739676111
            ]
          ]
        ]
      },
      "properties": {
        "name": "635",
        "area_m2": 322.91,
        "centroid": [
          52.448793,
          29.828855
        ]
      }
    },
    {
      "type": "Feature",
      "geometry": {
        "type": "Polygon",
        "coordinates": [
          [
            [
              52.4484437428661,
              29.82837376035668
            ],
            [
              52.44854690179369,
              29.82834107339451
            ],
            [
              52.44854767503867,
              29.82846820792209
            ],
            [
              52.4485487775665,
              29.82864844141497
            ],
            [
              52.44844542174786,
              29.82864891888853
            ],
            [
              52.4484437428661,
              29.82837376035668
            ]
          ]
        ]
      },
      "properties": {
        "name": "597",
        "area_m2": 373.05,
        "centroid": [
          52.448497,
          29.828503
        ]
      }
    },
    {
      "type": "Feature",
      "geometry": {
        "type": "Polygon",
        "coordinates": [
          [
            [
              52.44834206699844,
              29.82864939897645
            ],
            [
              52.44834056439412,
              29.82840280110662
            ],
            [
              52.4484437428661,
              29.82837376035668
            ],
            [
              52.44844542174786,
              29.82864891888853
            ],
            [
              52.44834206699844,
              29.82864939897645
            ]
          ]
        ]
      },
      "properties": {
        "name": "596",
        "area_m2": 334.13,
        "centroid": [
          52.448394,
          29.828519
        ]
      }
    },
    {
      "type": "Feature",
      "geometry": {
        "type": "Polygon",
        "coordinates": [
          [
            [
              52.44823871430089,
              29.82864987805862
            ],
            [
              52.44823736506677,
              29.82842846275045
            ],
            [
              52.44834056439412,
              29.82840280110662
            ],
            [
              52.44834206699844,
              29.82864939897645
            ],
            [
              52.44823871430089,
              29.82864987805862
            ]
          ]
        ]
      },
      "properties": {
        "name": "595",
        "area_m2": 299.71,
        "centroid": [
          52.448291,
          29.828533
        ]
      }
    },
    {
      "type": "Feature",
      "geometry": {
        "type": "Polygon",
        "coordinates": [
          [
            [
              52.44813414416507,
              29.82845083823662
            ],
            [
              52.44823001909439,
              29.82843016118839
            ],
            [
              52.44823736506677,
              29.82842846275045
            ],
            [
              52.44823871430089,
              29.82864987805862
            ],
            [
              52.44813535950333,
              29.82865035527822
            ],
            [
              52.44813414416507,
              29.82845083823662
            ]
          ]
        ]
      },
      "properties": {
        "name": "594",
        "area_m2": 269.5,
        "centroid": [
          52.448187,
          29.828545
        ]
      }
    },
    {
      "type": "Feature",
      "geometry": {
        "type": "Polygon",
        "coordinates": [
          [
            [
              52.44803200578798,
              29.8286508360144
            ],
            [
              52.44803090263739,
              29.82846970557932
            ],
            [
              52.44813414416507,
              29.82845083823662
            ],
            [
              52.44813535950333,
              29.82865035527822
            ],
            [
              52.44803200578798,
              29.8286508360144
            ]
          ]
        ]
      },
      "properties": {
        "name": "593",
        "area_m2": 243.77,
        "centroid": [
          52.448084,
          29.828555
        ]
      }
    },
    {
      "type": "Feature",
      "geometry": {
        "type": "Polygon",
        "coordinates": [
          [
            [
              52.44792764634475,
              29.82848604465307
            ],
            [
              52.44803090263739,
              29.82846970557932
            ],
            [
              52.44803200578798,
              29.8286508360144
            ],
            [
              52.44792865306378,
              29.8286513139518
            ],
            [
              52.44792764634475,
              29.82848604465307
            ]
          ]
        ]
      },
      "properties": {
        "name": "592",
        "area_m2": 221.83,
        "centroid": [
          52.447981,
          29.828564
        ]
      }
    },
    {
      "type": "Feature",
      "geometry": {
        "type": "Polygon",
        "coordinates": [
          [
            [
              52.44792865306378,
              29.8286513139518
            ],
            [
              52.44792166492012,
              29.82865134634391
            ],
            [
              52.44789741907289,
              29.82865145873571
            ],
            [
              52.44784472806823,
              29.82865170246776
            ],
            [
              52.44782529931332,
              29.82865179272188
            ],
            [
              52.44782437010195,
              29.82849899287942
            ],
            [
              52.44785192696588,
              29.82849553804101
            ],
            [
              52.44788691538209,
              29.82849115172969
            ],
            [
              52.44792678274605,
              29.82848615337732
            ],
            [
              52.44792764634475,
              29.82848604465307
            ],
            [
              52.44792865306378,
              29.8286513139518
            ]
          ]
        ]
      },
      "properties": {
        "name": "591",
        "area_m2": 203.69,
        "centroid": [
          52.447877,
          29.828572
        ]
      }
    },
    {
      "type": "Feature",
      "geometry": {
        "type": "Polygon",
        "coordinates": [
          [
            [
              52.44782529931332,
              29.82865179272188
            ],
            [
              52.44782367051106,
              29.82865180065046
            ],
            [
              52.44772710517204,
              29.82865224734145
            ],
            [
              52.44770358394405,
              29.82851469829393
            ],
            [
              52.44782311919671,
              29.82849915547707
            ],
            [
              52.44782437010195,
              29.82849899287942
            ],
            [
              52.44782529931332,
              29.82865179272188
            ]
          ]
        ]
      },
      "properties": {
        "name": "590",
        "area_m2": 198.2,
        "centroid": [
          52.447771,
          29.828577
        ]
      }
    },
    {
      "type": "Feature",
      "geometry": {
        "type": "Polygon",
        "coordinates": [
          [
            [
              52.44810532612914,
              29.82874286559185
            ],
            [
              52.44801268005206,
              29.82892496337508
            ],
            [
              52.447885165556,
              29.82887564265981
            ],
            [
              52.44791126292537,
              29.82874376412783
            ],
            [
              52.44810532612914,
              29.82874286559185
            ]
          ]
        ]
      },
      "properties": {
        "name": "633",
        "area_m2": 330.61,
        "centroid": [
          52.447985,
          29.828819
        ]
      }
    },
    {
      "type": "Feature",
      "geometry": {
        "type": "Polygon",
        "coordinates": [
          [
            [
              52.44821866084145,
              29.82874234213167
            ],
            [
              52.44810715977047,
              29.82896150540984
            ],
            [
              52.44801268005206,
              29.82892496337508
            ],
            [
              52.44810532612914,
              29.82874286559185
            ],
            [
              52.44821866084145,
              29.82874234213167
            ]
          ]
        ]
      },
      "properties": {
        "name": "632",
        "area_m2": 281.12,
        "centroid": [
          52.448113,
          29.828843
        ]
      }
    },
    {
      "type": "Feature",
      "geometry": {
        "type": "Polygon",
        "coordinates": [
          [
            [
              52.44833199757871,
              29.82874181584496
            ],
            [
              52.44820163436862,
              29.82899804652904
            ],
            [
              52.44810715977047,
              29.82896150540984
            ],
            [
              52.44821866084145,
              29.82874234213167
            ],
            [
              52.44833199757871,
              29.82874181584496
            ]
          ]
        ]
      },
      "properties": {
        "name": "631",
        "area_m2": 333.05,
        "centroid": [
          52.448216,
          29.828861
        ]
      }
    },
    {
      "type": "Feature",
      "geometry": {
        "type": "Polygon",
        "coordinates": [
          [
            [
              52.44844533021061,
              29.828741292213
            ],
            [
              52.44837993301995,
              29.82886983543949
            ],
            [
              52.44829611421982,
              29.8290345884236
            ],
            [
              52.44820163436862,
              29.82899804652904
            ],
            [
              52.44833199757871,
              29.82874181584496
            ],
            [
              52.44844533021061,
              29.828741292213
            ]
          ]
        ]
      },
      "properties": {
        "name": "630",
        "area_m2": 384.99,
        "centroid": [
          52.44832,
          29.828879
        ]
      }
    },
    {
      "type": "Feature",
      "geometry": {
        "type": "Polygon",
        "coordinates": [
          [
            [
              52.44914630396585,
              29.82833025378386
            ],
            [
              52.44914472743564,
              29.82807185509227
            ],
            [
              52.44919657959979,
              29.82804111742718
            ],
            [
              52.4492477023207,
              29.82800946014275
            ],
            [
              52.44924888689785,
              29.82820361217437
            ],
            [
              52.44924938062292,
              29.82828471608784
            ],
            [
              52.4492496573595,
              29.8283297757955
            ],
            [
              52.44914630396585,
              29.82833025378386
            ]
          ]
        ]
      },
      "properties": {
        "name": "609",
        "area_m2": 370.17,
        "centroid": [
          52.449199,
          29.828185
        ]
      }
    },
    {
      "type": "Feature",
      "geometry": {
        "type": "Polygon",
        "coordinates": [
          [
            [
              52.44904322413449,
              29.82837579324068
            ],
            [
              52.44904171954185,
              29.82812903120437
            ],
            [
              52.44909355025929,
              29.82810089074194
            ],
            [
              52.44914472743564,
              29.82807185509227
            ],
            [
              52.44914630396585,
              29.82833025378386
            ],
            [
              52.44914657857473,
              29.82837531261348
            ],
            [
              52.44904322413449,
              29.82837579324068
            ]
          ]
        ]
      },
      "properties": {
        "name": "610",
        "area_m2": 351.96,
        "centroid": [
          52.449096,
          29.828238
        ]
      }
    },
    {
      "type": "Feature",
      "geometry": {
        "type": "Polygon",
        "coordinates": [
          [
            [
              52.44893987278085,
              29.82837627285077
            ],
            [
              52.44893868313994,
              29.82818137102056
            ],
            [
              52.44899049380797,
              29.82815563825463
            ],
            [
              52.44904171954185,
              29.82812903120437
            ],
            [
              52.44904322413449,
              29.82837579324068
            ],
            [
              52.44893987278085,
              29.82837627285077
            ]
          ]
        ]
      },
      "properties": {
        "name": "611",
        "area_m2": 282.46,
        "centroid": [
          52.448993,
          29.828265
        ]
      }
    },
    {
      "type": "Feature",
      "geometry": {
        "type": "Polygon",
        "coordinates": [
          [
            [
              52.44883679273732,
              29.8284218076399
            ],
            [
              52.44883561858348,
              29.82822918494087
            ],
            [
              52.44893868313994,
              29.82818137102056
            ],
            [
              52.44893987278085,
              29.82837627285077
            ],
            [
              52.44894014932852,
              29.82842132895434
            ],
            [
              52.44883679273732,
              29.8284218076399
            ]
          ]
        ]
      },
      "properties": {
        "name": "612",
        "area_m2": 277.03,
        "centroid": [
          52.44889,
          29.828313
        ]
      }
    },
    {
      "type": "Feature",
      "geometry": {
        "type": "Polygon",
        "coordinates": [
          [
            [
              52.44873344030649,
              29.82842228800359
            ],
            [
              52.44873252770853,
              29.82827274274389
            ],
            [
              52.44883561858348,
              29.82822918494087
            ],
            [
              52.44883679273732,
              29.8284218076399
            ],
            [
              52.44873344030649,
              29.82842228800359
            ]
          ]
        ]
      },
      "properties": {
        "name": "613",
        "area_m2": 219.12,
        "centroid": [
          52.448787,
          29.828336
        ]
      }
    },
    {
      "type": "Feature",
      "geometry": {
        "type": "Polygon",
        "coordinates": [
          [
            [
              52.44864069591548,
              29.82846777695119
            ],
            [
              52.44863972132769,
              29.82830847358517
            ],
            [
              52.448725219171,
              29.82827567158713
            ],
            [
              52.44873252770853,
              29.82827274274389
            ],
            [
              52.44873344030649,
              29.82842228800359
            ],
            [
              52.44873371470614,
              29.82846734503528
            ],
            [
              52.44864069591548,
              29.82846777695119
            ]
          ]
        ]
      },
      "properties": {
        "name": "614",
        "area_m2": 203.92,
        "centroid": [
          52.448688,
          29.828379
        ]
      }
    },
    {
      "type": "Feature",
      "geometry": {
        "type": "Polygon",
        "coordinates": [
          [
            [
              52.44854767503867,
              29.82846820792209
            ],
            [
              52.44854690179369,
              29.82834107339451
            ],
            [
              52.44856535625902,
              29.82833485782354
            ],
            [
              52.44863972132769,
              29.82830847358517
            ],
            [
              52.44864069591548,
              29.82846777695119
            ],
            [
              52.44854767503867,
              29.82846820792209
            ]
          ]
        ]
      },
      "properties": {
        "name": "615",
        "area_m2": 164.94,
        "centroid": [
          52.448595,
          29.828396
        ]
      }
    },
    {
      "type": "Feature",
      "geometry": {
        "type": "Polygon",
        "coordinates": [
          [
            [
              52.4485487775665,
              29.82864844141497
            ],
            [
              52.44854767503867,
              29.82846820792209
            ],
            [
              52.44864069591548,
              29.82846777695119
            ],
            [
              52.44864179445833,
              29.82864800958091
            ],
            [
              52.4485487775665,
              29.82864844141497
            ]
          ]
        ]
      },
      "properties": {
        "name": "598",
        "area_m2": 207.76,
        "centroid": [
          52.448595,
          29.828558
        ]
      }
    },
    {
      "type": "Feature",
      "geometry": {
        "type": "Polygon",
        "coordinates": [
          [
            [
              52.44864179445833,
              29.82864800958091
            ],
            [
              52.44864069591548,
              29.82846777695119
            ],
            [
              52.44873371470614,
              29.82846734503528
            ],
            [
              52.44873481239422,
              29.82864757857217
            ],
            [
              52.44864179445833,
              29.82864800958091
            ]
          ]
        ]
      },
      "properties": {
        "name": "599",
        "area_m2": 207.76,
        "centroid": [
          52.448688,
          29.828558
        ]
      }
    },
    {
      "type": "Feature",
      "geometry": {
        "type": "Polygon",
        "coordinates": [
          [
            [
              52.44873344030649,
              29.82842228800359
            ],
            [
              52.44883679273732,
              29.8284218076399
            ],
            [
              52.44883816711332,
              29.82864709727476
            ],
            [
              52.44873481239422,
              29.82864757857217
            ],
            [
              52.44873371470614,
              29.82846734503528
            ],
            [
              52.44873344030649,
              29.82842228800359
            ]
          ]
        ]
      },
      "properties": {
        "name": "600",
        "area_m2": 288.55,
        "centroid": [
          52.448786,
          29.828535
        ]
      }
    },
    {
      "type": "Feature",
      "geometry": {
        "type": "Polygon",
        "coordinates": [
          [
            [
              52.44883816711332,
              29.82864709727476
            ],
            [
              52.44883679273732,
              29.8284218076399
            ],
            [
              52.44894014932852,
              29.82842132895434
            ],
            [
              52.44894152087127,
              29.82864662132101
            ],
            [
              52.44883816711332,
              29.82864709727476
            ]
          ]
        ]
      },
      "properties": {
        "name": "601",
        "area_m2": 288.56,
        "centroid": [
          52.448889,
          29.828534
        ]
      }
    },
    {
      "type": "Feature",
      "geometry": {
        "type": "Polygon",
        "coordinates": [
          [
            [
              52.44893987278085,
              29.82837627285077
            ],
            [
              52.44904322413449,
              29.82837579324068
            ],
            [
              52.44904487455955,
              29.82864614077543
            ],
            [
              52.44894152087127,
              29.82864662132101
            ],
            [
              52.44894014932852,
              29.82842132895434
            ],
            [
              52.44893987278085,
              29.82837627285077
            ]
          ]
        ]
      },
      "properties": {
        "name": "602",
        "area_m2": 346.26,
        "centroid": [
          52.448992,
          29.828511
        ]
      }
    },
    {
      "type": "Feature",
      "geometry": {
        "type": "Polygon",
        "coordinates": [
          [
            [
              52.44904487455955,
              29.82864614077543
            ],
            [
              52.44904322413449,
              29.82837579324068
            ],
            [
              52.44914657857473,
              29.82837531261348
            ],
            [
              52.44914822927802,
              29.82864566013763
            ],
            [
              52.44904487455955,
              29.82864614077543
            ]
          ]
        ]
      },
      "properties": {
        "name": "603",
        "area_m2": 346.27,
        "centroid": [
          52.449096,
          29.828511
        ]
      }
    },
    {
      "type": "Feature",
      "geometry": {
        "type": "Polygon",
        "coordinates": [
          [
            [
              52.44914630396585,
              29.82833025378386
            ],
            [
              52.4492496573595,
              29.8283297757955
            ],
            [
              52.44925048125056,
              29.828464946865
            ],
            [
              52.44925158194851,
              29.82864518124605
            ],
            [
              52.44914822927802,
              29.82864566013763
            ],
            [
              52.44914657857473,
              29.82837531261348
            ],
            [
              52.44914630396585,
              29.82833025378386
            ]
          ]
        ]
      },
      "properties": {
        "name": "604",
        "area_m2": 403.97,
        "centroid": [
          52.449199,
          29.828488
        ]
      }
    },
    {
      "type": "Feature",
      "geometry": {
        "type": "Polygon",
        "coordinates": [
          [
            [
              52.44847440972956,
              29.82890637904747
            ],
            [
              52.4483915028358,
              29.8290693408732
            ],
            [
              52.44839059105925,
              29.82907113208649
            ],
            [
              52.44838913615143,
              29.82907056874017
            ],
            [
              52.44829611421982,
              29.8290345884236
            ],
            [
              52.44837993301995,
              29.82886983543949
            ],
            [
              52.44847440972956,
              29.82890637904747
            ]
          ]
        ]
      },
      "properties": {
        "name": "628",
        "area_m2": 230.85,
        "centroid": [
          52.448385,
          29.82897
        ]
      }
    },
    {
      "type": "Feature",
      "geometry": {
        "type": "Polygon",
        "coordinates": [
          [
            [
              52.44853012035863,
              29.82874089833709
            ],
            [
              52.44854709185901,
              29.8287635187971
            ],
            [
              52.44847440972956,
              29.82890637904747
            ],
            [
              52.44837993301995,
              29.82886983543949
            ],
            [
              52.44844533021061,
              29.828741292213
            ],
            [
              52.44853012035863,
              29.82874089833709
            ]
          ]
        ]
      },
      "properties": {
        "name": "629",
        "area_m2": 202.07,
        "centroid": [
          52.448465,
          29.828816
        ]
      }
    },
    {
      "type": "Feature",
      "geometry": {
        "type": "Polygon",
        "coordinates": [
          [
            [
              52.44792782907429,
              29.82909174417965
            ],
            [
              52.44791340685356,
              29.82908119875071
            ],
            [
              52.44789859535303,
              29.82907107266291
            ],
            [
              52.44788340818027,
              29.82906137659503
            ],
            [
              52.44786786204694,
              29.8290521211918
            ],
            [
              52.44785197986012,
              29.82904331612768
            ],
            [
              52.447885165556,
              29.82887564265981
            ],
            [
              52.44801268005206,
              29.82892496337508
            ],
            [
              52.44792782907429,
              29.82909174417965
            ]
          ]
        ]
      },
      "properties": {
        "name": "622",
        "area_m2": 245.2,
        "centroid": [
          52.447923,
          29.828978
        ]
      }
    },
    {
      "type": "Feature",
      "geometry": {
        "type": "Polygon",
        "coordinates": [
          [
            [
              52.448004846411,
              29.82916261044739
            ],
            [
              52.44799313652775,
              29.82914990487243
            ],
            [
              52.44798096171928,
              29.82913754006293
            ],
            [
              52.44796833048464,
              29.82912553126538
            ],
            [
              52.4479552553447,
              29.82911388556104
            ],
            [
              52.4479417489504,
              29.82910261905321
            ],
            [
              52.44792782907429,
              29.82909174417965
            ],
            [
              52.44801268005206,
              29.82892496337508
            ],
            [
              52.44810715977047,
              29.82896150540984
            ],
            [
              52.448004846411,
              29.82916261044739
            ]
          ]
        ]
      },
      "properties": {
        "name": "623",
        "area_m2": 255.58,
        "centroid": [
          52.448015,
          29.829035
        ]
      }
    },
    {
      "type": "Feature",
      "geometry": {
        "type": "Polygon",
        "coordinates": [
          [
            [
              52.44856028955886,
              29.82919873035963
            ],
            [
              52.44868601979865,
              29.82895160241079
            ],
            [
              52.44878049769699,
              29.82898814397727
            ],
            [
              52.44865476970839,
              29.82923527108358
            ],
            [
              52.44856028955886,
              29.82919873035963
            ]
          ]
        ]
      },
      "properties": {
        "name": "645",
        "area_m2": 346.27,
        "centroid": [
          52.44867,
          29.829093
        ]
      }
    },
    {
      "type": "Feature",
      "geometry": {
        "type": "Polygon",
        "coordinates": [
          [
            [
              52.44879383836917,
              29.828739676111
            ],
            [
              52.44868601979865,
              29.82895160241079
            ],
            [
              52.44859154091896,
              29.82891505988336
            ],
            [
              52.44866800677894,
              29.82876476251211
            ],
            [
              52.44871131860346,
              29.82874005788667
            ],
            [
              52.44879383836917,
              29.828739676111
            ]
          ]
        ]
      },
      "properties": {
        "name": "634",
        "area_m2": 266.3,
        "centroid": [
          52.44869,
          29.828838
        ]
      }
    },
    {
      "type": "Feature",
      "geometry": {
        "type": "Polygon",
        "coordinates": [
          [
            [
              52.44847913253966,
              29.82916734288586
            ],
            [
              52.44847172192299,
              29.8291505739007
            ],
            [
              52.44859154091896,
              29.82891505988336
            ],
            [
              52.44868601979865,
              29.82895160241079
            ],
            [
              52.44856028955886,
              29.82919873035963
            ],
            [
              52.44847913253966,
              29.82916734288586
            ]
          ]
        ]
      },
      "properties": {
        "name": "646",
        "area_m2": 345.12,
        "centroid": [
          52.448576,
          29.829057
        ]
      }
    }
  ]
}