{
  "type": "FeatureCollection",
  "name": "ناحیه تربیت بدنی",
  "centroid": [
    52.433537,
    29.830541
  ],
  "crs": {
    "type": "name",
    "properties": {
      "name": "urn:ogc:def:crs:OGC:1.3:CRS84"
    }
  },
  "features": [
    {
      "type": "Feature",
      "geometry": {
        "type": "Polygon",
        "coordinates": [
          [
            [
              52.43412154310824,
              29.83000319133969
            ],
            [
              52.43402739642419,
              29.82983267501439
            ],
            [
              52.43412983812017,
              29.8297896751767
            ],
            [
              52.4342239829007,
              29.82996019415468
            ],
            [
              52.43412154310824,
              29.83000319133969
            ]
          ]
        ]
      },
      "properties": {
        "name": "166",
        "area_m2": 266.63,
        "centroid": [
          52.434126,
          29.829896
        ]
      }
    },
    {
      "type": "Feature",
      "geometry": {
        "type": "Polygon",
        "coordinates": [
          [
            [
              52.43401910116874,
              29.83004618937254
            ],
            [
              52.43392495458625,
              29.82987567116644
            ],
            [
              52.43402739642419,
              29.82983267501439
            ],
            [
              52.43412154310824,
              29.83000319133969
            ],
            [
              52.43401910116874,
              29.83004618937254
            ]
          ]
        ]
      },
      "properties": {
        "name": "165",
        "area_m2": 266.63,
        "centroid": [
          52.434023,
          29.829939
        ]
      }
    },
    {
      "type": "Feature",
      "geometry": {
        "type": "Polygon",
        "coordinates": [
          [
            [
              52.43401910116874,
              29.83004618937254
            ],
            [
              52.43391666016069,
              29.83008918641512
            ],
            [
              52.43389872916105,
              29.83005670733186
            ],
            [
              52.43382251474025,
              29.82991866812138
            ],
            [
              52.43392495458625,
              29.82987567116644
            ],
            [
              52.43401910116874,
              29.83004618937254
            ]
          ]
        ]
      },
      "properties": {
        "name": "164",
        "area_m2": 266.63,
        "centroid": [
          52.433921,
          29.829982
        ]
      }
    },
    {
      "type": "Feature",
      "geometry": {
        "type": "Polygon",
        "coordinates": [
          [
            [
              52.4342463993642,
              29.83000079427522
            ],
            [
              52.43434883909657,
              29.82995779699517
            ],
            [
              52.43444074479035,
              29.83012425341895
            ],
            [
              52.43433830392474,
              29.83016725258921
            ],
            [
              52.4342463993642,
              29.83000079427522
            ]
          ]
        ]
      },
      "properties": {
        "name": "152",
        "area_m2": 260.28,
        "centroid": [
          52.434344,
          29.830063
        ]
      }
    },
    {
      "type": "Feature",
      "geometry": {
        "type": "Polygon",
        "coordinates": [
          [
            [
              52.43414395851957,
              29.83004379239185
            ],
            [
              52.4342463993642,
              29.83000079427522
            ],
            [
              52.43433830392474,
              29.83016725258921
            ],
            [
              52.43423586190819,
              29.83021024988948
            ],
            [
              52.43414395851957,
              29.83004379239185
            ]
          ]
        ]
      },
      "properties": {
        "name": "151",
        "area_m2": 260.28,
        "centroid": [
          52.434241,
          29.830106
        ]
      }
    },
    {
      "type": "Feature",
      "geometry": {
        "type": "Polygon",
        "coordinates": [
          [
            [
              52.434041516524,
              29.83008678863848
            ],
            [
              52.43414395851957,
              29.83004379239185
            ],
            [
              52.43423586190819,
              29.83021024988948
            ],
            [
              52.43413342083596,
              29.83025324710164
            ],
            [
              52.434041516524,
              29.83008678863848
            ]
          ]
        ]
      },
      "properties": {
        "name": "150",
        "area_m2": 260.28,
        "centroid": [
          52.434139,
          29.830149
        ]
      }
    },
    {
      "type": "Feature",
      "geometry": {
        "type": "Polygon",
        "coordinates": [
          [
            [
              52.43393907549851,
              29.83012978660145
            ],
            [
              52.434041516524,
              29.83008678863848
            ],
            [
              52.43413342083596,
              29.83025324710164
            ],
            [
              52.43403097968619,
              29.8302962451392
            ],
            [
              52.43395700859455,
              29.83016226565555
            ],
            [
              52.43393907549851,
              29.83012978660145
            ]
          ]
        ]
      },
      "properties": {
        "name": "149",
        "area_m2": 260.28,
        "centroid": [
          52.434036,
          29.830192
        ]
      }
    },
    {
      "type": "Feature",
      "geometry": {
        "type": "Polygon",
        "coordinates": [
          [
            [
              52.43385456744151,
              29.83020526265403
            ],
            [
              52.43395700859455,
              29.83016226565555
            ],
            [
              52.43403097968619,
              29.8302962451392
            ],
            [
              52.43392853944209,
              29.83033924038207
            ],
            [
              52.43385456744151,
              29.83020526265403
            ]
          ]
        ]
      },
      "properties": {
        "name": "148",
        "area_m2": 209.49,
        "centroid": [
          52.433943,
          29.830251
        ]
      }
    },
    {
      "type": "Feature",
      "geometry": {
        "type": "Polygon",
        "coordinates": [
          [
            [
              52.43375212517618,
              29.83024826048911
            ],
            [
              52.43385456744151,
              29.83020526265403
            ],
            [
              52.43392853944209,
              29.83033924038207
            ],
            [
              52.43382609706383,
              29.83038223737497
            ],
            [
              52.43375212517618,
              29.83024826048911
            ]
          ]
        ]
      },
      "properties": {
        "name": "147",
        "area_m2": 209.5,
        "centroid": [
          52.43384,
          29.830294
        ]
      }
    },
    {
      "type": "Feature",
      "geometry": {
        "type": "Polygon",
        "coordinates": [
          [
            [
              52.43372365462092,
              29.83042523609545
            ],
            [
              52.43363175185375,
              29.83025877822494
            ],
            [
              52.43373419210287,
              29.8302157796015
            ],
            [
              52.43375212517618,
              29.83024826048911
            ],
            [
              52.43382609706383,
              29.83038223737497
            ],
            [
              52.43372365462092,
              29.83042523609545
            ]
          ]
        ]
      },
      "properties": {
        "name": "146",
        "area_m2": 260.28,
        "centroid": [
          52.433729,
          29.830321
        ]
      }
    },
    {
      "type": "Feature",
      "geometry": {
        "type": "Polygon",
        "coordinates": [
          [
            [
              52.43362121206181,
              29.83046823293467
            ],
            [
              52.4335293083713,
              29.8303017740986
            ],
            [
              52.43363175185375,
              29.83025877822494
            ],
            [
              52.43372365462092,
              29.83042523609545
            ],
            [
              52.43362121206181,
              29.83046823293467
            ]
          ]
        ]
      },
      "properties": {
        "name": "145",
        "area_m2": 260.28,
        "centroid": [
          52.433626,
          29.830364
        ]
      }
    },
    {
      "type": "Feature",
      "geometry": {
        "type": "Polygon",
        "coordinates": [
          [
            [
              52.43389872916105,
              29.83005670733186
            ],
            [
              52.4337962870263,
              29.83009970248989
            ],
            [
              52.4337217470241,
              29.82996469585633
            ],
            [
              52.4337200748296,
              29.8299616668039
            ],
            [
              52.4338208831543,
              29.82991935266331
            ],
            [
              52.43382251474025,
              29.82991866812138
            ],
            [
              52.43389872916105,
              29.83005670733186
            ]
          ]
        ]
      },
      "properties": {
        "name": "163",
        "area_m2": 215.84,
        "centroid": [
          52.433809,
          29.830009
        ]
      }
    },
    {
      "type": "Feature",
      "geometry": {
        "type": "Polygon",
        "coordinates": [
          [
            [
              52.4337217470241,
              29.82996469585633
            ],
            [
              52.4337962870263,
              29.83009970248989
            ],
            [
              52.43369384485268,
              29.83014270117987
            ],
            [
              52.43361763168565,
              29.83000466273666
            ],
            [
              52.43371866340254,
              29.82996225962302
            ],
            [
              52.4337200748296,
              29.8299616668039
            ],
            [
              52.4337217470241,
              29.82996469585633
            ]
          ]
        ]
      },
      "properties": {
        "name": "162",
        "area_m2": 215.84,
        "centroid": [
          52.433707,
          29.830052
        ]
      }
    },
    {
      "type": "Feature",
      "geometry": {
        "type": "Polygon",
        "coordinates": [
          [
            [
              52.43369384485268,
              29.83014270117987
            ],
            [
              52.43371177789908,
              29.83017518207417
            ],
            [
              52.43360933660688,
              29.83021817798403
            ],
            [
              52.43351519154263,
              29.8300476576567
            ],
            [
              52.43361763168565,
              29.83000466273666
            ],
            [
              52.43369384485268,
              29.83014270117987
            ]
          ]
        ]
      },
      "properties": {
        "name": "161",
        "area_m2": 266.63,
        "centroid": [
          52.433613,
          29.830111
        ]
      }
    },
    {
      "type": "Feature",
      "geometry": {
        "type": "Polygon",
        "coordinates": [
          [
            [
              52.43341274929122,
              29.83009065613117
            ],
            [
              52.43351519154263,
              29.8300476576567
            ],
            [
              52.43360933660688,
              29.83021817798403
            ],
            [
              52.43350689316763,
              29.83026117474171
            ],
            [
              52.43341274929122,
              29.83009065613117
            ]
          ]
        ]
      },
      "properties": {
        "name": "160",
        "area_m2": 266.63,
        "centroid": [
          52.433511,
          29.830154
        ]
      }
    },
    {
      "type": "Feature",
      "geometry": {
        "type": "Polygon",
        "coordinates": [
          [
            [
              52.43331030692363,
              29.83013365272439
            ],
            [
              52.43341274929122,
              29.83009065613117
            ],
            [
              52.43350689316763,
              29.83026117474171
            ],
            [
              52.43340445170747,
              29.8303041714001
            ],
            [
              52.43331030692363,
              29.83013365272439
            ]
          ]
        ]
      },
      "properties": {
        "name": "159",
        "area_m2": 266.63,
        "centroid": [
          52.433409,
          29.830197
        ]
      }
    },
    {
      "type": "Feature",
      "geometry": {
        "type": "Polygon",
        "coordinates": [
          [
            [
              52.43328407825511,
              29.83031468792013
            ],
            [
              52.43320786653511,
              29.83017664921831
            ],
            [
              52.43331030692363,
              29.83013365272439
            ],
            [
              52.43340445170747,
              29.8303041714001
            ],
            [
              52.43330201119163,
              29.83034716797043
            ],
            [
              52.43328407825511,
              29.83031468792013
            ]
          ]
        ]
      },
      "properties": {
        "name": "158",
        "area_m2": 266.63,
        "centroid": [
          52.433306,
          29.83024
        ]
      }
    },
    {
      "type": "Feature",
      "geometry": {
        "type": "Polygon",
        "coordinates": [
          [
            [
              52.43328407825511,
              29.83031468792013
            ],
            [
              52.43318163665123,
              29.83035768531248
            ],
            [
              52.43310542402531,
              29.83021964836447
            ],
            [
              52.43320786653511,
              29.83017664921831
            ],
            [
              52.43328407825511,
              29.83031468792013
            ]
          ]
        ]
      },
      "properties": {
        "name": "157",
        "area_m2": 215.84,
        "centroid": [
          52.433195,
          29.830267
        ]
      }
    },
    {
      "type": "Feature",
      "geometry": {
        "type": "Polygon",
        "coordinates": [
          [
            [
              52.43314590941569,
              29.83039872072688
            ],
            [
              52.43305152861802,
              29.8303505735511
            ],
            [
              52.43300298242119,
              29.83026264471593
            ],
            [
              52.43310542402531,
              29.83021964836447
            ],
            [
              52.43318163665123,
              29.83035768531248
            ],
            [
              52.43314590941569,
              29.83039872072688
            ]
          ]
        ]
      },
      "properties": {
        "name": "156",
        "area_m2": 211.32,
        "centroid": [
          52.433096,
          29.830309
        ]
      }
    },
    {
      "type": "Feature",
      "geometry": {
        "type": "Polygon",
        "coordinates": [
          [
            [
              52.4327376163595,
              29.83030401023159
            ],
            [
              52.43294362510475,
              29.83021746243598
            ],
            [
              52.43297504473391,
              29.83027437146218
            ],
            [
              52.43300298242119,
              29.83026264471593
            ],
            [
              52.43305152861802,
              29.8303505735511
            ],
            [
              52.43282255944798,
              29.83031660944025
            ],
            [
              52.4327376163595,
              29.83030401023159
            ]
          ]
        ]
      },
      "properties": {
        "name": "155",
        "area_m2": 234.39,
        "centroid": [
          52.432915,
          29.830292
        ]
      }
    },
    {
      "type": "Feature",
      "geometry": {
        "type": "Polygon",
        "coordinates": [
          [
            [
              52.43362121206181,
              29.83046823293467
            ],
            [
              52.43351877043416,
              29.83051122878363
            ],
            [
              52.43342686792845,
              29.83034477166617
            ],
            [
              52.4335293083713,
              29.8303017740986
            ],
            [
              52.43362121206181,
              29.83046823293467
            ]
          ]
        ]
      },
      "properties": {
        "name": "144",
        "area_m2": 260.28,
        "centroid": [
          52.433524,
          29.830407
        ]
      }
    },
    {
      "type": "Feature",
      "geometry": {
        "type": "Polygon",
        "coordinates": [
          [
            [
              52.43341632876761,
              29.83055422816456
            ],
            [
              52.43334235722858,
              29.83042024742977
            ],
            [
              52.43332442634755,
              29.8303877682659
            ],
            [
              52.43342686792845,
              29.83034477166617
            ],
            [
              52.43351877043416,
              29.83051122878363
            ],
            [
              52.43341632876761,
              29.83055422816456
            ]
          ]
        ]
      },
      "properties": {
        "name": "143",
        "area_m2": 260.28,
        "centroid": [
          52.433422,
          29.830449
        ]
      }
    },
    {
      "type": "Feature",
      "geometry": {
        "type": "Polygon",
        "coordinates": [
          [
            [
              52.43416031288641,
              29.83060798095105
            ],
            [
              52.43414643261924,
              29.83058283816504
            ],
            [
              52.43403659479738,
              29.8303839015948
            ],
            [
              52.43413903708001,
              29.83034090444154
            ],
            [
              52.43422691319884,
              29.83050006692722
            ],
            [
              52.43416031288641,
              29.83060798095105
            ]
          ]
        ]
      },
      "properties": {
        "name": "140",
        "area_m2": 299.63,
        "centroid": [
          52.434138,
          29.83046
        ]
      }
    },
    {
      "type": "Feature",
      "geometry": {
        "type": "Polygon",
        "coordinates": [
          [
            [
              52.43404398908866,
              29.83062583714623
            ],
            [
              52.4339341524372,
              29.83042689957344
            ],
            [
              52.43403659479738,
              29.8303839015948
            ],
            [
              52.43414643261924,
              29.83058283816504
            ],
            [
              52.43404398908866,
              29.83062583714623
            ]
          ]
        ]
      },
      "properties": {
        "name": "139",
        "area_m2": 311.07,
        "centroid": [
          52.43404,
          29.830505
        ]
      }
    },
    {
      "type": "Feature",
      "geometry": {
        "type": "Polygon",
        "coordinates": [
          [
            [
              52.43404398908866,
              29.83062583714623
            ],
            [
              52.43414643261924,
              29.83058283816504
            ],
            [
              52.43416031288641,
              29.83060798095105
            ],
            [
              52.43402711498569,
              29.83082381157995
            ],
            [
              52.43395275679199,
              29.83068913339226
            ],
            [
              52.43394154749852,
              29.83066883332152
            ],
            [
              52.43404398908866,
              29.83062583714623
            ]
          ]
        ]
      },
      "properties": {
        "name": "132",
        "area_m2": 281.65,
        "centroid": [
          52.434049,
          29.830689
        ]
      }
    },
    {
      "type": "Feature",
      "geometry": {
        "type": "Polygon",
        "coordinates": [
          [
            [
              52.43394154749852,
              29.83066883332152
            ],
            [
              52.43393034029209,
              29.83064853412934
            ],
            [
              52.43383171201746,
              29.83046989474617
            ],
            [
              52.4339341524372,
              29.83042689957344
            ],
            [
              52.43404398908866,
              29.83062583714623
            ],
            [
              52.43394154749852,
              29.83066883332152
            ]
          ]
        ]
      },
      "properties": {
        "name": "138",
        "area_m2": 311.07,
        "centroid": [
          52.433938,
          29.830548
        ]
      }
    },
    {
      "type": "Feature",
      "geometry": {
        "type": "Polygon",
        "coordinates": [
          [
            [
              52.43393034029209,
              29.83064853412934
            ],
            [
              52.43382789761769,
              29.83069153203435
            ],
            [
              52.43372926948933,
              29.83051289347332
            ],
            [
              52.43383171201746,
              29.83046989474617
            ],
            [
              52.43393034029209,
              29.83064853412934
            ]
          ]
        ]
      },
      "properties": {
        "name": "137",
        "area_m2": 279.33,
        "centroid": [
          52.43383,
          29.830581
        ]
      }
    },
    {
      "type": "Feature",
      "geometry": {
        "type": "Polygon",
        "coordinates": [
          [
            [
              52.43382789761769,
              29.83069153203435
            ],
            [
              52.43372545586185,
              29.83073452804687
            ],
            [
              52.43362682787975,
              29.83055589030802
            ],
            [
              52.43372926948933,
              29.83051289347332
            ],
            [
              52.43382789761769,
              29.83069153203435
            ]
          ]
        ]
      },
      "properties": {
        "name": "136",
        "area_m2": 279.33,
        "centroid": [
          52.433727,
          29.830624
        ]
      }
    },
    {
      "type": "Feature",
      "geometry": {
        "type": "Polygon",
        "coordinates": [
          [
            [
              52.43372545586185,
              29.83073452804687
            ],
            [
              52.43362301405423,
              29.83077752668916
            ],
            [
              52.4335243872145,
              29.83059888705462
            ],
            [
              52.43362682787975,
              29.83055589030802
            ],
            [
              52.43372545586185,
              29.83073452804687
            ]
          ]
        ]
      },
      "properties": {
        "name": "135",
        "area_m2": 279.33,
        "centroid": [
          52.433625,
          29.830667
        ]
      }
    },
    {
      "type": "Feature",
      "geometry": {
        "type": "Polygon",
        "coordinates": [
          [
            [
              52.43362301405423,
              29.83077752668916
            ],
            [
              52.43352988539736,
              29.8308166135866
            ],
            [
              52.43343125663515,
              29.83063797570618
            ],
            [
              52.4335243872145,
              29.83059888705462
            ],
            [
              52.43362301405423,
              29.83077752668916
            ]
          ]
        ]
      },
      "properties": {
        "name": "134",
        "area_m2": 253.94,
        "centroid": [
          52.433527,
          29.830708
        ]
      }
    },
    {
      "type": "Feature",
      "geometry": {
        "type": "Polygon",
        "coordinates": [
          [
            [
              52.43398201591464,
              29.83089688730896
            ],
            [
              52.43394894265954,
              29.83091076976602
            ],
            [
              52.43385031407439,
              29.83073213041326
            ],
            [
              52.43395275679199,
              29.83068913339226
            ],
            [
              52.43402711498569,
              29.83082381157995
            ],
            [
              52.43398201591464,
              29.83089688730896
            ]
          ]
        ]
      },
      "properties": {
        "name": "131",
        "area_m2": 256.06,
        "centroid": [
          52.433945,
          29.830794
        ]
      }
    },
    {
      "type": "Feature",
      "geometry": {
        "type": "Polygon",
        "coordinates": [
          [
            [
              52.43384650074,
              29.83095376587677
            ],
            [
              52.43374787231399,
              29.83077512824837
            ],
            [
              52.43385031407439,
              29.83073213041326
            ],
            [
              52.43394894265954,
              29.83091076976602
            ],
            [
              52.43384650074,
              29.83095376587677
            ]
          ]
        ]
      },
      "properties": {
        "name": "130",
        "area_m2": 279.33,
        "centroid": [
          52.433848,
          29.830843
        ]
      }
    },
    {
      "type": "Feature",
      "geometry": {
        "type": "Polygon",
        "coordinates": [
          [
            [
              52.43374405770814,
              29.83099676282412
            ],
            [
              52.43364542941553,
              29.83081812511567
            ],
            [
              52.43374787231399,
              29.83077512824837
            ],
            [
              52.43384650074,
              29.83095376587677
            ],
            [
              52.43374405770814,
              29.83099676282412
            ]
          ]
        ]
      },
      "properties": {
        "name": "129",
        "area_m2": 279.33,
        "centroid": [
          52.433746,
          29.830886
        ]
      }
    },
    {
      "type": "Feature",
      "geometry": {
        "type": "Polygon",
        "coordinates": [
          [
            [
              52.43365092892822,
              29.83103585161525
            ],
            [
              52.43355230075687,
              29.83085721383405
            ],
            [
              52.43364542941553,
              29.83081812511567
            ],
            [
              52.43374405770814,
              29.83099676282412
            ],
            [
              52.43365092892822,
              29.83103585161525
            ]
          ]
        ]
      },
      "properties": {
        "name": "128",
        "area_m2": 253.93,
        "centroid": [
          52.433648,
          29.830927
        ]
      }
    },
    {
      "type": "Feature",
      "geometry": {
        "type": "Polygon",
        "coordinates": [
          [
            [
              52.43454251412365,
              29.82985150032286
            ],
            [
              52.43443716072495,
              29.82966068424711
            ],
            [
              52.43453960106315,
              29.82961768681993
            ],
            [
              52.43464495563905,
              29.82980850279893
            ],
            [
              52.43454251412365,
              29.82985150032286
            ]
          ]
        ]
      },
      "properties": {
        "name": "170",
        "area_m2": 298.37,
        "centroid": [
          52.434541,
          29.829735
        ]
      }
    },
    {
      "type": "Feature",
      "geometry": {
        "type": "Polygon",
        "coordinates": [
          [
            [
              52.43444007254359,
              29.82989449957434
            ],
            [
              52.43433471923581,
              29.82970367980429
            ],
            [
              52.43443716072495,
              29.82966068424711
            ],
            [
              52.43454251412365,
              29.82985150032286
            ],
            [
              52.43444007254359,
              29.82989449957434
            ]
          ]
        ]
      },
      "properties": {
        "name": "169",
        "area_m2": 298.37,
        "centroid": [
          52.434439,
          29.829778
        ]
      }
    },
    {
      "type": "Feature",
      "geometry": {
        "type": "Polygon",
        "coordinates": [
          [
            [
              52.43454251412365,
              29.82985150032286
            ],
            [
              52.43464495563905,
              29.82980850279893
            ],
            [
              52.43464908518516,
              29.82981598256048
            ],
            [
              52.43451588728978,
              29.83003181546466
            ],
            [
              52.43444007254359,
              29.82989449957434
            ],
            [
              52.43454251412365,
              29.82985150032286
            ]
          ]
        ]
      },
      "properties": {
        "name": "154",
        "area_m2": 226.41,
        "centroid": [
          52.434537,
          29.82991
        ]
      }
    },
    {
      "type": "Feature",
      "geometry": {
        "type": "Polygon",
        "coordinates": [
          [
            [
              52.43444007254359,
              29.82989449957434
            ],
            [
              52.43433763188206,
              29.82993749693334
            ],
            [
              52.43432642467223,
              29.82991719687036
            ],
            [
              52.43423227977728,
              29.82974667887098
            ],
            [
              52.43433471923581,
              29.82970367980429
            ],
            [
              52.43444007254359,
              29.82989449957434
            ]
          ]
        ]
      },
      "properties": {
        "name": "168",
        "area_m2": 298.37,
        "centroid": [
          52.434336,
          29.829821
        ]
      }
    },
    {
      "type": "Feature",
      "geometry": {
        "type": "Polygon",
        "coordinates": [
          [
            [
              52.43444007254359,
              29.82989449957434
            ],
            [
              52.43451588728978,
              29.83003181546466
            ],
            [
              52.43446516500869,
              29.83011400380235
            ],
            [
              52.43444074479035,
              29.83012425341895
            ],
            [
              52.43434883909657,
              29.82995779699517
            ],
            [
              52.43433763188206,
              29.82993749693334
            ],
            [
              52.43444007254359,
              29.82989449957434
            ]
          ]
        ]
      },
      "properties": {
        "name": "153",
        "area_m2": 262.58,
        "centroid": [
          52.434433,
          29.830002
        ]
      }
    },
    {
      "type": "Feature",
      "geometry": {
        "type": "Polygon",
        "coordinates": [
          [
            [
              52.4342239829007,
              29.82996019415468
            ],
            [
              52.43412983812017,
              29.8297896751767
            ],
            [
              52.43423227977728,
              29.82974667887098
            ],
            [
              52.43432642467223,
              29.82991719687036
            ],
            [
              52.4342239829007,
              29.82996019415468
            ]
          ]
        ]
      },
      "properties": {
        "name": "167",
        "area_m2": 266.63,
        "centroid": [
          52.434228,
          29.829853
        ]
      }
    },
    {
      "type": "Feature",
      "geometry": {
        "type": "Polygon",
        "coordinates": [
          [
            [
              52.4342935112635,
              29.83039215018872
            ],
            [
              52.43422691319884,
              29.83050006692722
            ],
            [
              52.43413903708001,
              29.83034090444154
            ],
            [
              52.43424147825035,
              29.83029790812487
            ],
            [
              52.4342935112635,
              29.83039215018872
            ]
          ]
        ]
      },
      "properties": {
        "name": "141",
        "area_m2": 198.12,
        "centroid": [
          52.434222,
          29.830386
        ]
      }
    },
    {
      "type": "Feature",
      "geometry": {
        "type": "Polygon",
        "coordinates": [
          [
            [
              52.43339065717189,
              29.83086105081648
            ],
            [
              52.43348414770561,
              29.83082236794571
            ],
            [
              52.43353386631883,
              29.83091371635955
            ],
            [
              52.43358175380682,
              29.83100169904542
            ],
            [
              52.43348826314973,
              29.83104038198858
            ],
            [
              52.43339065717189,
              29.83086105081648
            ]
          ]
        ]
      },
      "properties": {
        "name": "127",
        "area_m2": 254.55,
        "centroid": [
          52.433486,
          29.830931
        ]
      }
    },
    {
      "type": "Feature",
      "geometry": {
        "type": "Polygon",
        "coordinates": [
          [
            [
              52.43316708455459,
              29.83042923280148
            ],
            [
              52.43327674498129,
              29.83038385972274
            ],
            [
              52.4333173657376,
              29.83045849455045
            ],
            [
              52.43334994864006,
              29.83051835775098
            ],
            [
              52.4332402881048,
              29.83056373089339
            ],
            [
              52.43316708455459,
              29.83042923280148
            ]
          ]
        ]
      },
      "properties": {
        "name": "142",
        "area_m2": 223.93,
        "centroid": [
          52.433259,
          29.830474
        ]
      }
    },
    {
      "type": "Feature",
      "geometry": {
        "type": "Polygon",
        "coordinates": [
          [
            [
              52.43369639274263,
              29.83121232421657
            ],
            [
              52.43363514839327,
              29.83131025229799
            ],
            [
              52.43352819245419,
              29.83111374472092
            ],
            [
              52.43362168316175,
              29.83107506174816
            ],
            [
              52.43369639274263,
              29.83121232421657
            ]
          ]
        ]
      },
      "properties": {
        "name": "125",
        "area_m2": 236.89,
        "centroid": [
          52.433618,
          29.83118
        ]
      }
    },
    {
      "type": "Feature",
      "geometry": {
        "type": "Polygon",
        "coordinates": [
          [
            [
              52.43328021806125,
              29.83063709370693
            ],
            [
              52.43336435940842,
              29.83060227965139
            ],
            [
              52.43346196506831,
              29.83078161085965
            ],
            [
              52.43337782361012,
              29.83081642498032
            ],
            [
              52.43328021806125,
              29.83063709370693
            ]
          ]
        ]
      },
      "properties": {
        "name": "133",
        "area_m2": 229.1,
        "centroid": [
          52.433371,
          29.830709
        ]
      }
    },
    {
      "type": "Feature",
      "geometry": {
        "type": "Polygon",
        "coordinates": [
          [
            [
              52.43362168316175,
              29.83107506174816
            ],
            [
              52.43372452284782,
              29.83103250995308
            ],
            [
              52.43376376148289,
              29.83110460239384
            ],
            [
              52.43369639274263,
              29.83121232421657
            ],
            [
              52.43362168316175,
              29.83107506174816
            ]
          ]
        ]
      },
      "properties": {
        "name": "126",
        "area_m2": 163.44,
        "centroid": [
          52.433697,
          29.83111
        ]
      }
    }
  ],
  "boundary": [
    [
      52.432737,
      29.830307
    ],
    [
      52.432939,
      29.83022
    ],
    [
      52.432952,
      29.830237
    ],
    [
      52.433086,
      29.830231
    ],
    [
      52.434534,
      29.82962
    ],
    [
      52.434647,
      29.829815
    ],
    [
      52.434463,
      29.830115
    ],
    [
      52.434256,
      29.830205
    ],
    [
      52.434256,
      29.830327
    ],
    [
      52.43429,
      29.8304
    ],
    [
      52.433982,
      29.830895
    ],
    [
      52.433762,
      29.830993
    ],
    [
      52.433762,
      29.831107
    ],
    [
      52.433633,
      29.831311
    ],
    [
      52.433528,
      29.831116
    ],
    [
      52.433528,
      29.831046
    ],
    [
      52.433483,
      29.83104
    ],
    [
      52.433388,
      29.830863
    ],
    [
      52.433388,
      29.830822
    ],
    [
      52.433373,
      29.830816
    ],
    [
      52.433278,
      29.830639
    ],
    [
      52.433278,
      29.830569
    ],
    [
      52.433236,
      29.830563
    ],
    [
      52.433165,
      29.830432
    ],
    [
      52.433165,
      29.830403
    ],
    [
      52.433141,
      29.8304
    ],
    [
      52.433052,
      29.830353
    ],
    [
      52.432737,
      29.830307
    ]
  ],
  "boundary_count": 28
}