{"type":"FeatureCollection","name":"nadermohamadinadermoha_2_2","crs":{"type":"name","properties":{"name":"urn:ogc:def:crs:OGC:1.3:CRS84"}},"features":[{"type":"Feature","properties":{"Name":"19","masahat":190.0,"lat":29.82256,"lon":52.45041},"geometry":{"type":"MultiPolygon","coordinates":[[[[52.450518332851018,29.8225553302814],[52.450447493385091,29.822477694938009],[52.450312027181518,29.82256532040952],[52.450304994983142,29.822569868702342],[52.450305397017033,29.822570263121872],[52.45038888425654,29.82264798074625],[52.45039574360338,29.82264307160689],[52.450518332851018,29.8225553302814]]]]}},{"type":"Feature","properties":{"Name":"39","masahat":175.0,"lat":29.82237,"lon":52.45051},"geometry":{"type":"MultiPolygon","coordinates":[[[[52.450554314377626,29.822292478386949],[52.450408794679483,29.82237677192801],[52.450479202383441,29.822453824614289],[52.450616998265367,29.822364735066461],[52.450554314377626,29.822292478386949]]]]}},{"type":"Feature","properties":{"Name":"18","masahat":198.0,"lat":29.82248,"lon":52.45034},"geometry":{"type":"MultiPolygon","coordinates":[[[[52.450447493385091,29.822477694938009],[52.450377086193107,29.82240053394867],[52.450230264000503,29.822485733109499],[52.450223592494588,29.822489604293821],[52.450304994983142,29.822569868702342],[52.450312027181518,29.82256532040952],[52.450447493385091,29.822477694938009]]]]}},{"type":"Feature","properties":{"Name":"38","masahat":175.0,"lat":29.82245,"lon":52.45058},"geometry":{"type":"MultiPolygon","coordinates":[[[[52.450616998265367,29.822364735066461],[52.450479202383441,29.822453824614289],[52.450549627037653,29.82253089692507],[52.450684641974227,29.822433396470409],[52.450617371824251,29.822365164086602],[52.450616998265367,29.822364735066461]]]]}},{"type":"Feature","properties":{"Name":"80","masahat":1550.0,"lat":29.82576,"lon":52.45241},"geometry":{"type":"MultiPolygon","coordinates":[[[[52.452319300374597,29.825910121448072],[52.452319884217893,29.825913425704488],[52.452320596115662,29.825916711408539],[52.452321434954889,29.82591997315842],[52.452322400722601,29.825923210051918],[52.452323491271052,29.825926416698639],[52.452324702409342,29.82592958953531],[52.452326038211012,29.825932724005469],[52.452327492428743,29.82593581747075],[52.452329068140543,29.825938868092649],[52.452330759033849,29.82594186872187],[52.452332565095652,29.825944818456222],[52.452334486286787,29.825947714589109],[52.452336514225337,29.825950549993991],[52.452338653076161,29.82595332642974],[52.452340899630812,29.825956036712942],[52.452343248715799,29.825958680900449],[52.45234569818345,29.825961253601889],[52.452348245925243,29.825963752133379],[52.452350886754623,29.82596617564964],[52.452353623710472,29.825968519605549],[52.452356450558483,29.825970782264989],[52.452463523110502,29.82605368290989],[52.452489073983656,29.826073081922519],[52.4525150500981,29.826092044936491],[52.452554936593494,29.826118073673459],[52.452595686638993,29.82614306062732],[52.452637264767063,29.82616698633597],[52.452667281405091,29.826158145379068],[52.452368161735997,29.825386072412769],[52.45234197840611,29.82537480587289],[52.452098124260722,29.825447171664791],[52.452110874140459,29.825452570951072],[52.452123404907319,29.825458347114949],[52.452135700975802,29.825464495816121],[52.452147748764581,29.825471008180578],[52.452159531614292,29.825477877172879],[52.452171039034617,29.825485092982671],[52.45218225646164,29.825492650356111],[52.452193168192402,29.8255005368332],[52.452203765831989,29.825508744385282],[52.452214032734062,29.825517266879039],[52.45222395937764,29.82552608998186],[52.452233532168243,29.825535203917561],[52.45224274268481,29.825544598853089],[52.452251577306697,29.825554263207881],[52.452260027599813,29.825564186246709],[52.452268082012857,29.825574356366239],[52.452275732085603,29.825584761026839],[52.452282970392467,29.82559538767752],[52.452289783338841,29.825606226542082],[52.452296167572698,29.825617260513059],[52.452302113651172,29.82562848067095],[52.45230761717449,29.82563986901744],[52.452312666643472,29.825651417557989],[52.452317261823133,29.825663110053171],[52.452321393205388,29.825674933072492],[52.452325058498907,29.825686871301471],[52.45232825133882,29.825698913982091],[52.452330969407647,29.825711043995451],[52.452333208357722,29.82572324695197],[52.452334966984559,29.825735511134582],[52.452336240940447,29.825747822153659],[52.452337029951217,29.82576016106319],[52.452337334894828,29.82577251702546],[52.452337153505979,29.825784876530339],[52.4523364855105,29.825797220631738],[52.452335334916562,29.825809540262249],[52.452333698345832,29.82582181650988],[52.452331580788972,29.825834036687031],[52.45232898309785,29.825846188151619],[52.452325909163193,29.825858253716412],[52.452322363936453,29.825870217987202],[52.452321399878919,29.825873467978241],[52.45232056241953,29.825876741842759],[52.452319854688447,29.825880041351049],[52.452319274485838,29.825883357503908],[52.452318822833369,29.82588668938773],[52.452318501761333,29.825890034273218],[52.452318308048149,29.82589338407476],[52.452318245832693,29.825896738746849],[52.452318314028027,29.825900094692059],[52.452318512542888,29.82590344559506],[52.452318841325067,29.82590678784706],[52.452319300374597,29.825910121448072]]]]}},{"type":"Feature","properties":{"Name":"40","masahat":181.0,"lat":29.8223,"lon":52.45045},"geometry":{"type":"MultiPolygon","coordinates":[[[[52.450554314377626,29.822292478386949],[52.450497122764553,29.822217309978779],[52.45033840706877,29.822299741538721],[52.450408794679483,29.82237677192801],[52.450554314377626,29.822292478386949]]]]}},{"type":"Feature","properties":{"Name":"17","masahat":203.0,"lat":29.82241,"lon":52.45026},"geometry":{"type":"MultiPolygon","coordinates":[[[[52.450377086193107,29.82240053394867],[52.450306857855523,29.82232356856694],[52.450145367644289,29.82240766088751],[52.450151338869603,29.822413916215979],[52.450223592494588,29.822489604293821],[52.450230264000503,29.822485733109499],[52.450377086193107,29.82240053394867]]]]}},{"type":"Feature","properties":{"Name":"48.1","masahat":199.0,"lat":29.82265,"lon":52.45085},"geometry":{"type":"MultiPolygon","coordinates":[[[[52.450847531226039,29.822565463982251],[52.450736260277438,29.8226624547946],[52.450841184660042,29.8227363228267],[52.450954759490394,29.822629616413089],[52.450847531226039,29.822565463982251]]]]}},{"type":"Feature","properties":{"Name":"9","masahat":178.0,"lat":29.82271,"lon":52.45095},"geometry":{"type":"MultiPolygon","coordinates":[[[[52.450954759490394,29.822629616413089],[52.450841184660042,29.8227363228267],[52.450841910184401,29.822736831897888],[52.450943108531263,29.822790443576238],[52.451055736590888,29.822678661899641],[52.451028094078403,29.822669622734828],[52.450986453851343,29.82264857650889],[52.450954759490394,29.822629616413089]]]]}},{"type":"Feature","properties":{"Name":"45.1","masahat":210.0,"lat":29.82276,"lon":52.45106},"geometry":{"type":"MultiPolygon","coordinates":[[[[52.451055736590888,29.822678661899641],[52.450943108531263,29.822790443576238],[52.45104667834697,29.822845312248891],[52.451184798992792,29.822710802970789],[52.451166133656642,29.822706495429571],[52.451147336311983,29.82270264862591],[52.451128419439662,29.822699266934329],[52.451101113976463,29.822693502276579],[52.451055736590888,29.822678661899641]]]]}},{"type":"Feature","properties":{"Name":"34.1","masahat":233.0,"lat":29.8228,"lon":52.45117},"geometry":{"type":"MultiPolygon","coordinates":[[[[52.451184798992792,29.822710802970789],[52.45104667834697,29.822845312248891],[52.45104751154841,29.82284575336308],[52.45114781364159,29.822895404436618],[52.451299419609249,29.822748758435331],[52.451280889327393,29.82274119379138],[52.451262106335037,29.822734115574299],[52.451243087290877,29.822727530819659],[52.451223853018277,29.82272144832196],[52.451204417019781,29.822715871542169],[52.451184798992792,29.822710802970789]]]]}},{"type":"Feature","properties":{"Name":"8","masahat":286.0,"lat":29.82285,"lon":52.45128},"geometry":{"type":"MultiPolygon","coordinates":[[[[52.451299419609249,29.822748758435331],[52.45114781364159,29.822895404436618],[52.451148662051033,29.822895823726981],[52.451255101096677,29.822955092994359],[52.451421261045617,29.822815122170731],[52.45140229862978,29.822802647257639],[52.45138284996689,29.822790753375841],[52.451362937058477,29.8227794592325],[52.451342587957598,29.82276877264021],[52.451321824678757,29.822758713208351],[52.451300669093008,29.822749290622198],[52.451299419609249,29.822748758435331]]]]}},{"type":"Feature","properties":{"Name":"23","masahat":274.0,"lat":29.82303,"lon":52.45108},"geometry":{"type":"MultiPolygon","coordinates":[[[[52.451114672558383,29.822920355409671],[52.450953306669362,29.823076320379919],[52.450954056098418,29.823076836406511],[52.451033802502849,29.82313845095727],[52.451223328146121,29.82298012100204],[52.451115801378577,29.822920915993919],[52.451114672558383,29.822920355409671]]]]}},{"type":"Feature","properties":{"Name":"7","masahat":321.0,"lat":29.82293,"lon":52.45139},"geometry":{"type":"MultiPolygon","coordinates":[[[[52.451421261045617,29.822815122170731],[52.451255101096677,29.822955092994359],[52.451255826134101,29.82295549649497],[52.451349441772322,29.823041411839242],[52.451528988501892,29.822911552479599],[52.451502581263419,29.82288051618437],[52.45148730683394,29.822866529046632],[52.451471522408362,29.822852983340042],[52.451455241606823,29.822839890645159],[52.45143848120555,29.822827266117201],[52.451421261045617,29.822815122170731]]]]}},{"type":"Feature","properties":{"Name":"24","masahat":309.0,"lat":29.8231,"lon":52.45118},"geometry":{"type":"MultiPolygon","coordinates":[[[[52.451223328146121,29.82298012100204],[52.451033802502849,29.82313845095727],[52.451034428325023,29.82313893495466],[52.451117545221777,29.823210143081191],[52.451318376071342,29.823065684060818],[52.451223328146121,29.82298012100204]]]]}},{"type":"Feature","properties":{"Name":"6","masahat":246.0,"lat":29.82301,"lon":52.45148},"geometry":{"type":"MultiPolygon","coordinates":[[[[52.451528988501892,29.822911552479599],[52.451349441772322,29.823041411839242],[52.451349927315583,29.823041855868841],[52.451416715968421,29.82311501359041],[52.451600044501653,29.822996429703441],[52.451529406448387,29.822912045075221],[52.451528988501892,29.822911552479599]]]]}},{"type":"Feature","properties":{"Name":"46.1","masahat":238.0,"lat":29.82317,"lon":52.45125},"geometry":{"type":"MultiPolygon","coordinates":[[[[52.451318376071342,29.823065684060818],[52.451117545221777,29.823210143081191],[52.451118047137108,29.823210574299051],[52.451178179687339,29.823269192799771],[52.451385127892372,29.823138799793071],[52.451318376071342,29.823065684060818]]]]}},{"type":"Feature","properties":{"Name":"11.1","masahat":239.0,"lat":29.8231,"lon":52.45154},"geometry":{"type":"MultiPolygon","coordinates":[[[[52.451600044501653,29.822996429703441],[52.451416715968421,29.82311501359041],[52.451417093411457,29.823115424518662],[52.451478649008827,29.823191231218988],[52.451666556201587,29.823082491063531],[52.451600389909423,29.82299684369022],[52.451600044501653,29.822996429703441]]]]}},{"type":"Feature","properties":{"Name":"42.1","masahat":242.0,"lat":29.82324,"lon":52.45131},"geometry":{"type":"MultiPolygon","coordinates":[[[[52.451385127892372,29.823138799793071],[52.451178179687339,29.823269192799771],[52.451178565946712,29.823269569343019],[52.451240024854272,29.823335610311489],[52.451447390617268,29.82321541806127],[52.451385542161532,29.823139252726669],[52.451385127892372,29.823138799793071]]]]}},{"type":"Feature","properties":{"Name":"5","masahat":252.0,"lat":29.82318,"lon":52.45161},"geometry":{"type":"MultiPolygon","coordinates":[[[[52.451666556201587,29.823082491063531],[52.451478649008827,29.823191231218988],[52.451539987472302,29.823273344908351],[52.451736741559714,29.82317334132507],[52.451666556201587,29.823082491063531]]]]}},{"type":"Feature","properties":{"Name":"41.1","masahat":241.0,"lat":29.82331,"lon":52.45138},"geometry":{"type":"MultiPolygon","coordinates":[[[[52.451508579557519,29.82329749731462],[52.451447390617268,29.82321541806127],[52.451240024854272,29.823335610311489],[52.451297560701278,29.823404223603749],[52.451508579557519,29.82329749731462]]]]}},{"type":"Feature","properties":{"Name":"4","masahat":255.0,"lat":29.82327,"lon":52.45167},"geometry":{"type":"MultiPolygon","coordinates":[[[[52.451736741559714,29.82317334132507],[52.451539987472302,29.823273344908351],[52.451595898650019,29.823358702556781],[52.451802045789812,29.82326662916806],[52.451736741559714,29.82317334132507]]]]}},{"type":"Feature","properties":{"Name":"40.1","masahat":239.0,"lat":29.82339,"lon":52.45143},"geometry":{"type":"MultiPolygon","coordinates":[[[[52.451564058383212,29.823382941840109],[52.451508579557519,29.82329749731462],[52.451297560701278,29.823404223603749],[52.451305338552118,29.82341460978153],[52.451352176580642,29.823477151446308],[52.451352759588822,29.823476892386068],[52.451564058383212,29.823382941840109]]]]}},{"type":"Feature","properties":{"Name":"38.1","masahat":219.0,"lat":29.82355,"lon":52.45153},"geometry":{"type":"MultiPolygon","coordinates":[[[[52.451615367471753,29.82347365128312],[52.451401762618246,29.823551755128332],[52.451445228703633,29.823626072318529],[52.451657423702223,29.823563611483099],[52.451615367471753,29.82347365128312]]]]}},{"type":"Feature","properties":{"Name":"44.1","masahat":222.0,"lat":29.82355,"lon":52.45182},"geometry":{"type":"MultiPolygon","coordinates":[[[[52.451914292586657,29.823473396958271],[52.451690840128009,29.823539233942199],[52.451723088445391,29.823622476621662],[52.451946997279677,29.82355655786515],[52.451914292586657,29.823473396958271]]]]}},{"type":"Feature","properties":{"Name":"37.1","masahat":206.0,"lat":29.82364,"lon":52.45157},"geometry":{"type":"MultiPolygon","coordinates":[[[[52.451657423702223,29.823563611483099],[52.451445228703633,29.823626072318529],[52.451487760792418,29.823706288411799],[52.451689671987957,29.82364685326888],[52.451657423702223,29.823563611483099]]]]}},{"type":"Feature","properties":{"Name":"27.1","masahat":251.0,"lat":29.82364,"lon":52.45185},"geometry":{"type":"MultiPolygon","coordinates":[[[[52.451723088445391,29.823622476621662],[52.451759373204347,29.823716135731079],[52.45198377593529,29.82365008064183],[52.451946997279677,29.82355655786515],[52.451723088445391,29.823622476621662]]]]}},{"type":"Feature","properties":{"Name":"36.1","masahat":197.0,"lat":29.82372,"lon":52.45161},"geometry":{"type":"MultiPolygon","coordinates":[[[[52.45172175585644,29.8237296700458],[52.451689671987957,29.82364685326888],[52.451487760792418,29.823706288411799],[52.45149240840032,29.82371639495944],[52.451525131774517,29.823787548359679],[52.451527523461593,29.823786844422781],[52.45172175585644,29.8237296700458]]]]}},{"type":"Feature","properties":{"Name":"26.1","masahat":212.0,"lat":29.82376,"lon":52.45191},"geometry":{"type":"MultiPolygon","coordinates":[[[[52.452031903534042,29.82377386668087],[52.451999285855777,29.823689362165769],[52.451789347534501,29.82375115989365],[52.451822054699221,29.82383563731209],[52.452031903534042,29.82377386668087]]]]}},{"type":"Feature","properties":{"Name":"29.1","masahat":212.0,"lat":29.82384,"lon":52.45166},"geometry":{"type":"MultiPolygon","coordinates":[[[[52.451783829081421,29.823846898123001],[52.45175112089661,29.82376241980344],[52.451540708220733,29.823824354999051],[52.451573414183898,29.823908833397969],[52.451783829081421,29.823846898123001]]]]}},{"type":"Feature","properties":{"Name":"16.1","masahat":213.0,"lat":29.82385,"lon":52.45194},"geometry":{"type":"MultiPolygon","coordinates":[[[[52.451822054699221,29.82383563731209],[52.451855068503157,29.823920920746829],[52.452064831926329,29.8238591726553],[52.452031903534042,29.82377386668087],[52.451822054699221,29.82383563731209]]]]}},{"type":"Feature","properties":{"Name":"25","masahat":214.0,"lat":29.82392,"lon":52.4517},"geometry":{"type":"MultiPolygon","coordinates":[[[[52.451855068503157,29.823920920746829],[52.451816766382777,29.823931973968609],[52.451783829081421,29.823846898123001],[52.451573414183898,29.823908833397969],[52.451606431931893,29.823994115952551],[52.451855068503157,29.823920920746829]]]]}},{"type":"Feature","properties":{"Name":"26","masahat":253.0,"lat":29.824,"lon":52.45175},"geometry":{"type":"MultiPolygon","coordinates":[[[[52.451888134734581,29.824006319093989],[52.451855068503157,29.823920920746829],[52.451606431931893,29.823994115952551],[52.451610488886587,29.824004595335019],[52.451639494890458,29.824079515303652],[52.451679101552052,29.824067856763978],[52.45184996670281,29.824017558538351],[52.451888134734581,29.824006319093989]]]]}},{"type":"Feature","properties":{"Name":"28.1","masahat":214.0,"lat":29.82402,"lon":52.45201},"geometry":{"type":"MultiPolygon","coordinates":[[[[52.452130746886027,29.82402993101412],[52.452097807664089,29.823944599914331],[52.451888134734581,29.824006319093989],[52.451921288755429,29.82409184459755],[52.452130746886027,29.82402993101412]]]]}},{"type":"Feature","properties":{"Name":"27","masahat":215.0,"lat":29.82409,"lon":52.45176},"geometry":{"type":"MultiPolygon","coordinates":[[[[52.451883103249664,29.824103094169789],[52.45184996670281,29.824017558538351],[52.451679101552052,29.824067856763978],[52.451639494890458,29.824079515303652],[52.451642869234028,29.824088230897399],[52.451672700919147,29.824165286639658],[52.451883103249664,29.824103094169789]]]]}},{"type":"Feature","properties":{"Name":"22.1","masahat":212.0,"lat":29.8241,"lon":52.45204},"geometry":{"type":"MultiPolygon","coordinates":[[[[52.452163549701289,29.824114913495961],[52.452130746886027,29.82402993101412],[52.451921288755429,29.82409184459755],[52.451954200663728,29.82417679615796],[52.452163549701289,29.824114913495961]]]]}},{"type":"Feature","properties":{"Name":"21.1","masahat":212.0,"lat":29.82419,"lon":52.45208},"geometry":{"type":"MultiPolygon","coordinates":[[[[52.451954200663728,29.82417679615796],[52.45198699872843,29.824261456601889],[52.452196241776328,29.824199604827459],[52.452163549701289,29.824114913495961],[52.451954200663728,29.82417679615796]]]]}},{"type":"Feature","properties":{"Name":"25.1","masahat":180.0,"lat":29.8243,"lon":52.45212},"geometry":{"type":"MultiPolygon","coordinates":[[[[52.452236717018607,29.824305983986349],[52.452209428109171,29.824233767638049],[52.452000229321698,29.824295607217621],[52.452023273236463,29.824355087759709],[52.452028136365918,29.824367640860881],[52.452028370273077,29.824367571516689],[52.452236717018607,29.824305983986349]]]]}},{"type":"Feature","properties":{"Name":"23.1","masahat":211.0,"lat":29.82438,"lon":52.45215},"geometry":{"type":"MultiPolygon","coordinates":[[[[52.452268898667718,29.824391150121961],[52.452236717018607,29.824305983986349],[52.452028370273077,29.824367571516689],[52.452028136365918,29.824367640860881],[52.45203291670876,29.82437997921318],[52.452061047416443,29.82445259149436],[52.452268898667718,29.824391150121961]]]]}},{"type":"Feature","properties":{"Name":"19.1","masahat":210.0,"lat":29.82446,"lon":52.45218},"geometry":{"type":"MultiPolygon","coordinates":[[[[52.452301048081353,29.82447622997746],[52.452268898667718,29.824391150121961],[52.452061047416443,29.82445259149436],[52.452093925198021,29.82453745585866],[52.452301048081353,29.82447622997746]]]]}},{"type":"Feature","properties":{"Name":"18.1","masahat":210.0,"lat":29.82455,"lon":52.45221},"geometry":{"type":"MultiPolygon","coordinates":[[[[52.452333229884417,29.82456139879816],[52.452301048081353,29.82447622997746],[52.452093925198021,29.82453745585866],[52.452126836378532,29.824622407372061],[52.452333229884417,29.82456139879816]]]]}},{"type":"Feature","properties":{"Name":"17.1","masahat":210.0,"lat":29.82463,"lon":52.45225},"geometry":{"type":"MultiPolygon","coordinates":[[[[52.452365504211222,29.82464680751556],[52.452333229884417,29.82456139879816],[52.452126836378532,29.824622407372061],[52.452159876593299,29.824707690419011],[52.452365504211222,29.82464680751556]]]]}},{"type":"Feature","properties":{"Name":"10.1","masahat":187.0,"lat":29.82472,"lon":52.45228},"geometry":{"type":"MultiPolygon","coordinates":[[[[52.452394483860203,29.82472350157984],[52.452365504211222,29.82464680751556],[52.452159876593299,29.824707690419011],[52.452189388893487,29.824783872463691],[52.452394483860203,29.82472350157984]]]]}},{"type":"Feature","properties":{"Name":"2","masahat":186.0,"lat":29.82479,"lon":52.45231},"geometry":{"type":"MultiPolygon","coordinates":[[[[52.452423334370231,29.82479984965595],[52.452394483860203,29.82472350157984],[52.452189388893487,29.824783872463691],[52.452218893606577,29.82486002751325],[52.452423334370231,29.82479984965595]]]]}},{"type":"Feature","properties":{"Name":"15.1","masahat":210.0,"lat":29.82487,"lon":52.45234},"geometry":{"type":"MultiPolygon","coordinates":[[[[52.45245600161509,29.824886298028972],[52.452423334370231,29.82479984965595],[52.452218893606577,29.82486002751325],[52.452252301612063,29.824946258453199],[52.45245600161509,29.824886298028972]]]]}},{"type":"Feature","properties":{"Name":"37","masahat":170.0,"lat":29.82251,"lon":52.45066},"geometry":{"type":"MultiPolygon","coordinates":[[[[52.45075671249937,29.822498457616859],[52.45068511982069,29.82243388119235],[52.450684641974227,29.822433396470409],[52.450549627037653,29.82253089692507],[52.450550062332539,29.82253137309138],[52.450638713876927,29.822593783428928],[52.45075671249937,29.822498457616859]]]]}},{"type":"Feature","properties":{"Name":"20","masahat":190.0,"lat":29.82264,"lon":52.4505},"geometry":{"type":"MultiPolygon","coordinates":[[[[52.450607284554273,29.822618461019051],[52.450518332851018,29.8225553302814],[52.45039574360338,29.82264307160689],[52.45038888425654,29.82264798074625],[52.450389363585749,29.82264842484777],[52.450398269813817,29.82265619905802],[52.450475687368133,29.82272377421317],[52.450607284554273,29.822618461019051]]]]}},{"type":"Feature","properties":{"Name":"42","masahat":180.0,"lat":29.82258,"lon":52.45074},"geometry":{"type":"MultiPolygon","coordinates":[[[[52.45075671249937,29.822498457616859],[52.450638713876927,29.822593783428928],[52.450736260277438,29.8226624547946],[52.450847531226039,29.822565463982251],[52.450757294412092,29.82249898270317],[52.45075671249937,29.822498457616859]]]]}},{"type":"Feature","properties":{"Name":"32.1","masahat":219.0,"lat":29.82271,"lon":52.45059},"geometry":{"type":"MultiPolygon","coordinates":[[[[52.450572365965748,29.8228029340798],[52.450704167317433,29.82268646564922],[52.450607284554273,29.822618461019051],[52.450475687368133,29.82272377421317],[52.450476253304821,29.822724267894309],[52.450572365965748,29.8228029340798]]]]}},{"type":"Feature","properties":{"Name":"41","masahat":245.0,"lat":29.82278,"lon":52.45069},"geometry":{"type":"MultiPolygon","coordinates":[[[[52.45067762561105,29.82288367617922],[52.450810160092637,29.822760866082358],[52.450704167317433,29.82268646564922],[52.450572365965748,29.8228029340798],[52.450573003738263,29.822803457651158],[52.45067762561105,29.82288367617922]]]]}},{"type":"Feature","properties":{"Name":"21","masahat":223.0,"lat":29.82285,"lon":52.45079},"geometry":{"type":"MultiPolygon","coordinates":[[[[52.450772458451667,29.822951449704981],[52.450909293259492,29.822816506365459],[52.450810160092637,29.822760866082358],[52.45067762561105,29.82288367617922],[52.450678324612333,29.82288421171037],[52.450772458451667,29.822951449704981]]]]}},{"type":"Feature","properties":{"Name":"35.1","masahat":238.0,"lat":29.82291,"lon":52.45089},"geometry":{"type":"MultiPolygon","coordinates":[[[[52.451013691110759,29.82287016856618],[52.450911015362941,29.822816086812349],[52.450910117487012,29.822816971039892],[52.450909293259492,29.822816506365459],[52.450772458451667,29.822951449704981],[52.450773211321717,29.822951989155669],[52.450784574276859,29.822959833809261],[52.450864572822923,29.823015061656911],[52.450865908669194,29.8230137638601],[52.451013691110759,29.82287016856618]]]]}},{"type":"Feature","properties":{"Name":"22","masahat":245.0,"lat":29.82297,"lon":52.45099},"geometry":{"type":"MultiPolygon","coordinates":[[[[52.451014768300873,29.822870736937158],[52.451013691110759,29.82287016856618],[52.450865908669194,29.8230137638601],[52.450864572822923,29.823015061656911],[52.450876410340143,29.823023234052659],[52.450953306669362,29.823076320379919],[52.451114672558383,29.822920355409671],[52.451014768300873,29.822870736937158]]]]}},{"type":"Feature","properties":{"Name":"28","masahat":213.0,"lat":29.82418,"lon":52.45179},"geometry":{"type":"MultiPolygon","coordinates":[[[[52.451916013060817,29.824188045763311],[52.451883103249664,29.824103094169789],[52.451672700919147,29.824165286639658],[52.451705593039932,29.824250242092209],[52.451916013060817,29.824188045763311]]]]}},{"type":"Feature","properties":{"Name":"20.1","masahat":212.0,"lat":29.82426,"lon":52.45183},"geometry":{"type":"MultiPolygon","coordinates":[[[[52.45194881312807,29.824272703488209],[52.451916013060817,29.824188045763311],[52.451705593039932,29.824250242092209],[52.451726443390697,29.824304100871078],[52.451738294003832,29.82433471237281],[52.451739321367462,29.824334409626701],[52.45194881312807,29.824272703488209]]]]}},{"type":"Feature","properties":{"Name":"29","masahat":180.0,"lat":29.82437,"lon":52.45187},"geometry":{"type":"MultiPolygon","coordinates":[[[[52.45177950773364,29.824441093489131],[52.451988818286743,29.824379223245039],[52.451960823671158,29.824307214918711],[52.4517515245374,29.824368863917801],[52.45177950773364,29.824441093489131]]]]}},{"type":"Feature","properties":{"Name":"30","masahat":212.0,"lat":29.82445,"lon":52.4519},"geometry":{"type":"MultiPolygon","coordinates":[[[[52.451988818286743,29.824379223245039],[52.45177950773364,29.824441093489131],[52.451812418616413,29.824526045092099],[52.452021834402622,29.824464142054449],[52.451988818286743,29.824379223245039]]]]}},{"type":"Feature","properties":{"Name":"31","masahat":212.0,"lat":29.82454,"lon":52.45193},"geometry":{"type":"MultiPolygon","coordinates":[[[[52.452021834402622,29.824464142054449],[52.451812418616413,29.824526045092099],[52.451845309090046,29.824610940963971],[52.452054827044563,29.824549007873419],[52.452021834402622,29.824464142054449]]]]}},{"type":"Feature","properties":{"Name":"32","masahat":213.0,"lat":29.82462,"lon":52.45197},"geometry":{"type":"MultiPolygon","coordinates":[[[[52.452054827044563,29.824549007873419],[52.451845309090046,29.824610940963971],[52.451878220063691,29.824695890740301],[52.452087844325483,29.82463392755125],[52.452054827044563,29.824549007873419]]]]}},{"type":"Feature","properties":{"Name":"33","masahat":214.0,"lat":29.82471,"lon":52.452},"geometry":{"type":"MultiPolygon","coordinates":[[[[52.452087844325483,29.82463392755125],[52.451878220063691,29.824695890740301],[52.45191130206701,29.82478128528334],[52.452120997083583,29.824719194933859],[52.452087844325483,29.82463392755125]]]]}},{"type":"Feature","properties":{"Name":"9.1","masahat":190.0,"lat":29.82479,"lon":52.45203},"geometry":{"type":"MultiPolygon","coordinates":[[[[52.452120997083583,29.824719194933859],[52.45191130206701,29.82478128528334],[52.451940668979191,29.824857085491221],[52.452150581646961,29.824795294982909],[52.452120997083583,29.824719194933859]]]]}},{"type":"Feature","properties":{"Name":"10","masahat":279.0,"lat":29.82196,"lon":52.45128},"geometry":{"type":"MultiPolygon","coordinates":[[[[52.451394914971146,29.82203653784461],[52.451266184636673,29.821830871889141],[52.451168664342362,29.821877283010309],[52.451297396614329,29.82208294904142],[52.451394914971146,29.82203653784461]]]]}},{"type":"Feature","properties":{"Name":"11","masahat":279.0,"lat":29.822,"lon":52.45118},"geometry":{"type":"MultiPolygon","coordinates":[[[[52.451071145003368,29.821923694953011],[52.451199876108817,29.822129361093861],[52.451297396614329,29.82208294904142],[52.451168664342362,29.821877283010309],[52.451071145003368,29.821923694953011]]]]}},{"type":"Feature","properties":{"Name":"12","masahat":267.0,"lat":29.82205,"lon":52.45109},"geometry":{"type":"MultiPolygon","coordinates":[[[[52.450977706769059,29.82196816347912],[52.451106439817522,29.822173829691469],[52.451199876108817,29.822129361093861],[52.451071145003368,29.821923694953011],[52.450977706769059,29.82196816347912]]]]}},{"type":"Feature","properties":{"Name":"13","masahat":267.0,"lat":29.82209,"lon":52.451},"geometry":{"type":"MultiPolygon","coordinates":[[[[52.451013000311328,29.822218296455191],[52.451106439817522,29.822173829691469],[52.450977706769059,29.82196816347912],[52.450884269484597,29.822012631930221],[52.451013000311328,29.822218296455191]]]]}},{"type":"Feature","properties":{"Name":"14","masahat":267.0,"lat":29.82214,"lon":52.4509},"geometry":{"type":"MultiPolygon","coordinates":[[[[52.450884269484597,29.822012631930221],[52.4507908321023,29.822057099415531],[52.450919562828773,29.822262765839149],[52.451013000311328,29.822218296455191],[52.450884269484597,29.822012631930221]]]]}},{"type":"Feature","properties":{"Name":"15","masahat":259.0,"lat":29.82218,"lon":52.45081},"geometry":{"type":"MultiPolygon","coordinates":[[[[52.450700114069697,29.82210027189446],[52.450828845721219,29.822305939300399],[52.450919562828773,29.822262765839149],[52.4507908321023,29.822057099415531],[52.450700114069697,29.82210027189446]]]]}},{"type":"Feature","properties":{"Name":"16","masahat":235.0,"lat":29.82222,"lon":52.45072},"geometry":{"type":"MultiPolygon","coordinates":[[[[52.450623453657393,29.822136756110591],[52.45061784338013,29.822172474515131],[52.450645972627207,29.822206341674551],[52.450675229567693,29.822239472768089],[52.450705590000922,29.822271840088309],[52.450737028717462,29.82230341774348],[52.450769517338593,29.822334175365022],[52.450828845721219,29.822305939300399],[52.450700114069697,29.82210027189446],[52.450623453657393,29.822136756110591]]]]}},{"type":"Feature","properties":{"Name":"842.1","masahat":257.0,"lat":29.82222,"lon":52.45145},"geometry":{"type":"MultiPolygon","coordinates":[[[[52.451434526585523,29.822099821219599],[52.451337007153462,29.822146232458039],[52.451455835895707,29.82233607724395],[52.451553356471088,29.82228966500114],[52.451434526585523,29.822099821219599]]]]}},{"type":"Feature","properties":{"Name":"842","masahat":257.0,"lat":29.82226,"lon":52.45135},"geometry":{"type":"MultiPolygon","coordinates":[[[[52.451455835895707,29.82233607724395],[52.451337007153462,29.822146232458039],[52.45123948658135,29.822192642736351],[52.451354715756487,29.822376735954641],[52.451358315201873,29.822382487613051],[52.451366619470193,29.8223785352696],[52.451455835895707,29.82233607724395]]]]}},{"type":"Feature","properties":{"Name":"843","masahat":247.0,"lat":29.82231,"lon":52.45125},"geometry":{"type":"MultiPolygon","coordinates":[[[[52.451354715756487,29.822376735954641],[52.45123948658135,29.822192642736351],[52.45114604919042,29.82223710956994],[52.451260653332817,29.82242020814293],[52.451264877733458,29.82242695724025],[52.451358315201873,29.822382487613051],[52.451354715756487,29.822376735954641]]]]}},{"type":"Feature","properties":{"Name":"844","masahat":247.0,"lat":29.82235,"lon":52.45116},"geometry":{"type":"MultiPolygon","coordinates":[[[[52.451260653332817,29.82242020814293],[52.45114604919042,29.82223710956994],[52.451052608649832,29.82228157908061],[52.451166035745338,29.822462792147519],[52.451171439119491,29.8224714250108],[52.451264877733458,29.82242695724025],[52.451260653332817,29.82242020814293]]]]}},{"type":"Feature","properties":{"Name":"845","masahat":247.0,"lat":29.8224,"lon":52.45107},"geometry":{"type":"MultiPolygon","coordinates":[[[[52.451166035745338,29.822462792147519],[52.451052608649832,29.82228157908061],[52.450959172163053,29.8223260484822],[52.451076983514213,29.822514267949419],[52.451078001481463,29.822515894510751],[52.451171439119491,29.8224714250108],[52.451166035745338,29.822462792147519]]]]}},{"type":"Feature","properties":{"Name":"846","masahat":292.0,"lat":29.82244,"lon":52.45095},"geometry":{"type":"MultiPolygon","coordinates":[[[[52.451076983514213,29.822514267949419],[52.450959172163053,29.8223260484822],[52.450825759857537,29.822389541433491],[52.450809118372263,29.822397460852141],[52.450830926184523,29.822417299264501],[52.450853495418393,29.822436477822102],[52.450876799907562,29.822454976058111],[52.450900816563561,29.822472771667321],[52.450925512972859,29.822489841544598],[52.450944083931219,29.822501802887061],[52.45095086093869,29.82250616795249],[52.450956142881118,29.822509333087581],[52.450976833285942,29.822521732240052],[52.451003400769949,29.822536515779039],[52.451034480972517,29.822536603893191],[52.451078001481463,29.822515894510751],[52.451076983514213,29.822514267949419]]]]}},{"type":"Feature","properties":{"Name":"3","masahat":283.0,"lat":29.82336,"lon":52.45173},"geometry":{"type":"MultiPolygon","coordinates":[[[[52.451802045789812,29.82326662916806],[52.451595898650019,29.823358702556781],[52.451647934514213,29.823449361590651],[52.451870973243743,29.82337317039195],[52.45184318905283,29.82332542718213],[52.451802045789812,29.82326662916806]]]]}},{"type":"Feature","properties":{"Name":"39.1","masahat":235.0,"lat":29.82347,"lon":52.45149},"geometry":{"type":"MultiPolygon","coordinates":[[[[52.451615367471753,29.82347365128312],[52.451564058383212,29.823382941840109],[52.451352759588822,29.823476892386068],[52.451352176580642,29.823477151446308],[52.451360390668611,29.82348950984974],[52.451401762618246,29.823551755128332],[52.451615367471753,29.82347365128312]]]]}},{"type":"Feature","properties":{"Name":"43.1","masahat":260.0,"lat":29.82346,"lon":52.45178},"geometry":{"type":"MultiPolygon","coordinates":[[[[52.451690840128009,29.823539233942199],[52.451914292586657,29.823473396958271],[52.451870973243743,29.82337317039195],[52.451647934514213,29.823449361590651],[52.451690840128009,29.823539233942199]]]]}},{"type":"Feature","properties":{"Name":"35","masahat":191.0,"lat":29.82486,"lon":52.45206},"geometry":{"type":"MultiPolygon","coordinates":[[[[52.452150581646961,29.824795294982909],[52.451940668979191,29.824857085491221],[52.451970173556127,29.824933242405528],[52.452180181173553,29.824871424636129],[52.452150581646961,29.824795294982909]]]]}},{"type":"Feature","properties":{"Name":"31.1","masahat":216.0,"lat":29.82495,"lon":52.45209},"geometry":{"type":"MultiPolygon","coordinates":[[[[52.452180181173553,29.824871424636129],[52.451970173556127,29.824933242405528],[52.452003581390962,29.825019474316001],[52.452213695305659,29.82495762554484],[52.452180181173553,29.824871424636129]]]]}},{"type":"Feature","properties":{"Name":"14.1","masahat":179.0,"lat":29.82495,"lon":52.45237},"geometry":{"type":"MultiPolygon","coordinates":[[[[52.452483993610016,29.824960378028301],[52.45245600161509,29.824886298028972],[52.452252301612063,29.824946258453199],[52.452280928248101,29.825020151955378],[52.452483993610016,29.824960378028301]]]]}},{"type":"Feature","properties":{"Name":"34","masahat":185.0,"lat":29.82503,"lon":52.45212},"geometry":{"type":"MultiPolygon","coordinates":[[[[52.452213695305659,29.82495762554484],[52.452003581390962,29.825019474316001],[52.452032206795757,29.825093365181552],[52.452242413586923,29.825031489173458],[52.452213695305659,29.82495762554484]]]]}},{"type":"Feature","properties":{"Name":"13.1","masahat":212.0,"lat":29.82503,"lon":52.4524},"geometry":{"type":"MultiPolygon","coordinates":[[[[52.45248933183462,29.824974505878139],[52.452483993610016,29.824960378028301],[52.452280928248101,29.825020151955378],[52.452314920054498,29.82510788787172],[52.452517065574163,29.82504789842011],[52.452516178935042,29.825045553069181],[52.45248933183462,29.824974505878139]]]]}},{"type":"Feature","properties":{"Name":"12.1","masahat":209.0,"lat":29.82512,"lon":52.45243},"geometry":{"type":"MultiPolygon","coordinates":[[[[52.452549993378867,29.825135035088419],[52.452517065574163,29.82504789842011],[52.452314920054498,29.82510788787172],[52.452348591647883,29.825194801658899],[52.452549993378867,29.825135035088419]]]]}},{"type":"Feature","properties":{"Name":"33.1","masahat":218.0,"lat":29.82519,"lon":52.45219},"geometry":{"type":"MultiPolygon","coordinates":[[[[52.452133328176309,29.825258673457189],[52.45231031822032,29.825206150682881],[52.452276539478397,29.825119267840609],[52.452066401628642,29.825181628605669],[52.45210007405889,29.825268541548091],[52.452133328176309,29.825258673457189]]]]}},{"type":"Feature","properties":{"Name":"30.1","masahat":219.0,"lat":29.82521,"lon":52.45247},"geometry":{"type":"MultiPolygon","coordinates":[[[[52.452584535365823,29.825226447316531],[52.452549993378867,29.825135035088419],[52.452348591647883,29.825194801658899],[52.452383892941533,29.825285919552769],[52.452584535365823,29.825226447316531]]]]}},{"type":"Feature","properties":{"Name":"1","masahat":227.0,"lat":29.82528,"lon":52.45222},"geometry":{"type":"MultiPolygon","coordinates":[[[[52.452314582081563,29.82521711773347],[52.45231031822032,29.825206150682881],[52.452133328176309,29.825258673457189],[52.45210007405889,29.825268541548091],[52.452128835045443,29.825342781003311],[52.452155018357807,29.82535404848878],[52.452338128291707,29.825299709664218],[52.452345808102848,29.825297430739401],[52.452314582081563,29.82521711773347]]]]}},{"type":"Feature","properties":{"Name":"1.11","masahat":241.0,"lat":29.82531,"lon":52.4525},"geometry":{"type":"MultiPolygon","coordinates":[[[[52.452622827382207,29.82532778009789],[52.452584535365823,29.825226447316531],[52.452383892941533,29.825285919552769],[52.452422923413913,29.82538666226807],[52.452622827382207,29.82532778009789]]]]}},{"type":"Feature","properties":{"Name":"4.1","masahat":214.0,"lat":29.8254,"lon":52.45254},"geometry":{"type":"MultiPolygon","coordinates":[[[[52.452656950870967,29.825418080712559],[52.452622827382207,29.82532778009789],[52.452422923413913,29.82538666226807],[52.452457818573698,29.82547673608633],[52.452656950870967,29.825418080712559]]]]}},{"type":"Feature","properties":{"Name":"5.1","masahat":211.0,"lat":29.82549,"lon":52.45257},"geometry":{"type":"MultiPolygon","coordinates":[[[[52.452656950870967,29.825418080712559],[52.452457818573698,29.82547673608633],[52.452492286898163,29.8255656992974],[52.452690651660092,29.82550727067564],[52.452656950870967,29.825418080712559]]]]}},{"type":"Feature","properties":{"Name":"7.1","masahat":212.0,"lat":29.82558,"lon":52.45261},"geometry":{"type":"MultiPolygon","coordinates":[[[[52.452724709642169,29.825597397837051],[52.452690651660092,29.82550727067564],[52.452492286898163,29.8255656992974],[52.452527116566984,29.825655600563621],[52.452724709642169,29.825597397837051]]]]}},{"type":"Feature","properties":{"Name":"6.1","masahat":213.0,"lat":29.82567,"lon":52.45264},"geometry":{"type":"MultiPolygon","coordinates":[[[[52.452758994766242,29.825688127957282],[52.452724709642169,29.825597397837051],[52.452527116566984,29.825655600563621],[52.452562178499257,29.825746101122942],[52.452758994766242,29.825688127957282]]]]}},{"type":"Feature","properties":{"Name":"8.1","masahat":213.0,"lat":29.82576,"lon":52.45268},"geometry":{"type":"MultiPolygon","coordinates":[[[[52.452793375763036,29.82577911417771],[52.452758994766242,29.825688127957282],[52.452562178499257,29.825746101122942],[52.452597340443788,29.82583685773665],[52.452793375763036,29.82577911417771]]]]}},{"type":"Feature","properties":{"Name":"3.1","masahat":216.0,"lat":29.82585,"lon":52.45271},"geometry":{"type":"MultiPolygon","coordinates":[[[[52.452828436830544,29.825871895776459],[52.452793375763036,29.82577911417771],[52.452597340443788,29.82583685773665],[52.452633194834462,29.825929406886178],[52.452828436830544,29.825871895776459]]]]}},{"type":"Feature","properties":{"Name":"2.1","masahat":197.0,"lat":29.82594,"lon":52.45275},"geometry":{"type":"MultiPolygon","coordinates":[[[[52.452860554974173,29.825956890980599],[52.452828436830544,29.825871895776459],[52.452633194834462,29.825929406886178],[52.452666041351449,29.82601418569012],[52.452860554974173,29.825956890980599]]]]}},{"type":"Feature","properties":{"Name":"1.12","masahat":221.0,"lat":29.82612,"lon":52.45281},"geometry":{"type":"MultiPolygon","coordinates":[[[[52.452892938900078,29.82604258526959],[52.452699158837191,29.826099664424252],[52.452735828201327,29.8261943115326],[52.452929692849366,29.826139849071101],[52.452892938900078,29.82604258526959]]]]}},{"type":"Feature","properties":{"Name":"54.1","masahat":211.0,"lat":29.82485,"lon":52.45169},"geometry":{"type":"MultiPolygon","coordinates":[[[[52.451830771545268,29.824852180996981],[52.451802730147008,29.82477980229578],[52.451553297081873,29.824853240803421],[52.451571340198733,29.824888215648041],[52.451592602747589,29.82492233127612],[52.451830771545268,29.824852180996981]]]]}},{"type":"Feature","properties":{"Name":"62.1","masahat":250.0,"lat":29.82362,"lon":52.45125},"geometry":{"type":"MultiPolygon","coordinates":[[[[52.45126351726222,29.823522141574749],[52.451123883095583,29.823597874840772],[52.451137826661203,29.823608630026278],[52.451151371160677,29.823619769478491],[52.451164497800512,29.82363128167362],[52.451177199116373,29.82364315135402],[52.451189454297442,29.823655370627439],[52.451201260031119,29.823667925092941],[52.451212597497722,29.823680801422359],[52.45122345720258,29.823693987087399],[52.451233828590311,29.823707467766731],[52.451243701131567,29.82372123094342],[52.451356934522337,29.823669553399149],[52.451327771485218,29.82361947734579],[52.451296621402072,29.82357031913773],[52.45126351726222,29.823522141574749]]]]}},{"type":"Feature","properties":{"Name":"63.1","masahat":229.0,"lat":29.82351,"lon":52.45115},"geometry":{"type":"MultiPolygon","coordinates":[[[[52.451123883095583,29.823597874840772],[52.45126351726222,29.823522141574749],[52.451236829615098,29.82348588557975],[52.451209036693797,29.82345026794389],[52.451180160565983,29.823415311884819],[52.451029176306022,29.823527138735109],[52.451123883095583,29.823597874840772]]]]}},{"type":"Feature","properties":{"Name":"64.1","masahat":241.0,"lat":29.82343,"lon":52.45106},"geometry":{"type":"MultiPolygon","coordinates":[[[[52.451029176306022,29.823527138735109],[52.451180160565983,29.823415311884819],[52.451140649606387,29.823370481963149],[52.45109935392388,29.823326892497398],[52.450939816487818,29.823461405942449],[52.451029176306022,29.823527138735109]]]]}},{"type":"Feature","properties":{"Name":"65.1","masahat":258.0,"lat":29.82336,"lon":52.45098},"geometry":{"type":"MultiPolygon","coordinates":[[[[52.450939816487818,29.823461405942449],[52.45109935392388,29.823326892497398],[52.451059982680043,29.823288075097121],[52.451019193460553,29.823250384038179],[52.450843684365033,29.82339836334635],[52.450904451857312,29.823435391975529],[52.450939816487818,29.823461405942449]]]]}},{"type":"Feature","properties":{"Name":"66.1","masahat":269.0,"lat":29.82329,"lon":52.45089},"geometry":{"type":"MultiPolygon","coordinates":[[[[52.450843684365033,29.82339836334635],[52.451019193460553,29.823250384038179],[52.450978941018093,29.823215463563599],[52.450937476118398,29.823181641003799],[52.450748922405118,29.823340616790649],[52.450843684365033,29.82339836334635]]]]}},{"type":"Feature","properties":{"Name":"67.1","masahat":218.0,"lat":29.82324,"lon":52.45081},"geometry":{"type":"MultiPolygon","coordinates":[[[[52.450748922405118,29.823340616790649],[52.450937476118398,29.823181641003799],[52.450904338570027,29.823156058252088],[52.450870505417178,29.823131177029641],[52.450678576832409,29.823293000568199],[52.450748922405118,29.823340616790649]]]]}},{"type":"Feature","properties":{"Name":"68.1","masahat":230.0,"lat":29.82319,"lon":52.45074},"geometry":{"type":"MultiPolygon","coordinates":[[[[52.450678576832409,29.823293000568199],[52.450870505417178,29.823131177029641],[52.450797051273597,29.82308198253163],[52.450602460533617,29.82324699338259],[52.450627388406403,29.823262883217652],[52.450652766748853,29.823278221283939],[52.450678576832409,29.823293000568199]]]]}},{"type":"Feature","properties":{"Name":"69.1","masahat":244.0,"lat":29.82314,"lon":52.45066},"geometry":{"type":"MultiPolygon","coordinates":[[[[52.450602460533617,29.82324699338259],[52.450797051273597,29.82308198253163],[52.450719991106553,29.823030372331321],[52.45052704358082,29.82319344394881],[52.450551639661889,29.823211870305212],[52.450576786303287,29.82322972484495],[52.450602460533617,29.82324699338259]]]]}},{"type":"Feature","properties":{"Name":"70.1","masahat":251.0,"lat":29.82308,"lon":52.45059},"geometry":{"type":"MultiPolygon","coordinates":[[[[52.45052704358082,29.82319344394881],[52.450719991106553,29.823030372331321],[52.450641005033333,29.822974308538988],[52.450453756791049,29.82313218315926],[52.450477538419307,29.8231531883321],[52.450501973971647,29.82317361333515],[52.45052704358082,29.82319344394881]]]]}},{"type":"Feature","properties":{"Name":"71.1","masahat":254.0,"lat":29.82302,"lon":52.45051},"geometry":{"type":"MultiPolygon","coordinates":[[[[52.450453756791049,29.82313218315926],[52.450641005033333,29.822974308538988],[52.450555762421637,29.822910574948629],[52.450382331458613,29.82307054365992],[52.450418492187303,29.82310096868493],[52.450453756791049,29.82313218315926]]]]}},{"type":"Feature","properties":{"Name":"72.1","masahat":256.0,"lat":29.82296,"lon":52.45043},"geometry":{"type":"MultiPolygon","coordinates":[[[[52.450382331458613,29.82307054365992],[52.450555762421637,29.822910574948629],[52.45051490408828,29.822879395754939],[52.450474777381203,29.82284749837422],[52.450300694596727,29.823007190803231],[52.450342015572893,29.82303837581151],[52.450382331458613,29.82307054365992]]]]}},{"type":"Feature","properties":{"Name":"76.1","masahat":225.0,"lat":29.8229,"lon":52.45035},"geometry":{"type":"MultiPolygon","coordinates":[[[[52.450300694596727,29.823007190803231],[52.450474777381203,29.82284749837422],[52.450409199141788,29.822792459348872],[52.450224599208617,29.82295407634404],[52.450263022337658,29.82298022566123],[52.450300694596727,29.823007190803231]]]]}},{"type":"Feature","properties":{"Name":"74.1","masahat":247.0,"lat":29.82279,"lon":52.45021},"geometry":{"type":"MultiPolygon","coordinates":[[[[52.450345094095447,29.822736097528441],[52.450283146142311,29.822680267832649],[52.450071934827207,29.822847281306199],[52.450068147128249,29.822850276238],[52.450077048102912,29.822856181785092],[52.450147354228058,29.822902826959201],[52.450345094095447,29.822736097528441]]]]}},{"type":"Feature","properties":{"Name":"73.1","masahat":257.0,"lat":29.82274,"lon":52.45014},"geometry":{"type":"MultiPolygon","coordinates":[[[[52.450283146142311,29.822680267832649],[52.450225789221818,29.82262733744701],[52.449986122201878,29.822795856975429],[52.449995256163618,29.822801916977699],[52.450068147128249,29.822850276238],[52.450071934827207,29.822847281306199],[52.450283146142311,29.822680267832649]]]]}},{"type":"Feature","properties":{"Name":"77.1","masahat":420.0,"lat":29.82267,"lon":52.45005},"geometry":{"type":"MultiPolygon","coordinates":[[[[52.450225789221818,29.82262733744701],[52.450144414235602,29.822545249964779],[52.449858597311618,29.82271443379064],[52.449921579951983,29.822756074794611],[52.449986122201878,29.822795856975429],[52.450225789221818,29.82262733744701]]]]}},{"type":"Feature","properties":{"Name":"78.1","masahat":343.0,"lat":29.8226,"lon":52.44995},"geometry":{"type":"MultiPolygon","coordinates":[[[[52.450144414235602,29.822545249964779],[52.450088263296699,29.822488610298421],[52.449760997272989,29.82264387375907],[52.44980925342157,29.822679723714931],[52.449858597311618,29.82271443379064],[52.450144414235602,29.822545249964779]]]]}},{"type":"Feature","properties":{"Name":"75.1","masahat":234.0,"lat":29.82285,"lon":52.45028},"geometry":{"type":"MultiPolygon","coordinates":[[[[52.450224599208617,29.82295407634404],[52.450409199141788,29.822792459348872],[52.450345094095447,29.822736097528441],[52.450147354228058,29.822902826959201],[52.450224599208617,29.82295407634404]]]]}},{"type":"Feature","properties":{"Name":"1.13","masahat":203.0,"lat":29.82621,"lon":52.45286},"geometry":{"type":"MultiPolygon","coordinates":[[[[52.452929692849366,29.826139849071101],[52.452735828201327,29.8261943115326],[52.452749376494957,29.826229283294438],[52.45283253499921,29.826275490514249],[52.452966707204347,29.826237796673539],[52.452929692849366,29.826139849071101]]]]}},{"type":"Feature","properties":{"Name":"1.1","masahat":198.0,"lat":29.82603,"lon":52.45278},"geometry":{"type":"MultiPolygon","coordinates":[[[[52.452892938900078,29.82604258526959],[52.452860554974173,29.825956890980599],[52.452666041351449,29.82601418569012],[52.452699158837191,29.826099664424252],[52.452892938900078,29.82604258526959]]]]}},{"type":"Feature","properties":{"Name":"24.1","masahat":214.0,"lat":29.82393,"lon":52.45198},"geometry":{"type":"MultiPolygon","coordinates":[[[[52.451855068503157,29.823920920746829],[52.451888134734581,29.824006319093989],[52.452097807664089,29.823944599914331],[52.452064831926329,29.8238591726553],[52.451855068503157,29.823920920746829]]]]}},{"type":"Feature","properties":{"Name":"49.2","masahat":172.0,"lat":29.82534,"lon":52.45194},"geometry":{"type":"MultiPolygon","coordinates":[[[[52.451998591063067,29.825285358711479],[52.451994367490052,29.82527445617551],[52.45184231294688,29.825319243933979],[52.451877258231299,29.825374598126931],[52.451919786341463,29.82541308728667],[52.45203493483605,29.82537917045234],[52.452001424684688,29.825292672590301],[52.451998591063067,29.825285358711479]]]]}},{"type":"Feature","properties":{"Name":"49.1","masahat":180.0,"lat":29.82525,"lon":52.4519},"geometry":{"type":"MultiPolygon","coordinates":[[[[52.451958271036148,29.825181282361459],[52.451787054061818,29.825231713663651],[52.45184231294688,29.825319243933979],[52.451994367490052,29.82527445617551],[52.451958271036148,29.825181282361459]]]]}},{"type":"Feature","properties":{"Name":"50.1","masahat":194.0,"lat":29.82516,"lon":52.45185},"geometry":{"type":"MultiPolygon","coordinates":[[[[52.451923431354338,29.825091356670789],[52.451733723849919,29.825147234629441],[52.451734015170913,29.825147700643239],[52.451787054061818,29.825231713663651],[52.451958271036148,29.825181282361459],[52.451923431354338,29.825091356670789]]]]}},{"type":"Feature","properties":{"Name":"61.1","masahat":202.0,"lat":29.82421,"lon":52.45148},"geometry":{"type":"MultiPolygon","coordinates":[[[[52.451588699271333,29.824227336836291],[52.451557570930461,29.824146984646291],[52.451539111444653,29.824139039384189],[52.451395034575043,29.82418179620219],[52.451379156652827,29.824204831390141],[52.45139403305236,29.824284996749672],[52.451394053162943,29.824285099395201],[52.451588699271333,29.824227336836291]]]]}},{"type":"Feature","properties":{"Name":"36","masahat":199.0,"lat":29.8243,"lon":52.4515},"geometry":{"type":"MultiPolygon","coordinates":[[[[52.45162058874989,29.824309654967429],[52.451588699271333,29.824227336836291],[52.451394053162943,29.824285099395201],[52.451410150501552,29.824371838401749],[52.451410196574223,29.824372090550089],[52.45162058874989,29.824309654967429]]]]}},{"type":"Feature","properties":{"Name":"60.1","masahat":227.0,"lat":29.82439,"lon":52.45153},"geometry":{"type":"MultiPolygon","coordinates":[[[[52.451654236771553,29.824396503349579],[52.45162058874989,29.824309654967429],[52.451410196574223,29.824372090550089],[52.4514118226639,29.82438085062455],[52.451427229858282,29.824463870555491],[52.451428812596703,29.82446340109319],[52.451654236771553,29.824396503349579]]]]}},{"type":"Feature","properties":{"Name":"59.1","masahat":232.0,"lat":29.82447,"lon":52.45155},"geometry":{"type":"MultiPolygon","coordinates":[[[[52.451686326273169,29.824479335399388],[52.451654236771553,29.824396503349579],[52.451428812596703,29.82446340109319],[52.451427229858282,29.824463870555491],[52.451428726923183,29.824471937247221],[52.451443474304462,29.82455140379993],[52.451686326273169,29.824479335399388]]]]}},{"type":"Feature","properties":{"Name":"58.1","masahat":232.0,"lat":29.82456,"lon":52.45158},"geometry":{"type":"MultiPolygon","coordinates":[[[[52.451716528192499,29.82455729390459],[52.451686326273169,29.824479335399388],[52.451443474304462,29.82455140379993],[52.451458658196103,29.8246332179475],[52.451716528192499,29.82455729390459]]]]}},{"type":"Feature","properties":{"Name":"57.1","masahat":231.0,"lat":29.82463,"lon":52.4516},"geometry":{"type":"MultiPolygon","coordinates":[[[[52.451745539078019,29.82463217588683],[52.451716528192499,29.82455729390459],[52.451458658196103,29.8246332179475],[52.451485505607707,29.824708639899889],[52.451485542038739,29.824708726123969],[52.451745539078019,29.82463217588683]]]]}},{"type":"Feature","properties":{"Name":"56.1","masahat":228.0,"lat":29.82471,"lon":52.45163},"geometry":{"type":"MultiPolygon","coordinates":[[[[52.451774184561692,29.824706117129399],[52.451745539078019,29.82463217588683],[52.451485542038739,29.824708726123969],[52.45151741492532,29.824781513062309],[52.451517504420657,29.82478169074172],[52.451774184561692,29.824706117129399]]]]}},{"type":"Feature","properties":{"Name":"55.1","masahat":223.0,"lat":29.82478,"lon":52.45166},"geometry":{"type":"MultiPolygon","coordinates":[[[[52.451802730147008,29.82477980229578],[52.451774184561692,29.824706117129399],[52.451517504420657,29.82478169074172],[52.45155315234836,29.824852964473902],[52.451553297081873,29.824853240803421],[52.451802730147008,29.82477980229578]]]]}},{"type":"Feature","properties":{"Name":"51.1","masahat":198.0,"lat":29.82508,"lon":52.45181},"geometry":{"type":"MultiPolygon","coordinates":[[[[52.451891010367291,29.825007671117529],[52.451684210641872,29.82506858062079],[52.451733723849919,29.825147234629441],[52.451923431354338,29.825091356670789],[52.451891010367291,29.825007671117529]]]]}},{"type":"Feature","properties":{"Name":"52.1","masahat":204.0,"lat":29.825,"lon":52.45177},"geometry":{"type":"MultiPolygon","coordinates":[[[[52.451860145989428,29.82492800369856],[52.451637081547013,29.82499370284107],[52.451637526548097,29.824994419820751],[52.451684210641872,29.82506858062079],[52.451891010367291,29.825007671117529],[52.451860145989428,29.82492800369856]]]]}},{"type":"Feature","properties":{"Name":"53.1","masahat":209.0,"lat":29.82492,"lon":52.45173},"geometry":{"type":"MultiPolygon","coordinates":[[[[52.451830771545268,29.824852180996981],[52.451592602747589,29.82492233127612],[52.451637081547013,29.82499370284107],[52.451860145989428,29.82492800369856],[52.451830771545268,29.824852180996981]]]]}},{"type":"Feature","properties":{"Name":"47.1","masahat":221.0,"lat":29.82511,"lon":52.45215},"geometry":{"type":"MultiPolygon","coordinates":[[[[52.452242413586923,29.825031489173458],[52.452032206795757,29.825093365181552],[52.452066401628642,29.825181628605669],[52.452276539478397,29.825119267840609],[52.452242413586923,29.825031489173458]]]]}}]}