{"type":"FeatureCollection","name":"_3","crs":{"type":"name","properties":{"name":"urn:ogc:def:crs:OGC:1.3:CRS84"}},"features":[{"type":"Feature","properties":{"fid":8.0,"handle":"26944","block":"-1","etype":"18","space":"0","layer":"zamzam","olinetype":"bylayer","linetype":null,"color":"0,0,0,79","ocolor":"256","color24":"-1","transparen":"0","lweight":"-1","linewidth":0.0,"ltscale":1.0,"visible":"1","width":0.0,"thickness":0.0,"ext":"(3:0,0,0.1)"},"geometry":{"type":"MultiLineString","coordinates":[[[52.451495303899193,29.825897934024415],[52.451490342512457,29.825877016978634],[52.451486737052385,29.825855824085259],[52.451484502453027,29.825834443143105],[52.451483647975479,29.825812962733618],[52.451484177155876,29.825791471849481],[52.451486087805975,29.825770059527496],[52.451489372007714,29.825748814477048],[52.451494016155053,29.825727824717216],[52.451500001006721,29.825707177207516],[52.451507301769894,29.825686957489562],[52.451515888194777,29.825667249333275],[52.451525724711033,29.82564813438854],[52.451536770564203,29.82562969184961],[52.451548979992154,29.825611998122223],[52.451562302412427,29.825595126510745],[52.451576682627788,29.825579146914389],[52.451592061066314,29.825564125535742],[52.451608374010007,29.825550124608494],[52.451625553877768,29.82553720213798],[52.451636732225978,29.825476327565386],[52.451549292139376,29.825327642309016],[52.451406339226793,29.825301341323392],[52.4507330542041,29.825771959153403],[52.451227373483931,29.826200898582723],[52.451465601339734,29.825992156140842],[52.451470200164884,29.825988084020377],[52.45147451347907,29.825983710618178],[52.451478521592222,29.825979055902064],[52.451482206199003,29.8259741411273],[52.451485550476505,29.825968988734314],[52.451488539154312,29.825963622250821],[52.451491158584545,29.825958066179521],[52.45149339680917,29.825952345890766],[52.451495243605464,29.825946487505245],[52.451496690540594,29.825940517771198],[52.451497731009809,29.825934463948908],[52.451498360261908,29.825928353679739],[52.451498575422889,29.825922214865169],[52.451498375508677,29.825916075534916],[52.451497761435121,29.825909963720964],[52.451496736004309,29.825903907332599],[52.451495303898973,29.825897934024468]]]}},{"type":"Feature","properties":{"fid":16.0,"handle":"26963","block":"-1","etype":"18","space":"0","layer":"zamzam","olinetype":"bylayer","linetype":null,"color":"0,0,0,79","ocolor":"256","color24":"-1","transparen":"0","lweight":"-1","linewidth":0.0,"ltscale":1.0,"visible":"1","width":0.0,"thickness":0.0,"ext":"(3:0,0,0.1)"},"geometry":{"type":"MultiLineString","coordinates":[[[52.450846118775601,29.825920986435779],[52.450408180379902,29.826304716431348]]]}},{"type":"Feature","properties":{"fid":17.0,"handle":"26964","block":"-1","etype":"18","space":"0","layer":"zamzam","olinetype":"bylayer","linetype":null,"color":"0,0,0,79","ocolor":"256","color24":"-1","transparen":"0","lweight":"-1","linewidth":0.0,"ltscale":1.0,"visible":"1","width":0.0,"thickness":0.0,"ext":"(3:0,0,0.1)"},"geometry":{"type":"MultiLineString","coordinates":[[[52.450373706699523,29.82614751059533],[52.450613192233199,29.82635532235788]]]}},{"type":"Feature","properties":{"fid":18.0,"handle":"26965","block":"-1","etype":"18","space":"0","layer":"zamzam","olinetype":"bylayer","linetype":null,"color":"0,0,0,79","ocolor":"256","color24":"-1","transparen":"0","lweight":"-1","linewidth":0.0,"ltscale":1.0,"visible":"1","width":0.0,"thickness":0.0,"ext":"(3:0,0,0.1)"},"geometry":{"type":"MultiLineString","coordinates":[[[52.450427990929946,29.82606732398018],[52.450686182098053,29.826291367343526]]]}},{"type":"Feature","properties":{"fid":19.0,"handle":"26966","block":"-1","etype":"18","space":"0","layer":"zamzam","olinetype":"bylayer","linetype":null,"color":"0,0,0,79","ocolor":"256","color24":"-1","transparen":"0","lweight":"-1","linewidth":0.0,"ltscale":1.0,"visible":"1","width":0.0,"thickness":0.0,"ext":"(3:0,0,0.1)"},"geometry":{"type":"MultiLineString","coordinates":[[[52.450488035636425,29.825992136042814],[52.450759171869947,29.82622741229131]]]}},{"type":"Feature","properties":{"fid":20.0,"handle":"26967","block":"-1","etype":"18","space":"0","layer":"zamzam","olinetype":"bylayer","linetype":null,"color":"0,0,0,79","ocolor":"256","color24":"-1","transparen":"0","lweight":"-1","linewidth":0.0,"ltscale":1.0,"visible":"1","width":0.0,"thickness":0.0,"ext":"(3:0,0,0.1)"},"geometry":{"type":"MultiLineString","coordinates":[[[52.450553393460879,29.825921558587297],[52.450832161548874,29.826163457201265]]]}},{"type":"Feature","properties":{"fid":21.0,"handle":"26968","block":"-1","etype":"18","space":"0","layer":"zamzam","olinetype":"bylayer","linetype":null,"color":"0,0,0,79","ocolor":"256","color24":"-1","transparen":"0","lweight":"-1","linewidth":0.0,"ltscale":1.0,"visible":"1","width":0.0,"thickness":0.0,"ext":"(3:0,0,0.1)"},"geometry":{"type":"MultiLineString","coordinates":[[[52.450624611733765,29.825856066551324],[52.45090515113484,29.826099502073383]]]}},{"type":"Feature","properties":{"fid":23.0,"handle":"26970","block":"-1","etype":"18","space":"0","layer":"zamzam","olinetype":"bylayer","linetype":null,"color":"0,0,0,79","ocolor":"256","color24":"-1","transparen":"0","lweight":"-1","linewidth":0.0,"ltscale":1.0,"visible":"1","width":0.0,"thickness":0.0,"ext":"(3:0,0,0.1)"},"geometry":{"type":"MultiLineString","coordinates":[[[52.450190062275169,29.826802820618681],[52.450102473603557,29.826879566324049]]]}},{"type":"Feature","properties":{"fid":24.0,"handle":"26971","block":"-1","etype":"18","space":"0","layer":"zamzam","olinetype":"bylayer","linetype":null,"color":"0,0,0,79","ocolor":"256","color24":"-1","transparen":"0","lweight":"-1","linewidth":0.0,"ltscale":1.0,"visible":"1","width":0.0,"thickness":0.0,"ext":"(3:0,0,0.1)"},"geometry":{"type":"MultiLineString","coordinates":[[[52.450366092123424,29.826955568718976],[52.450219400546025,29.826828278653178],[52.451051486231457,29.826099191552032],[52.451198177717565,29.826226480707525],[52.450130101555082,29.827162344977467],[52.450026766833233,29.827157508264541],[52.449894605556075,29.827013746193302],[52.449890331742068,29.826977765453378],[52.450058475178743,29.826688636791072],[52.450219400546025,29.826828278653178]]]}},{"type":"Feature","properties":{"fid":25.0,"handle":"26972","block":"-1","etype":"18","space":"0","layer":"zamzam","olinetype":"bylayer","linetype":null,"color":"0,0,0,79","ocolor":"256","color24":"-1","transparen":"0","lweight":"-1","linewidth":0.0,"ltscale":1.0,"visible":"1","width":0.0,"thickness":0.0,"ext":"(3:0,0,0.1)"},"geometry":{"type":"MultiLineString","coordinates":[[[52.450700987725391,29.825795050137714],[52.450978140627839,29.826035546907637],[52.450554800274389,29.82640648634213],[52.450525533161013,29.826406548352278],[52.450337694919625,29.826243553092787],[52.450332791815754,29.826216935616713],[52.450356576574066,29.826176036308173],[52.450395884265063,29.826113499322911],[52.450438748393232,29.826053344223755],[52.450485025013919,29.825995773018587],[52.450534558725636,29.825940979035078],[52.450587183190898,29.825889146274921],[52.450642721691011,29.825840448799919],[52.450700987725376,29.825795050137721]]]}},{"type":"Feature","properties":{"fid":26.0,"handle":"26973","block":"-1","etype":"18","space":"0","layer":"zamzam","olinetype":"bylayer","linetype":null,"color":"0,0,0,79","ocolor":"256","color24":"-1","transparen":"0","lweight":"-1","linewidth":0.0,"ltscale":1.0,"visible":"1","width":0.0,"thickness":0.0,"ext":"(3:0,0,0.1)"},"geometry":{"type":"MultiLineString","coordinates":[[[52.450452543109435,29.826470503282966],[52.450452614203293,29.826496023256269],[52.450204447272064,29.826713469738927],[52.450097834340404,29.826620957040916],[52.450262986776423,29.826336969330029],[52.450293699422268,29.826332667810338],[52.450452543109435,29.826470503282966]]]}},{"type":"Feature","properties":{"fid":27.0,"handle":"26974","block":"-1","etype":"18","space":"0","layer":"zamzam","olinetype":"bylayer","linetype":null,"color":"0,0,0,79","ocolor":"256","color24":"-1","transparen":"0","lweight":"-1","linewidth":0.0,"ltscale":1.0,"visible":"1","width":0.0,"thickness":0.0,"ext":"(3:0,0,0.1)"},"geometry":{"type":"MultiLineString","coordinates":[[[52.450215911515947,29.826417917726634],[52.450379624040963,29.826559978149525]]]}},{"type":"Feature","properties":{"fid":28.0,"handle":"26975","block":"-1","etype":"18","space":"0","layer":"zamzam","olinetype":"bylayer","linetype":null,"color":"0,0,0,79","ocolor":"256","color24":"-1","transparen":"0","lweight":"-1","linewidth":0.0,"ltscale":1.0,"visible":"1","width":0.0,"thickness":0.0,"ext":"(3:0,0,0.1)"},"geometry":{"type":"MultiLineString","coordinates":[[[52.450156872986199,29.826519437395749],[52.450292035723443,29.826636723971465]]]}},{"type":"Feature","properties":{"fid":29.0,"handle":"26977","block":"-1","etype":"18","space":"0","layer":"zamzam","olinetype":"bylayer","linetype":null,"color":"0,0,0,79","ocolor":"256","color24":"-1","transparen":"0","lweight":"-1","linewidth":0.0,"ltscale":1.0,"visible":"1","width":0.0,"thickness":0.0,"ext":"(3:0,0,0.1)"},"geometry":{"type":"MultiLineString","coordinates":[[[52.450306989081845,29.826751532874137],[52.450453680649645,29.826878822844112]]]}},{"type":"Feature","properties":{"fid":30.0,"handle":"26979","block":"-1","etype":"18","space":"0","layer":"zamzam","olinetype":"bylayer","linetype":null,"color":"0,0,0,79","ocolor":"256","color24":"-1","transparen":"0","lweight":"-1","linewidth":0.0,"ltscale":1.0,"visible":"1","width":0.0,"thickness":0.0,"ext":"(3:0,0,0.1)"},"geometry":{"type":"MultiLineString","coordinates":[[[52.449999436339539,29.826790156396353],[52.450278503463331,29.827032314539338]]]}},{"type":"Feature","properties":{"fid":31.0,"handle":"26980","block":"-1","etype":"18","space":"0","layer":"zamzam","olinetype":"bylayer","linetype":null,"color":"0,0,0,79","ocolor":"256","color24":"-1","transparen":"0","lweight":"-1","linewidth":0.0,"ltscale":1.0,"visible":"1","width":0.0,"thickness":0.0,"ext":"(3:0,0,0.1)"},"geometry":{"type":"MultiLineString","coordinates":[[[52.449940397384296,29.826891675977713],[52.450190914669371,29.827109060305201]]]}},{"type":"Feature","properties":{"fid":32.0,"handle":"26985","block":"-1","etype":"18","space":"0","layer":"zamzam","olinetype":"bylayer","linetype":null,"color":"0,0,0,79","ocolor":"256","color24":"-1","transparen":"0","lweight":"-1","linewidth":0.0,"ltscale":1.0,"visible":"1","width":0.0,"thickness":0.0,"ext":"(3:0,0,0.1)"},"geometry":{"type":"MultiLineString","coordinates":[[[52.450613547903025,29.826482922218336],[52.450760239437187,29.826610211852937]]]}},{"type":"Feature","properties":{"fid":33.0,"handle":"26987","block":"-1","etype":"18","space":"0","layer":"zamzam","olinetype":"bylayer","linetype":null,"color":"0,0,0,79","ocolor":"256","color24":"-1","transparen":"0","lweight":"-1","linewidth":0.0,"ltscale":1.0,"visible":"1","width":0.0,"thickness":0.0,"ext":"(3:0,0,0.1)"},"geometry":{"type":"MultiLineString","coordinates":[[[52.45054055785625,29.826546877196932],[52.45068724939842,29.826674166911399]]]}},{"type":"Feature","properties":{"fid":34.0,"handle":"26989","block":"-1","etype":"18","space":"0","layer":"zamzam","olinetype":"bylayer","linetype":null,"color":"0,0,0,79","ocolor":"256","color24":"-1","transparen":"0","lweight":"-1","linewidth":0.0,"ltscale":1.0,"visible":"1","width":0.0,"thickness":0.0,"ext":"(3:0,0,0.1)"},"geometry":{"type":"MultiLineString","coordinates":[[[52.450394577483799,29.826674787040595],[52.450541269041992,29.826802076914753]]]}},{"type":"Feature","properties":{"fid":35.0,"handle":"26990","block":"-1","etype":"18","space":"0","layer":"zamzam","olinetype":"bylayer","linetype":null,"color":"0,0,0,79","ocolor":"256","color24":"-1","transparen":"0","lweight":"-1","linewidth":0.0,"ltscale":1.0,"visible":"1","width":0.0,"thickness":0.0,"ext":"(3:0,0,0.1)"},"geometry":{"type":"MultiLineString","coordinates":[[[52.450467567716508,29.826610832137689],[52.450614259266693,29.826738121931996]]]}},{"type":"Feature","properties":{"fid":36.0,"handle":"26993","block":"-1","etype":"18","space":"0","layer":"zamzam","olinetype":"bylayer","linetype":null,"color":"0,0,0,79","ocolor":"256","color24":"-1","transparen":"0","lweight":"-1","linewidth":0.0,"ltscale":1.0,"visible":"1","width":0.0,"thickness":0.0,"ext":"(3:0,0,0.1)"},"geometry":{"type":"MultiLineString","coordinates":[[[52.450686537856832,29.826418967201896],[52.450833229382994,29.826546256756654]]]}},{"type":"Feature","properties":{"fid":37.0,"handle":"26994","block":"-1","etype":"18","space":"0","layer":"zamzam","olinetype":"bylayer","linetype":null,"color":"0,0,0,79","ocolor":"256","color24":"-1","transparen":"0","lweight":"-1","linewidth":0.0,"ltscale":1.0,"visible":"1","width":0.0,"thickness":0.0,"ext":"(3:0,0,0.1)"},"geometry":{"type":"MultiLineString","coordinates":[[[52.450759527717679,29.826355012147605],[52.45090621923584,29.826482301622519]]]}},{"type":"Feature","properties":{"fid":38.0,"handle":"26995","block":"-1","etype":"18","space":"0","layer":"zamzam","olinetype":"bylayer","linetype":null,"color":"0,0,0,79","ocolor":"256","color24":"-1","transparen":"0","lweight":"-1","linewidth":0.0,"ltscale":1.0,"visible":"1","width":0.0,"thickness":0.0,"ext":"(3:0,0,0.1)"},"geometry":{"type":"MultiLineString","coordinates":[[[52.450832517485573,29.826291057055482],[52.450979208995712,29.826418346450531]]]}},{"type":"Feature","properties":{"fid":39.0,"handle":"26996","block":"-1","etype":"18","space":"0","layer":"zamzam","olinetype":"bylayer","linetype":null,"color":"0,0,0,79","ocolor":"256","color24":"-1","transparen":"0","lweight":"-1","linewidth":0.0,"ltscale":1.0,"visible":"1","width":0.0,"thickness":0.0,"ext":"(3:0,0,0.1)"},"geometry":{"type":"MultiLineString","coordinates":[[[52.450905507160492,29.826227101925507],[52.45105219866263,29.826354391240699]]]}},{"type":"Feature","properties":{"fid":40.0,"handle":"26997","block":"-1","etype":"18","space":"0","layer":"zamzam","olinetype":"bylayer","linetype":null,"color":"0,0,0,79","ocolor":"256","color24":"-1","transparen":"0","lweight":"-1","linewidth":0.0,"ltscale":1.0,"visible":"1","width":0.0,"thickness":0.0,"ext":"(3:0,0,0.1)"},"geometry":{"type":"MultiLineString","coordinates":[[[52.450978496742458,29.826163146757686],[52.451125188236581,29.826290435993034]]]}},{"type":"Feature","properties":{"fid":42.0,"handle":"27004","block":"-1","etype":"18","space":"0","layer":"zamzam","olinetype":"bylayer","linetype":null,"color":"0,0,0,79","ocolor":"256","color24":"-1","transparen":"0","lweight":"-1","linewidth":0.0,"ltscale":1.0,"visible":"1","width":0.0,"thickness":0.0,"ext":"(3:0,0,0.1)"},"geometry":{"type":"MultiLineString","coordinates":[[[52.451365248430612,29.825330063497951],[52.4507330542041,29.825771959153403],[52.451227373483931,29.826200898582723]]]}}]}