// static/data/phase2/zamzam/zamzam_6.geojson
{
  "type": "FeatureCollection",
  "name": "_6",
  "crs": {
    "type": "name",
    "properties": { "name": "urn:ogc:def:crs:OGC:1.3:CRS84" }
  },
  "features": [
    {
      "type": "Feature",
      "properties": {
        "fid": 3927.0,
        "handle": "22082",
        "block": "-1",
        "etype": "25",
        "space": "0",
        "layer": "pelak",
        "olinetype": "bylayer",
        "linetype": null,
        "color": "255,0,0,255",
        "ocolor": "10",
        "color24": "-1",
        "transparen": "0",
        "lweight": "-1",
        "linewidth": 0.0,
        "ltscale": 1.0,
        "visible": "1",
        "thickness": 0.0,
        "ext": "(3:0,0,1)",
        "height": 2.0,
        "text": "466",
        "angle": 315.57668,
        "widthscale": 1.0,
        "oblique": 0.0,
        "style": "Standard",
        "textgen": "0",
        "alignh": "2",
        "alignv": "0",
        "interlin": -1.0,
        "Name": "664",
        "lat": 29.82708,
        "lon": 52.45007
      },
      "geometry": {
        "type": "Point",
        "coordinates": [52.450070204094892, 29.82708113487671]
      }
    },
    {
      "type": "Feature",
      "properties": {
        "fid": 3928.0,
        "handle": "22083",
        "block": "-1",
        "etype": "25",
        "space": "0",
        "layer": "pelak",
        "olinetype": "bylayer",
        "linetype": null,
        "color": "255,0,0,255",
        "ocolor": "10",
        "color24": "-1",
        "transparen": "0",
        "lweight": "-1",
        "linewidth": 0.0,
        "ltscale": 1.0,
        "visible": "1",
        "thickness": 0.0,
        "ext": "(3:0,0,1)",
        "height": 2.0,
        "text": "566",
        "angle": 315.57668,
        "widthscale": 1.0,
        "oblique": 0.0,
        "style": "Standard",
        "textgen": "0",
        "alignh": "2",
        "alignv": "0",
        "interlin": -1.0,
        "Name": "665",
        "lat": 29.827,
        "lon": 52.45015
      },
      "geometry": {
        "type": "Point",
        "coordinates": [52.450151582804708, 29.826998088157037]
      }
    },
    {
      "type": "Feature",
      "properties": {
        "fid": 3929.0,
        "handle": "22084",
        "block": "-1",
        "etype": "25",
        "space": "0",
        "layer": "pelak",
        "olinetype": "bylayer",
        "linetype": null,
        "color": "255,0,0,255",
        "ocolor": "10",
        "color24": "-1",
        "transparen": "0",
        "lweight": "-1",
        "linewidth": 0.0,
        "ltscale": 1.0,
        "visible": "1",
        "thickness": 0.0,
        "ext": "(3:0,0,1)",
        "height": 2.0,
        "text": "666",
        "angle": 315.57668,
        "widthscale": 1.0,
        "oblique": 0.0,
        "style": "Standard",
        "textgen": "0",
        "alignh": "2",
        "alignv": "0",
        "interlin": -1.0,
        "Name": "666",
        "lat": 29.82691,
        "lon": 52.45023
      },
      "geometry": {
        "type": "Point",
        "coordinates": [52.450227648007541, 29.8269148536125]
      }
    },
    {
      "type": "Feature",
      "properties": {
        "fid": 3930.0,
        "handle": "22085",
        "block": "-1",
        "etype": "25",
        "space": "0",
        "layer": "pelak",
        "olinetype": "bylayer",
        "linetype": null,
        "color": "255,0,0,255",
        "ocolor": "10",
        "color24": "-1",
        "transparen": "0",
        "lweight": "-1",
        "linewidth": 0.0,
        "ltscale": 1.0,
        "visible": "1",
        "thickness": 0.0,
        "ext": "(3:0,0,1)",
        "height": 2.0,
        "text": "766",
        "angle": 315.57668,
        "widthscale": 1.0,
        "oblique": 0.0,
        "style": "Standard",
        "textgen": "0",
        "alignh": "2",
        "alignv": "0",
        "interlin": -1.0,
        "Name": "667",
        "lat": 29.82685,
        "lon": 52.45031
      },
      "geometry": {
        "type": "Point",
        "coordinates": [52.450309740211203, 29.826845348374281]
      }
    },
    {
      "type": "Feature",
      "properties": {
        "fid": 3931.0,
        "handle": "22086",
        "block": "-1",
        "etype": "25",
        "space": "0",
        "layer": "pelak",
        "olinetype": "bylayer",
        "linetype": null,
        "color": "255,0,0,255",
        "ocolor": "10",
        "color24": "-1",
        "transparen": "0",
        "lweight": "-1",
        "linewidth": 0.0,
        "ltscale": 1.0,
        "visible": "1",
        "thickness": 0.0,
        "ext": "(3:0,0,1)",
        "height": 2.0,
        "text": "866",
        "angle": 315.57668,
        "widthscale": 1.0,
        "oblique": 0.0,
        "style": "Standard",
        "textgen": "0",
        "alignh": "2",
        "alignv": "0",
        "interlin": -1.0,
        "Name": "668",
        "lat": 29.82677,
        "lon": 52.45039
      },
      "geometry": {
        "type": "Point",
        "coordinates": [52.450391192159053, 29.826765750185785]
      }
    },
    {
      "type": "Feature",
      "properties": {
        "fid": 3932.0,
        "handle": "22087",
        "block": "-1",
        "etype": "25",
        "space": "0",
        "layer": "pelak",
        "olinetype": "bylayer",
        "linetype": null,
        "color": "255,0,0,255",
        "ocolor": "10",
        "color24": "-1",
        "transparen": "0",
        "lweight": "-1",
        "linewidth": 0.0,
        "ltscale": 1.0,
        "visible": "1",
        "thickness": 0.0,
        "ext": "(3:0,0,1)",
        "height": 2.0,
        "text": "966",
        "angle": 315.57668,
        "widthscale": 1.0,
        "oblique": 0.0,
        "style": "Standard",
        "textgen": "0",
        "alignh": "2",
        "alignv": "0",
        "interlin": -1.0,
        "Name": "669",
        "lat": 29.8267,
        "lon": 52.45052
      },
      "geometry": {
        "type": "Point",
        "coordinates": [52.450524666959701, 29.826696986279984]
      }
    },
    {
      "type": "Feature",
      "properties": {
        "fid": 3933.0,
        "handle": "22088",
        "block": "-1",
        "etype": "25",
        "space": "0",
        "layer": "pelak",
        "olinetype": "bylayer",
        "linetype": null,
        "color": "255,0,0,255",
        "ocolor": "10",
        "color24": "-1",
        "transparen": "0",
        "lweight": "-1",
        "linewidth": 0.0,
        "ltscale": 1.0,
        "visible": "1",
        "thickness": 0.0,
        "ext": "(3:0,0,1)",
        "height": 2.0,
        "text": "076",
        "angle": 315.57668,
        "widthscale": 1.0,
        "oblique": 0.0,
        "style": "Standard",
        "textgen": "0",
        "alignh": "2",
        "alignv": "0",
        "interlin": -1.0,
        "Name": "670",
        "lat": 29.82663,
        "lon": 52.45059
      },
      "geometry": {
        "type": "Point",
        "coordinates": [52.450587351705508, 29.826631500599191]
      }
    },
    {
      "type": "Feature",
      "properties": {
        "fid": 3934.0,
        "handle": "22089",
        "block": "-1",
        "etype": "25",
        "space": "0",
        "layer": "pelak",
        "olinetype": "bylayer",
        "linetype": null,
        "color": "255,0,0,255",
        "ocolor": "10",
        "color24": "-1",
        "transparen": "0",
        "lweight": "-1",
        "linewidth": 0.0,
        "ltscale": 1.0,
        "visible": "1",
        "thickness": 0.0,
        "ext": "(3:0,0,1)",
        "height": 2.0,
        "text": "176",
        "angle": 315.57668,
        "widthscale": 1.0,
        "oblique": 0.0,
        "style": "Standard",
        "textgen": "0",
        "alignh": "2",
        "alignv": "0",
        "interlin": -1.0,
        "Name": "671",
        "lat": 29.82657,
        "lon": 52.45065
      },
      "geometry": {
        "type": "Point",
        "coordinates": [52.450652922668247, 29.826570696707034]
      }
    },
    {
      "type": "Feature",
      "properties": {
        "fid": 3935.0,
        "handle": "22090",
        "block": "-1",
        "etype": "25",
        "space": "0",
        "layer": "pelak",
        "olinetype": "bylayer",
        "linetype": null,
        "color": "255,0,0,255",
        "ocolor": "10",
        "color24": "-1",
        "transparen": "0",
        "lweight": "-1",
        "linewidth": 0.0,
        "ltscale": 1.0,
        "visible": "1",
        "thickness": 0.0,
        "ext": "(3:0,0,1)",
        "height": 2.0,
        "text": "276",
        "angle": 315.57668,
        "widthscale": 1.0,
        "oblique": 0.0,
        "style": "Standard",
        "textgen": "0",
        "alignh": "2",
        "alignv": "0",
        "interlin": -1.0,
        "Name": "672",
        "lat": 29.82651,
        "lon": 52.45072
      },
      "geometry": {
        "type": "Point",
        "coordinates": [52.450718114306198, 29.826505372705075]
      }
    },
    {
      "type": "Feature",
      "properties": {
        "fid": 3936.0,
        "handle": "22091",
        "block": "-1",
        "etype": "25",
        "space": "0",
        "layer": "pelak",
        "olinetype": "bylayer",
        "linetype": null,
        "color": "255,0,0,255",
        "ocolor": "10",
        "color24": "-1",
        "transparen": "0",
        "lweight": "-1",
        "linewidth": 0.0,
        "ltscale": 1.0,
        "visible": "1",
        "thickness": 0.0,
        "ext": "(3:0,0,1)",
        "height": 2.0,
        "text": "376",
        "angle": 315.57668,
        "widthscale": 1.0,
        "oblique": 0.0,
        "style": "Standard",
        "textgen": "0",
        "alignh": "2",
        "alignv": "0",
        "interlin": -1.0,
        "Name": "673",
        "lat": 29.82644,
        "lon": 52.45078
      },
      "geometry": {
        "type": "Point",
        "coordinates": [52.450781199531981, 29.826444227704439]
      }
    },
    {
      "type": "Feature",
      "properties": {
        "fid": 3937.0,
        "handle": "22092",
        "block": "-1",
        "etype": "25",
        "space": "0",
        "layer": "pelak",
        "olinetype": "bylayer",
        "linetype": null,
        "color": "255,0,0,255",
        "ocolor": "10",
        "color24": "-1",
        "transparen": "0",
        "lweight": "-1",
        "linewidth": 0.0,
        "ltscale": 1.0,
        "visible": "1",
        "thickness": 0.0,
        "ext": "(3:0,0,1)",
        "height": 2.0,
        "text": "476",
        "angle": 315.57668,
        "widthscale": 1.0,
        "oblique": 0.0,
        "style": "Standard",
        "textgen": "0",
        "alignh": "2",
        "alignv": "0",
        "interlin": -1.0,
        "Name": "674",
        "lat": 29.82638,
        "lon": 52.45085
      },
      "geometry": {
        "type": "Point",
        "coordinates": [52.450845844998625, 29.82637963914236]
      }
    },
    {
      "type": "Feature",
      "properties": {
        "fid": 3938.0,
        "handle": "22093",
        "block": "-1",
        "etype": "25",
        "space": "0",
        "layer": "pelak",
        "olinetype": "bylayer",
        "linetype": null,
        "color": "255,0,0,255",
        "ocolor": "10",
        "color24": "-1",
        "transparen": "0",
        "lweight": "-1",
        "linewidth": 0.0,
        "ltscale": 1.0,
        "visible": "1",
        "thickness": 0.0,
        "ext": "(3:0,0,1)",
        "height": 2.0,
        "text": "576",
        "angle": 315.57668,
        "widthscale": 1.0,
        "oblique": 0.0,
        "style": "Standard",
        "textgen": "0",
        "alignh": "2",
        "alignv": "0",
        "interlin": -1.0,
        "Name": "675",
        "lat": 29.82632,
        "lon": 52.45091
      },
      "geometry": {
        "type": "Point",
        "coordinates": [52.450911290904337, 29.826319359268755]
      }
    },
    {
      "type": "Feature",
      "properties": {
        "fid": 3939.0,
        "handle": "22094",
        "block": "-1",
        "etype": "25",
        "space": "0",
        "layer": "pelak",
        "olinetype": "bylayer",
        "linetype": null,
        "color": "255,0,0,255",
        "ocolor": "10",
        "color24": "-1",
        "transparen": "0",
        "lweight": "-1",
        "linewidth": 0.0,
        "ltscale": 1.0,
        "visible": "1",
        "thickness": 0.0,
        "ext": "(3:0,0,1)",
        "height": 2.0,
        "text": "676",
        "angle": 315.57668,
        "widthscale": 1.0,
        "oblique": 0.0,
        "style": "Standard",
        "textgen": "0",
        "alignh": "2",
        "alignv": "0",
        "interlin": -1.0,
        "Name": "676",
        "lat": 29.82625,
        "lon": 52.45097
      },
      "geometry": {
        "type": "Point",
        "coordinates": [52.450971607864567, 29.826253718652012]
      }
    },
    {
      "type": "Feature",
      "properties": {
        "fid": 3940.0,
        "handle": "22095",
        "block": "-1",
        "etype": "25",
        "space": "0",
        "layer": "pelak",
        "olinetype": "bylayer",
        "linetype": null,
        "color": "255,0,0,255",
        "ocolor": "10",
        "color24": "-1",
        "transparen": "0",
        "lweight": "-1",
        "linewidth": 0.0,
        "ltscale": 1.0,
        "visible": "1",
        "thickness": 0.0,
        "ext": "(3:0,0,1)",
        "height": 2.0,
        "text": "776",
        "angle": 315.57668,
        "widthscale": 1.0,
        "oblique": 0.0,
        "style": "Standard",
        "textgen": "0",
        "alignh": "2",
        "alignv": "0",
        "interlin": -1.0,
        "Name": "677",
        "lat": 29.82619,
        "lon": 52.45104
      },
      "geometry": {
        "type": "Point",
        "coordinates": [52.451035950311699, 29.826192876378713]
      }
    },
    {
      "type": "Feature",
      "properties": {
        "fid": 3941.0,
        "handle": "22096",
        "block": "-1",
        "etype": "25",
        "space": "0",
        "layer": "pelak",
        "olinetype": "bylayer",
        "linetype": null,
        "color": "255,0,0,255",
        "ocolor": "10",
        "color24": "-1",
        "transparen": "0",
        "lweight": "-1",
        "linewidth": 0.0,
        "ltscale": 1.0,
        "visible": "1",
        "thickness": 0.0,
        "ext": "(3:0,0,1)",
        "height": 2.0,
        "text": "876",
        "angle": 315.57668,
        "widthscale": 1.0,
        "oblique": 0.0,
        "style": "Standard",
        "textgen": "0",
        "alignh": "2",
        "alignv": "0",
        "interlin": -1.0,
        "Name": "678",
        "lat": 29.82602,
        "lon": 52.45084
      },
      "geometry": {
        "type": "Point",
        "coordinates": [52.450839110095423, 29.826018800676728]
      }
    },
    {
      "type": "Feature",
      "properties": {
        "fid": 3942.0,
        "handle": "22097",
        "block": "-1",
        "etype": "25",
        "space": "0",
        "layer": "pelak",
        "olinetype": "bylayer",
        "linetype": null,
        "color": "255,0,0,255",
        "ocolor": "10",
        "color24": "-1",
        "transparen": "0",
        "lweight": "-1",
        "linewidth": 0.0,
        "ltscale": 1.0,
        "visible": "1",
        "thickness": 0.0,
        "ext": "(3:0,0,1)",
        "height": 2.0,
        "text": "986",
        "angle": 315.57668,
        "widthscale": 1.0,
        "oblique": 0.0,
        "style": "Standard",
        "textgen": "0",
        "alignh": "2",
        "alignv": "0",
        "interlin": -1.0,
        "Name": "689",
        "lat": 29.82647,
        "lon": 52.45034
      },
      "geometry": {
        "type": "Point",
        "coordinates": [52.450340702280123, 29.826470422267718]
      }
    },
    {
      "type": "Feature",
      "properties": {
        "fid": 3943.0,
        "handle": "22098",
        "block": "-1",
        "etype": "25",
        "space": "0",
        "layer": "pelak",
        "olinetype": "bylayer",
        "linetype": null,
        "color": "255,0,0,255",
        "ocolor": "10",
        "color24": "-1",
        "transparen": "0",
        "lweight": "-1",
        "linewidth": 0.0,
        "ltscale": 1.0,
        "visible": "1",
        "thickness": 0.0,
        "ext": "(3:0,0,1)",
        "height": 2.0,
        "text": "096",
        "angle": 315.57668,
        "widthscale": 1.0,
        "oblique": 0.0,
        "style": "Standard",
        "textgen": "0",
        "alignh": "2",
        "alignv": "0",
        "interlin": -1.0,
        "Name": "690",
        "lat": 29.82655,
        "lon": 52.45027
      },
      "geometry": {
        "type": "Point",
        "coordinates": [52.450270238078524, 29.826548453282431]
      }
    },
    {
      "type": "Feature",
      "properties": {
        "fid": 3944.0,
        "handle": "22099",
        "block": "-1",
        "etype": "25",
        "space": "0",
        "layer": "pelak",
        "olinetype": "bylayer",
        "linetype": null,
        "color": "255,0,0,255",
        "ocolor": "10",
        "color24": "-1",
        "transparen": "0",
        "lweight": "-1",
        "linewidth": 0.0,
        "ltscale": 1.0,
        "visible": "1",
        "thickness": 0.0,
        "ext": "(3:0,0,1)",
        "height": 2.0,
        "text": "196",
        "angle": 315.57668,
        "widthscale": 1.0,
        "oblique": 0.0,
        "style": "Standard",
        "textgen": "0",
        "alignh": "2",
        "alignv": "0",
        "interlin": -1.0,
        "Name": "691",
        "lat": 29.82662,
        "lon": 52.4502
      },
      "geometry": {
        "type": "Point",
        "coordinates": [52.450197967018475, 29.826621036565562]
      }
    },
    {
      "type": "Feature",
      "properties": {
        "fid": 3945.0,
        "handle": "22100",
        "block": "-1",
        "etype": "25",
        "space": "0",
        "layer": "pelak",
        "olinetype": "bylayer",
        "linetype": null,
        "color": "255,0,0,255",
        "ocolor": "10",
        "color24": "-1",
        "transparen": "0",
        "lweight": "-1",
        "linewidth": 0.0,
        "ltscale": 1.0,
        "visible": "1",
        "thickness": 0.0,
        "ext": "(3:0,0,1)",
        "height": 2.0,
        "text": "296",
        "angle": 315.57668,
        "widthscale": 1.0,
        "oblique": 0.0,
        "style": "Standard",
        "textgen": "0",
        "alignh": "2",
        "alignv": "0",
        "interlin": -1.0,
        "Name": "692",
        "lat": 29.82678,
        "lon": 52.4501
      },
      "geometry": {
        "type": "Point",
        "coordinates": [52.450100302848988, 29.826781469245262]
      }
    },
    {
      "type": "Feature",
      "properties": {
        "fid": 3950.0,
        "handle": "22121",
        "block": "-1",
        "etype": "25",
        "space": "0",
        "layer": "pelak",
        "olinetype": "bylayer",
        "linetype": null,
        "color": "255,0,0,255",
        "ocolor": "10",
        "color24": "-1",
        "transparen": "0",
        "lweight": "-1",
        "linewidth": 0.0,
        "ltscale": 1.0,
        "visible": "1",
        "thickness": 0.0,
        "ext": "(3:0,0,1)",
        "height": 2.0,
        "text": "976",
        "angle": 315.57668,
        "widthscale": 1.0,
        "oblique": 0.0,
        "style": "Standard",
        "textgen": "0",
        "alignh": "2",
        "alignv": "0",
        "interlin": -1.0,
        "Name": "679",
        "lat": 29.82608,
        "lon": 52.45078
      },
      "geometry": {
        "type": "Point",
        "coordinates": [52.4507751248346, 29.826081932928012]
      }
    },
    {
      "type": "Feature",
      "properties": {
        "fid": 3955.0,
        "handle": "22127",
        "block": "-1",
        "etype": "25",
        "space": "0",
        "layer": "pelak",
        "olinetype": "bylayer",
        "linetype": null,
        "color": "255,0,0,255",
        "ocolor": "10",
        "color24": "-1",
        "transparen": "0",
        "lweight": "-1",
        "linewidth": 0.0,
        "ltscale": 1.0,
        "visible": "1",
        "thickness": 0.0,
        "ext": "(3:0,0,1)",
        "height": 2.0,
        "text": "086",
        "angle": 315.57668,
        "widthscale": 1.0,
        "oblique": 0.0,
        "style": "Standard",
        "textgen": "0",
        "alignh": "2",
        "alignv": "0",
        "interlin": -1.0,
        "Name": "680",
        "lat": 29.82615,
        "lon": 52.45071
      },
      "geometry": {
        "type": "Point",
        "coordinates": [52.45071113957399, 29.826145065168181]
      }
    },
    {
      "type": "Feature",
      "properties": {
        "fid": 3960.0,
        "handle": "22133",
        "block": "-1",
        "etype": "25",
        "space": "0",
        "layer": "pelak",
        "olinetype": "bylayer",
        "linetype": null,
        "color": "255,0,0,255",
        "ocolor": "10",
        "color24": "-1",
        "transparen": "0",
        "lweight": "-1",
        "linewidth": 0.0,
        "ltscale": 1.0,
        "visible": "1",
        "thickness": 0.0,
        "ext": "(3:0,0,1)",
        "height": 2.0,
        "text": "186",
        "angle": 315.57668,
        "widthscale": 1.0,
        "oblique": 0.0,
        "style": "Standard",
        "textgen": "0",
        "alignh": "2",
        "alignv": "0",
        "interlin": -1.0,
        "Name": "681",
        "lat": 29.82621,
        "lon": 52.45065
      },
      "geometry": {
        "type": "Point",
        "coordinates": [52.4506471543136, 29.826208197397229]
      }
    },
    {
      "type": "Feature",
      "properties": {
        "fid": 3965.0,
        "handle": "22139",
        "block": "-1",
        "etype": "25",
        "space": "0",
        "layer": "pelak",
        "olinetype": "bylayer",
        "linetype": null,
        "color": "255,0,0,255",
        "ocolor": "10",
        "color24": "-1",
        "transparen": "0",
        "lweight": "-1",
        "linewidth": 0.0,
        "ltscale": 1.0,
        "visible": "1",
        "thickness": 0.0,
        "ext": "(3:0,0,1)",
        "height": 2.0,
        "text": "286",
        "angle": 315.57668,
        "widthscale": 1.0,
        "oblique": 0.0,
        "style": "Standard",
        "textgen": "0",
        "alignh": "2",
        "alignv": "0",
        "interlin": -1.0,
        "Name": "682",
        "lat": 29.82627,
        "lon": 52.45058
      },
      "geometry": {
        "type": "Point",
        "coordinates": [52.450583169053424, 29.826271329615153]
      }
    },
    {
      "type": "Feature",
      "properties": {
        "fid": 3969.0,
        "handle": "22144",
        "block": "-1",
        "etype": "25",
        "space": "0",
        "layer": "pelak",
        "olinetype": "bylayer",
        "linetype": null,
        "color": "255,0,0,255",
        "ocolor": "10",
        "color24": "-1",
        "transparen": "0",
        "lweight": "-1",
        "linewidth": 0.0,
        "ltscale": 1.0,
        "visible": "1",
        "thickness": 0.0,
        "ext": "(3:0,0,1)",
        "height": 1.6,
        "text": "1/386",
        "angle": 315.57668,
        "widthscale": 1.0,
        "oblique": 0.0,
        "style": "Standard",
        "textgen": "0",
        "alignh": "2",
        "alignv": "0",
        "interlin": -1.0,
        "Name": "683/1",
        "lat": 29.82633,
        "lon": 52.45052
      },
      "geometry": {
        "type": "Point",
        "coordinates": [52.450518082685733, 29.826327849514996]
      }
    },
    {
      "type": "Feature",
      "properties": {
        "fid": 3971.0,
        "handle": "22147",
        "block": "-1",
        "etype": "25",
        "space": "0",
        "layer": "pelak",
        "olinetype": "bylayer",
        "linetype": null,
        "color": "255,0,0,255",
        "ocolor": "10",
        "color24": "-1",
        "transparen": "0",
        "lweight": "-1",
        "linewidth": 0.0,
        "ltscale": 1.0,
        "visible": "1",
        "thickness": 0.0,
        "ext": "(3:0,0,1)",
        "height": 2.0,
        "text": "486",
        "angle": 315.57668,
        "widthscale": 1.0,
        "oblique": 0.0,
        "style": "Standard",
        "textgen": "0",
        "alignh": "2",
        "alignv": "0",
        "interlin": -1.0,
        "Name": "684",
        "lat": 29.82591,
        "lon": 52.45073
      },
      "geometry": {
        "type": "Point",
        "coordinates": [52.450728832535582, 29.825909731357946]
      }
    },
    {
      "type": "Feature",
      "properties": {
        "fid": 3983.0,
        "handle": "22160",
        "block": "-1",
        "etype": "25",
        "space": "0",
        "layer": "pelak",
        "olinetype": "bylayer",
        "linetype": null,
        "color": "255,0,0,255",
        "ocolor": "10",
        "color24": "-1",
        "transparen": "0",
        "lweight": "-1",
        "linewidth": 0.0,
        "ltscale": 1.0,
        "visible": "1",
        "thickness": 0.0,
        "ext": "(3:0,0,1)",
        "height": 2.0,
        "text": "586",
        "angle": 315.57668,
        "widthscale": 1.0,
        "oblique": 0.0,
        "style": "Standard",
        "textgen": "0",
        "alignh": "2",
        "alignv": "0",
        "interlin": -1.0,
        "Name": "685",
        "lat": 29.82597,
        "lon": 52.45066
      },
      "geometry": {
        "type": "Point",
        "coordinates": [52.450664847293815, 29.825972863609252]
      }
    },
    {
      "type": "Feature",
      "properties": {
        "fid": 3985.0,
        "handle": "22163",
        "block": "-1",
        "etype": "25",
        "space": "0",
        "layer": "pelak",
        "olinetype": "bylayer",
        "linetype": null,
        "color": "255,0,0,255",
        "ocolor": "10",
        "color24": "-1",
        "transparen": "0",
        "lweight": "-1",
        "linewidth": 0.0,
        "ltscale": 1.0,
        "visible": "1",
        "thickness": 0.0,
        "ext": "(3:0,0,1)",
        "height": 2.0,
        "text": "686",
        "angle": 315.57668,
        "widthscale": 1.0,
        "oblique": 0.0,
        "style": "Standard",
        "textgen": "0",
        "alignh": "2",
        "alignv": "0",
        "interlin": -1.0,
        "Name": "686",
        "lat": 29.82604,
        "lon": 52.4506
      },
      "geometry": {
        "type": "Point",
        "coordinates": [52.450600862052262, 29.826035995849438]
      }
    },
    {
      "type": "Feature",
      "properties": {
        "fid": 3987.0,
        "handle": "22166",
        "block": "-1",
        "etype": "25",
        "space": "0",
        "layer": "pelak",
        "olinetype": "bylayer",
        "linetype": null,
        "color": "255,0,0,255",
        "ocolor": "10",
        "color24": "-1",
        "transparen": "0",
        "lweight": "-1",
        "linewidth": 0.0,
        "ltscale": 1.0,
        "visible": "1",
        "thickness": 0.0,
        "ext": "(3:0,0,1)",
        "height": 2.0,
        "text": "786",
        "angle": 315.57668,
        "widthscale": 1.0,
        "oblique": 0.0,
        "style": "Standard",
        "textgen": "0",
        "alignh": "2",
        "alignv": "0",
        "interlin": -1.0,
        "Name": "687",
        "lat": 29.8261,
        "lon": 52.45054
      },
      "geometry": {
        "type": "Point",
        "coordinates": [52.4505405012941, 29.826100027114052]
      }
    },
    {
      "type": "Feature",
      "properties": {
        "fid": 3989.0,
        "handle": "22169",
        "block": "-1",
        "etype": "25",
        "space": "0",
        "layer": "pelak",
        "olinetype": "bylayer",
        "linetype": null,
        "color": "255,0,0,255",
        "ocolor": "10",
        "color24": "-1",
        "transparen": "0",
        "lweight": "-1",
        "linewidth": 0.0,
        "ltscale": 1.0,
        "visible": "1",
        "thickness": 0.0,
        "ext": "(3:0,0,1)",
        "height": 2.0,
        "text": "886",
        "angle": 315.57668,
        "widthscale": 1.0,
        "oblique": 0.0,
        "style": "Standard",
        "textgen": "0",
        "alignh": "2",
        "alignv": "0",
        "interlin": -1.0,
        "Name": "688",
        "lat": 29.82616,
        "lon": 52.45047
      },
      "geometry": {
        "type": "Point",
        "coordinates": [52.45047289156981, 29.826162260296446]
      }
    },
    {
      "type": "Feature",
      "properties": {
        "fid": 4022.0,
        "handle": "22308",
        "block": "-1",
        "etype": "25",
        "space": "0",
        "layer": "pelak",
        "olinetype": "bylayer",
        "linetype": null,
        "color": "255,0,0,255",
        "ocolor": "10",
        "color24": "-1",
        "transparen": "0",
        "lweight": "-1",
        "linewidth": 0.0,
        "ltscale": 1.0,
        "visible": "1",
        "thickness": 0.0,
        "ext": "(3:0,0,1)",
        "height": 1.28,
        "text": "2/386",
        "angle": 315.57668,
        "widthscale": 1.0,
        "oblique": 0.0,
        "style": "Standard",
        "textgen": "0",
        "alignh": "2",
        "alignv": "0",
        "interlin": -1.0,
        "Name": "683/2",
        "lat": 29.82623,
        "lon": 52.45042
      },
      "geometry": {
        "type": "Point",
        "coordinates": [52.450420642698354, 29.826234447054411]
      }
    },
    {
      "type": "Feature",
      "properties": {
        "fid": 4045.0,
        "handle": "22456",
        "block": "-1",
        "etype": "25",
        "space": "0",
        "layer": "pelak",
        "olinetype": "bylayer",
        "linetype": null,
        "color": "255,0,0,255",
        "ocolor": "10",
        "color24": "-1",
        "transparen": "0",
        "lweight": "-1",
        "linewidth": 0.0,
        "ltscale": 1.0,
        "visible": "1",
        "thickness": 0.0,
        "ext": "(3:0,0,1)",
        "height": 2.0,
        "text": "496",
        "angle": 315.57668,
        "widthscale": 1.0,
        "oblique": 0.0,
        "style": "Standard",
        "textgen": "0",
        "alignh": "2",
        "alignv": "0",
        "interlin": -1.0,
        "Name": "694",
        "lat": 29.82574,
        "lon": 52.45122
      },
      "geometry": {
        "type": "Point",
        "coordinates": [52.451222567779986, 29.825739853054312]
      }
    }
  ]
}
