var json__4 = {"type":"FeatureCollection","name":"_4","crs":{"type":"name","properties":{"name":"urn:ogc:def:crs:OGC:1.3:CRS84"}},"features":[{"type":"Feature","properties":{"fid":27.0,"handle":"2841","block":"-1","etype":"25","space":"0","layer":"pelakfaz1","olinetype":"BYLAYER","linetype":null,"color":"byblock","ocolor":"0","color24":"-1","transparen":"0","lweight":"0","linewidth":0.0,"ltscale":1.0,"visible":"1","thickness":0.0,"ext":"(3:0.1014852780926056,-0.0580825163961483,0.9931400503552144)","height":2.4,"text":"20","angle":297.81703,"widthscale":1.0,"oblique":0.0,"style":"STYLE2","textgen":"0","alignh":"0","alignv":"0","interlin":-1.0},"geometry":{"type":"Point","coordinates":[52.434406715335626,29.824247026773222]}},{"type":"Feature","properties":{"fid":28.0,"handle":"2842","block":"-1","etype":"25","space":"0","layer":"pelakfaz1","olinetype":"BYLAYER","linetype":null,"color":"byblock","ocolor":"0","color24":"-1","transparen":"0","lweight":"0","linewidth":0.0,"ltscale":1.0,"visible":"1","thickness":0.0,"ext":"(3:0.1014852780926056,-0.0580825163961483,0.9931400503552144)","height":2.4,"text":"21","angle":297.81703,"widthscale":1.0,"oblique":0.0,"style":"STYLE2","textgen":"0","alignh":"0","alignv":"0","interlin":-1.0},"geometry":{"type":"Point","coordinates":[52.434192354807578,29.82432971768468]}},{"type":"Feature","properties":{"fid":29.0,"handle":"2843","block":"-1","etype":"25","space":"0","layer":"pelakfaz1","olinetype":"BYLAYER","linetype":null,"color":"byblock","ocolor":"0","color24":"-1","transparen":"0","lweight":"0","linewidth":0.0,"ltscale":1.0,"visible":"1","thickness":0.0,"ext":"(3:0.1014852780926056,-0.0580825163961483,0.9931400503552144)","height":2.4,"text":"22","angle":297.81703,"widthscale":1.0,"oblique":0.0,"style":"STYLE2","textgen":"0","alignh":"0","alignv":"0","interlin":-1.0},"geometry":{"type":"Point","coordinates":[52.434005023571913,29.824412385338608]}},{"type":"Feature","properties":{"fid":30.0,"handle":"2844","block":"-1","etype":"25","space":"0","layer":"pelakfaz1","olinetype":"BYLAYER","linetype":null,"color":"byblock","ocolor":"0","color24":"-1","transparen":"0","lweight":"0","linewidth":0.0,"ltscale":1.0,"visible":"1","thickness":0.0,"ext":"(3:0.1014852780926056,-0.0580825163961483,0.9931400503552144)","height":2.4,"text":"23","angle":297.81703,"widthscale":1.0,"oblique":0.0,"style":"STYLE2","textgen":"0","alignh":"0","alignv":"0","interlin":-1.0},"geometry":{"type":"Point","coordinates":[52.433816455615691,29.824505552738731]}},{"type":"Feature","properties":{"fid":31.0,"handle":"2845","block":"-1","etype":"25","space":"0","layer":"pelakfaz1","olinetype":"BYLAYER","linetype":null,"color":"byblock","ocolor":"0","color24":"-1","transparen":"0","lweight":"0","linewidth":0.0,"ltscale":1.0,"visible":"1","thickness":0.0,"ext":"(3:0.1014852780926056,-0.0580825163961483,0.9931400503552144)","height":2.4,"text":"24","angle":297.81703,"widthscale":1.0,"oblique":0.0,"style":"STYLE2","textgen":"0","alignh":"0","alignv":"0","interlin":-1.0},"geometry":{"type":"Point","coordinates":[52.433663651649944,29.82458585447495]}},{"type":"Feature","properties":{"fid":32.0,"handle":"2846","block":"-1","etype":"25","space":"0","layer":"pelakfaz1","olinetype":"BYLAYER","linetype":null,"color":"byblock","ocolor":"0","color24":"-1","transparen":"0","lweight":"0","linewidth":0.0,"ltscale":1.0,"visible":"1","thickness":0.0,"ext":"(3:0.1014852780926056,-0.0580825163961483,0.9931400503552144)","height":2.4,"text":"25","angle":297.81703,"widthscale":1.0,"oblique":0.0,"style":"STYLE2","textgen":"0","alignh":"0","alignv":"0","interlin":-1.0},"geometry":{"type":"Point","coordinates":[52.43344910411362,29.824669054511894]}},{"type":"Feature","properties":{"fid":33.0,"handle":"2847","block":"-1","etype":"25","space":"0","layer":"pelakfaz1","olinetype":"BYLAYER","linetype":null,"color":"byblock","ocolor":"0","color24":"-1","transparen":"0","lweight":"0","linewidth":0.0,"ltscale":1.0,"visible":"1","thickness":0.0,"ext":"(3:0.1014852780926056,-0.0580825163961483,0.9931400503552144)","height":2.4,"text":"16","angle":297.81703,"widthscale":1.0,"oblique":0.0,"style":"STYLE2","textgen":"0","alignh":"0","alignv":"0","interlin":-1.0},"geometry":{"type":"Point","coordinates":[52.433221646513729,29.824241745273266]}},{"type":"Feature","properties":{"fid":34.0,"handle":"2848","block":"-1","etype":"25","space":"0","layer":"pelakfaz1","olinetype":"BYLAYER","linetype":null,"color":"byblock","ocolor":"0","color24":"-1","transparen":"0","lweight":"0","linewidth":0.0,"ltscale":1.0,"visible":"1","thickness":0.0,"ext":"(3:0.1014852780926056,-0.0580825163961483,0.9931400503552144)","height":2.4,"text":"17","angle":297.81703,"widthscale":1.0,"oblique":0.0,"style":"STYLE2","textgen":"0","alignh":"0","alignv":"0","interlin":-1.0},"geometry":{"type":"Point","coordinates":[52.433509440139808,29.824146656602583]}},{"type":"Feature","properties":{"fid":35.0,"handle":"2849","block":"-1","etype":"25","space":"0","layer":"pelakfaz1","olinetype":"BYLAYER","linetype":null,"color":"byblock","ocolor":"0","color24":"-1","transparen":"0","lweight":"0","linewidth":0.0,"ltscale":1.0,"visible":"1","thickness":0.0,"ext":"(3:0.1014852780926056,-0.0580825163961483,0.9931400503552144)","height":2.4,"text":"18","angle":297.81703,"widthscale":1.0,"oblique":0.0,"style":"STYLE2","textgen":"0","alignh":"0","alignv":"0","interlin":-1.0},"geometry":{"type":"Point","coordinates":[52.433850155860235,29.824020524334614]}},{"type":"Feature","properties":{"fid":36.0,"handle":"2850","block":"-1","etype":"25","space":"0","layer":"pelakfaz1","olinetype":"BYLAYER","linetype":null,"color":"byblock","ocolor":"0","color24":"-1","transparen":"0","lweight":"0","linewidth":0.0,"ltscale":1.0,"visible":"1","thickness":0.0,"ext":"(3:0.1014852780926056,-0.0580825163961483,0.9931400503552144)","height":2.4,"text":"19","angle":297.81703,"widthscale":1.0,"oblique":0.0,"style":"STYLE2","textgen":"0","alignh":"0","alignv":"0","interlin":-1.0},"geometry":{"type":"Point","coordinates":[52.43423600228445,29.823864424495966]}},{"type":"Feature","properties":{"fid":37.0,"handle":"2851","block":"-1","etype":"25","space":"0","layer":"pelakfaz1","olinetype":"BYLAYER","linetype":null,"color":"byblock","ocolor":"0","color24":"-1","transparen":"0","lweight":"0","linewidth":0.0,"ltscale":1.0,"visible":"1","thickness":0.0,"ext":"(3:0.1014852780926056,-0.0580825163961483,0.9931400503552144)","height":2.4,"text":"10","angle":297.81703,"widthscale":1.0,"oblique":0.0,"style":"STYLE2","textgen":"0","alignh":"0","alignv":"0","interlin":-1.0},"geometry":{"type":"Point","coordinates":[52.434146798480249,29.823538819267672]}},{"type":"Feature","properties":{"fid":38.0,"handle":"2852","block":"-1","etype":"25","space":"0","layer":"pelakfaz1","olinetype":"BYLAYER","linetype":null,"color":"byblock","ocolor":"0","color24":"-1","transparen":"0","lweight":"0","linewidth":0.0,"ltscale":1.0,"visible":"1","thickness":0.0,"ext":"(3:0.1014852780926056,-0.0580825163961483,0.9931400503552144)","height":2.4,"text":"11","angle":297.81703,"widthscale":1.0,"oblique":0.0,"style":"STYLE2","textgen":"0","alignh":"0","alignv":"0","interlin":-1.0},"geometry":{"type":"Point","coordinates":[52.433846838623232,29.823647443247047]}},{"type":"Feature","properties":{"fid":39.0,"handle":"2853","block":"-1","etype":"25","space":"0","layer":"pelakfaz1","olinetype":"BYLAYER","linetype":null,"color":"byblock","ocolor":"0","color24":"-1","transparen":"0","lweight":"0","linewidth":0.0,"ltscale":1.0,"visible":"1","thickness":0.0,"ext":"(3:0.1014852780926056,-0.0580825163961483,0.9931400503552144)","height":2.4,"text":"12","angle":297.81703,"widthscale":1.0,"oblique":0.0,"style":"STYLE2","textgen":"0","alignh":"0","alignv":"0","interlin":-1.0},"geometry":{"type":"Point","coordinates":[52.433582214842659,29.823764315111113]}},{"type":"Feature","properties":{"fid":40.0,"handle":"2854","block":"-1","etype":"25","space":"0","layer":"pelakfaz1","olinetype":"BYLAYER","linetype":null,"color":"byblock","ocolor":"0","color24":"-1","transparen":"0","lweight":"0","linewidth":0.0,"ltscale":1.0,"visible":"1","thickness":0.0,"ext":"(3:0.1014852780926056,-0.0580825163961483,0.9931400503552144)","height":2.4,"text":"13","angle":297.81703,"widthscale":1.0,"oblique":0.0,"style":"STYLE2","textgen":"0","alignh":"0","alignv":"0","interlin":-1.0},"geometry":{"type":"Point","coordinates":[52.433372438441872,29.823832679997075]}},{"type":"Feature","properties":{"fid":41.0,"handle":"2855","block":"-1","etype":"25","space":"0","layer":"pelakfaz1","olinetype":"BYLAYER","linetype":null,"color":"byblock","ocolor":"0","color24":"-1","transparen":"0","lweight":"0","linewidth":0.0,"ltscale":1.0,"visible":"1","thickness":0.0,"ext":"(3:0.1014852780926056,-0.0580825163961483,0.9931400503552144)","height":2.4,"text":"14","angle":297.81703,"widthscale":1.0,"oblique":0.0,"style":"STYLE2","textgen":"0","alignh":"0","alignv":"0","interlin":-1.0},"geometry":{"type":"Point","coordinates":[52.433155804214955,29.823915355620137]}},{"type":"Feature","properties":{"fid":42.0,"handle":"2856","block":"-1","etype":"25","space":"0","layer":"pelakfaz1","olinetype":"BYLAYER","linetype":null,"color":"byblock","ocolor":"0","color24":"-1","transparen":"0","lweight":"0","linewidth":0.0,"ltscale":1.0,"visible":"1","thickness":0.0,"ext":"(3:0.1014852780926056,-0.0580825163961483,0.9931400503552144)","height":2.4,"text":"15","angle":297.81703,"widthscale":1.0,"oblique":0.0,"style":"STYLE2","textgen":"0","alignh":"0","alignv":"0","interlin":-1.0},"geometry":{"type":"Point","coordinates":[52.432976924345361,29.82396775375523]}},{"type":"Feature","properties":{"fid":43.0,"handle":"2857","block":"-1","etype":"25","space":"0","layer":"pelakfaz1","olinetype":"BYLAYER","linetype":null,"color":"byblock","ocolor":"0","color24":"-1","transparen":"0","lweight":"0","linewidth":0.0,"ltscale":1.0,"visible":"1","thickness":0.0,"ext":"(3:0.1014852780926056,-0.0580825163961483,0.9931400503552144)","height":2.4,"text":"4","angle":297.81703,"widthscale":1.0,"oblique":0.0,"style":"STYLE2","textgen":"0","alignh":"0","alignv":"0","interlin":-1.0},"geometry":{"type":"Point","coordinates":[52.432717573862718,29.823474786095453]}},{"type":"Feature","properties":{"fid":44.0,"handle":"2858","block":"-1","etype":"25","space":"0","layer":"pelakfaz1","olinetype":"BYLAYER","linetype":null,"color":"byblock","ocolor":"0","color24":"-1","transparen":"0","lweight":"0","linewidth":0.0,"ltscale":1.0,"visible":"1","thickness":0.0,"ext":"(3:0.1014852780926056,-0.0580825163961483,0.9931400503552144)","height":2.4,"text":"5","angle":297.81703,"widthscale":1.0,"oblique":0.0,"style":"STYLE2","textgen":"0","alignh":"0","alignv":"0","interlin":-1.0},"geometry":{"type":"Point","coordinates":[52.432939985820504,29.823371524234318]}},{"type":"Feature","properties":{"fid":45.0,"handle":"2859","block":"-1","etype":"25","space":"0","layer":"pelakfaz1","olinetype":"BYLAYER","linetype":null,"color":"byblock","ocolor":"0","color24":"-1","transparen":"0","lweight":"0","linewidth":0.0,"ltscale":1.0,"visible":"1","thickness":0.0,"ext":"(3:0.1014852780926056,-0.0580825163961483,0.9931400503552144)","height":2.4,"text":"6","angle":297.81703,"widthscale":1.0,"oblique":0.0,"style":"STYLE2","textgen":"0","alignh":"0","alignv":"0","interlin":-1.0},"geometry":{"type":"Point","coordinates":[52.43316198199188,29.823306941486905]}},{"type":"Feature","properties":{"fid":46.0,"handle":"2860","block":"-1","etype":"25","space":"0","layer":"pelakfaz1","olinetype":"BYLAYER","linetype":null,"color":"byblock","ocolor":"0","color24":"-1","transparen":"0","lweight":"0","linewidth":0.0,"ltscale":1.0,"visible":"1","thickness":0.0,"ext":"(3:0.1014852780926056,-0.0580825163961483,0.9931400503552144)","height":2.4,"text":"7","angle":297.81703,"widthscale":1.0,"oblique":0.0,"style":"STYLE2","textgen":"0","alignh":"0","alignv":"0","interlin":-1.0},"geometry":{"type":"Point","coordinates":[52.433388974708961,29.823226717795087]}},{"type":"Feature","properties":{"fid":47.0,"handle":"2861","block":"-1","etype":"25","space":"0","layer":"pelakfaz1","olinetype":"BYLAYER","linetype":null,"color":"byblock","ocolor":"0","color24":"-1","transparen":"0","lweight":"0","linewidth":0.0,"ltscale":1.0,"visible":"1","thickness":0.0,"ext":"(3:0.1014852780926056,-0.0580825163961483,0.9931400503552144)","height":2.4,"text":"8","angle":297.81703,"widthscale":1.0,"oblique":0.0,"style":"STYLE2","textgen":"0","alignh":"0","alignv":"0","interlin":-1.0},"geometry":{"type":"Point","coordinates":[52.433624200230064,29.823143227361307]}},{"type":"Feature","properties":{"fid":48.0,"handle":"2862","block":"-1","etype":"25","space":"0","layer":"pelakfaz1","olinetype":"BYLAYER","linetype":null,"color":"byblock","ocolor":"0","color24":"-1","transparen":"0","lweight":"0","linewidth":0.0,"ltscale":1.0,"visible":"1","thickness":0.0,"ext":"(3:0.1014852780926056,-0.0580825163961483,0.9931400503552144)","height":2.4,"text":"9","angle":297.81703,"widthscale":1.0,"oblique":0.0,"style":"STYLE2","textgen":"0","alignh":"0","alignv":"0","interlin":-1.0},"geometry":{"type":"Point","coordinates":[52.433945094031706,29.823052754436496]}},{"type":"Feature","properties":{"fid":49.0,"handle":"2863","block":"-1","etype":"25","space":"0","layer":"pelakfaz1","olinetype":"BYLAYER","linetype":null,"color":"byblock","ocolor":"0","color24":"-1","transparen":"0","lweight":"0","linewidth":0.0,"ltscale":1.0,"visible":"1","thickness":0.0,"ext":"(3:0.1014852780926056,-0.0580825163961483,0.9931400503552144)","height":2.4,"text":"1","angle":297.81703,"widthscale":1.0,"oblique":0.0,"style":"STYLE2","textgen":"0","alignh":"0","alignv":"0","interlin":-1.0},"geometry":{"type":"Point","coordinates":[52.433880753503786,29.822692564007955]}},{"type":"Feature","properties":{"fid":50.0,"handle":"2864","block":"-1","etype":"25","space":"0","layer":"pelakfaz1","olinetype":"BYLAYER","linetype":null,"color":"byblock","ocolor":"0","color24":"-1","transparen":"0","lweight":"0","linewidth":0.0,"ltscale":1.0,"visible":"1","thickness":0.0,"ext":"(3:0.1014852780926056,-0.0580825163961483,0.9931400503552144)","height":2.4,"text":"2","angle":297.81703,"widthscale":1.0,"oblique":0.0,"style":"STYLE2","textgen":"0","alignh":"0","alignv":"0","interlin":-1.0},"geometry":{"type":"Point","coordinates":[52.433657926900985,29.822788279882658]}},{"type":"Feature","properties":{"fid":51.0,"handle":"2865","block":"-1","etype":"25","space":"0","layer":"pelakfaz1","olinetype":"BYLAYER","linetype":null,"color":"byblock","ocolor":"0","color24":"-1","transparen":"0","lweight":"0","linewidth":0.0,"ltscale":1.0,"visible":"1","thickness":0.0,"ext":"(3:0.1014852780926056,-0.0580825163961483,0.9931400503552144)","height":2.4,"text":"3","angle":297.81703,"widthscale":1.0,"oblique":0.0,"style":"STYLE2","textgen":"0","alignh":"0","alignv":"0","interlin":-1.0},"geometry":{"type":"Point","coordinates":[52.433384631569382,29.822932142494697]}},{"type":"Feature","properties":{"fid":85.0,"handle":"3245","block":"-1","etype":"25","space":"0","layer":"pelakfaz1","olinetype":"BYLAYER","linetype":null,"color":"byblock","ocolor":"0","color24":"-1","transparen":"0","lweight":"0","linewidth":0.0,"ltscale":1.0,"visible":"1","thickness":0.0,"ext":"(3:0.1014852780926056,-0.0580825163961483,0.9931400503552144)","height":2.4,"text":"33","angle":297.81703,"widthscale":1.0,"oblique":0.0,"style":"STYLE2","textgen":"0","alignh":"0","alignv":"0","interlin":-1.0},"geometry":{"type":"Point","coordinates":[52.434648289137336,29.824815368211144]}},{"type":"Feature","properties":{"fid":86.0,"handle":"3248","block":"-1","etype":"25","space":"0","layer":"pelakfaz1","olinetype":"BYLAYER","linetype":null,"color":"byblock","ocolor":"0","color24":"-1","transparen":"0","lweight":"0","linewidth":0.0,"ltscale":1.0,"visible":"1","thickness":0.0,"ext":"(3:0.1014852780926056,-0.0580825163961483,0.9931400503552144)","height":2.4,"text":"34","angle":297.81703,"widthscale":1.0,"oblique":0.0,"style":"STYLE2","textgen":"0","alignh":"0","alignv":"0","interlin":-1.0},"geometry":{"type":"Point","coordinates":[52.434483677269725,29.824955898831121]}},{"type":"Feature","properties":{"fid":87.0,"handle":"3251","block":"-1","etype":"25","space":"0","layer":"pelakfaz1","olinetype":"BYLAYER","linetype":null,"color":"byblock","ocolor":"0","color24":"-1","transparen":"0","lweight":"0","linewidth":0.0,"ltscale":1.0,"visible":"1","thickness":0.0,"ext":"(3:0.1014852780926056,-0.0580825163961483,0.9931400503552144)","height":2.4,"text":"35","angle":297.81703,"widthscale":1.0,"oblique":0.0,"style":"STYLE2","textgen":"0","alignh":"0","alignv":"0","interlin":-1.0},"geometry":{"type":"Point","coordinates":[52.434290738418504,29.825083037296313]}},{"type":"Feature","properties":{"fid":88.0,"handle":"3254","block":"-1","etype":"25","space":"0","layer":"pelakfaz1","olinetype":"BYLAYER","linetype":null,"color":"byblock","ocolor":"0","color24":"-1","transparen":"0","lweight":"0","linewidth":0.0,"ltscale":1.0,"visible":"1","thickness":0.0,"ext":"(3:0.1014852780926056,-0.0580825163961483,0.9931400503552144)","height":2.4,"text":"36","angle":297.81703,"widthscale":1.0,"oblique":0.0,"style":"STYLE2","textgen":"0","alignh":"0","alignv":"0","interlin":-1.0},"geometry":{"type":"Point","coordinates":[52.434113755674915,29.82521048560335]}},{"type":"Feature","properties":{"fid":89.0,"handle":"3257","block":"-1","etype":"25","space":"0","layer":"pelakfaz1","olinetype":"BYLAYER","linetype":null,"color":"byblock","ocolor":"0","color24":"-1","transparen":"0","lweight":"0","linewidth":0.0,"ltscale":1.0,"visible":"1","thickness":0.0,"ext":"(3:0.1014852780926056,-0.0580825163961483,0.9931400503552144)","height":2.4,"text":"37","angle":297.81703,"widthscale":1.0,"oblique":0.0,"style":"STYLE2","textgen":"0","alignh":"0","alignv":"0","interlin":-1.0},"geometry":{"type":"Point","coordinates":[52.433860664622578,29.825376759318893]}},{"type":"Feature","properties":{"fid":90.0,"handle":"3260","block":"-1","etype":"25","space":"0","layer":"pelakfaz1","olinetype":"BYLAYER","linetype":null,"color":"byblock","ocolor":"0","color24":"-1","transparen":"0","lweight":"0","linewidth":0.0,"ltscale":1.0,"visible":"1","thickness":0.0,"ext":"(3:0.1014852780926056,-0.0580825163961483,0.9931400503552144)","height":2.4,"text":"38","angle":297.81703,"widthscale":1.0,"oblique":0.0,"style":"STYLE2","textgen":"0","alignh":"0","alignv":"0","interlin":-1.0},"geometry":{"type":"Point","coordinates":[52.434125410474515,29.825882102466444]}},{"type":"Feature","properties":{"fid":91.0,"handle":"3263","block":"-1","etype":"25","space":"0","layer":"pelakfaz1","olinetype":"BYLAYER","linetype":null,"color":"byblock","ocolor":"0","color24":"-1","transparen":"0","lweight":"0","linewidth":0.0,"ltscale":1.0,"visible":"1","thickness":0.0,"ext":"(3:0.1014852780926056,-0.0580825163961483,0.9931400503552144)","height":2.4,"text":"39","angle":297.81703,"widthscale":1.0,"oblique":0.0,"style":"STYLE2","textgen":"0","alignh":"0","alignv":"0","interlin":-1.0},"geometry":{"type":"Point","coordinates":[52.434268409350615,29.825790962039168]}},{"type":"Feature","properties":{"fid":92.0,"handle":"3266","block":"-1","etype":"25","space":"0","layer":"pelakfaz1","olinetype":"BYLAYER","linetype":null,"color":"byblock","ocolor":"0","color24":"-1","transparen":"0","lweight":"0","linewidth":0.0,"ltscale":1.0,"visible":"1","thickness":0.0,"ext":"(3:0.1014852780926056,-0.0580825163961483,0.9931400503552144)","height":2.4,"text":"40","angle":297.81703,"widthscale":1.0,"oblique":0.0,"style":"STYLE2","textgen":"0","alignh":"0","alignv":"0","interlin":-1.0},"geometry":{"type":"Point","coordinates":[52.434423101687145,29.825695868279936]}},{"type":"Feature","properties":{"fid":93.0,"handle":"3269","block":"-1","etype":"25","space":"0","layer":"pelakfaz1","olinetype":"BYLAYER","linetype":null,"color":"byblock","ocolor":"0","color24":"-1","transparen":"0","lweight":"0","linewidth":0.0,"ltscale":1.0,"visible":"1","thickness":0.0,"ext":"(3:0.1014852780926056,-0.0580825163961483,0.9931400503552144)","height":2.4,"text":"41","angle":297.81703,"widthscale":1.0,"oblique":0.0,"style":"STYLE2","textgen":"0","alignh":"0","alignv":"0","interlin":-1.0},"geometry":{"type":"Point","coordinates":[52.434572857170515,29.825602081852278]}},{"type":"Feature","properties":{"fid":94.0,"handle":"3272","block":"-1","etype":"25","space":"0","layer":"pelakfaz1","olinetype":"BYLAYER","linetype":null,"color":"byblock","ocolor":"0","color24":"-1","transparen":"0","lweight":"0","linewidth":0.0,"ltscale":1.0,"visible":"1","thickness":0.0,"ext":"(3:0.1014852780926056,-0.0580825163961483,0.9931400503552144)","height":2.4,"text":"42","angle":297.81703,"widthscale":1.0,"oblique":0.0,"style":"STYLE2","textgen":"0","alignh":"0","alignv":"0","interlin":-1.0},"geometry":{"type":"Point","coordinates":[52.43472981216226,29.82552040026934]}},{"type":"Feature","properties":{"fid":95.0,"handle":"3275","block":"-1","etype":"25","space":"0","layer":"pelakfaz1","olinetype":"BYLAYER","linetype":null,"color":"byblock","ocolor":"0","color24":"-1","transparen":"0","lweight":"0","linewidth":0.0,"ltscale":1.0,"visible":"1","thickness":0.0,"ext":"(3:0.1014852780926056,-0.0580825163961483,0.9931400503552144)","height":2.4,"text":"43","angle":297.81703,"widthscale":1.0,"oblique":0.0,"style":"STYLE2","textgen":"0","alignh":"0","alignv":"0","interlin":-1.0},"geometry":{"type":"Point","coordinates":[52.434875569829941,29.825424464419935]}},{"type":"Feature","properties":{"fid":96.0,"handle":"3278","block":"-1","etype":"25","space":"0","layer":"pelakfaz1","olinetype":"BYLAYER","linetype":null,"color":"byblock","ocolor":"0","color24":"-1","transparen":"0","lweight":"0","linewidth":0.0,"ltscale":1.0,"visible":"1","thickness":0.0,"ext":"(3:0.1014852780926056,-0.0580825163961483,0.9931400503552144)","height":2.4,"text":"44","angle":297.81703,"widthscale":1.0,"oblique":0.0,"style":"STYLE2","textgen":"0","alignh":"0","alignv":"0","interlin":-1.0},"geometry":{"type":"Point","coordinates":[52.435032638071888,29.825334477757181]}},{"type":"Feature","properties":{"fid":97.0,"handle":"3281","block":"-1","etype":"25","space":"0","layer":"pelakfaz1","olinetype":"BYLAYER","linetype":null,"color":"byblock","ocolor":"0","color24":"-1","transparen":"0","lweight":"0","linewidth":0.0,"ltscale":1.0,"visible":"1","thickness":0.0,"ext":"(3:0.1014852780926056,-0.0580825163961483,0.9931400503552144)","height":2.4,"text":"45","angle":297.81703,"widthscale":1.0,"oblique":0.0,"style":"STYLE2","textgen":"0","alignh":"0","alignv":"0","interlin":-1.0},"geometry":{"type":"Point","coordinates":[52.435255315997715,29.825711468689374]}},{"type":"Feature","properties":{"fid":98.0,"handle":"3284","block":"-1","etype":"25","space":"0","layer":"pelakfaz1","olinetype":"BYLAYER","linetype":null,"color":"byblock","ocolor":"0","color24":"-1","transparen":"0","lweight":"0","linewidth":0.0,"ltscale":1.0,"visible":"1","thickness":0.0,"ext":"(3:0.1014852780926056,-0.0580825163961483,0.9931400503552144)","height":2.4,"text":"46","angle":297.81703,"widthscale":1.0,"oblique":0.0,"style":"STYLE2","textgen":"0","alignh":"0","alignv":"0","interlin":-1.0},"geometry":{"type":"Point","coordinates":[52.435132858830571,29.825801694362006]}},{"type":"Feature","properties":{"fid":99.0,"handle":"3287","block":"-1","etype":"25","space":"0","layer":"pelakfaz1","olinetype":"BYLAYER","linetype":null,"color":"byblock","ocolor":"0","color24":"-1","transparen":"0","lweight":"0","linewidth":0.0,"ltscale":1.0,"visible":"1","thickness":0.0,"ext":"(3:0.1014852780926056,-0.0580825163961483,0.9931400503552144)","height":2.4,"text":"47","angle":297.81703,"widthscale":1.0,"oblique":0.0,"style":"STYLE2","textgen":"0","alignh":"0","alignv":"0","interlin":-1.0},"geometry":{"type":"Point","coordinates":[52.434983059278359,29.825899826829026]}},{"type":"Feature","properties":{"fid":100.0,"handle":"3290","block":"-1","etype":"25","space":"0","layer":"pelakfaz1","olinetype":"BYLAYER","linetype":null,"color":"byblock","ocolor":"0","color24":"-1","transparen":"0","lweight":"0","linewidth":0.0,"ltscale":1.0,"visible":"1","thickness":0.0,"ext":"(3:0.1014852780926056,-0.0580825163961483,0.9931400503552144)","height":2.4,"text":"48","angle":297.81703,"widthscale":1.0,"oblique":0.0,"style":"STYLE2","textgen":"0","alignh":"0","alignv":"0","interlin":-1.0},"geometry":{"type":"Point","coordinates":[52.434830658047574,29.825999112102629]}},{"type":"Feature","properties":{"fid":101.0,"handle":"3293","block":"-1","etype":"25","space":"0","layer":"pelakfaz1","olinetype":"BYLAYER","linetype":null,"color":"byblock","ocolor":"0","color24":"-1","transparen":"0","lweight":"0","linewidth":0.0,"ltscale":1.0,"visible":"1","thickness":0.0,"ext":"(3:0.1014852780926056,-0.0580825163961483,0.9931400503552144)","height":2.4,"text":"49","angle":297.81703,"widthscale":1.0,"oblique":0.0,"style":"STYLE2","textgen":"0","alignh":"0","alignv":"0","interlin":-1.0},"geometry":{"type":"Point","coordinates":[52.434693045424019,29.826097772893437]}},{"type":"Feature","properties":{"fid":102.0,"handle":"3296","block":"-1","etype":"25","space":"0","layer":"pelakfaz1","olinetype":"BYLAYER","linetype":null,"color":"byblock","ocolor":"0","color24":"-1","transparen":"0","lweight":"0","linewidth":0.0,"ltscale":1.0,"visible":"1","thickness":0.0,"ext":"(3:0.1014852780926056,-0.0580825163961483,0.9931400503552144)","height":2.4,"text":"50","angle":297.81703,"widthscale":1.0,"oblique":0.0,"style":"STYLE2","textgen":"0","alignh":"0","alignv":"0","interlin":-1.0},"geometry":{"type":"Point","coordinates":[52.434540554974902,29.826200309591723]}},{"type":"Feature","properties":{"fid":103.0,"handle":"3299","block":"-1","etype":"25","space":"0","layer":"pelakfaz1","olinetype":"BYLAYER","linetype":null,"color":"byblock","ocolor":"0","color24":"-1","transparen":"0","lweight":"0","linewidth":0.0,"ltscale":1.0,"visible":"1","thickness":0.0,"ext":"(3:0.1014852780926056,-0.0580825163961483,0.9931400503552144)","height":2.4,"text":"51","angle":297.81703,"widthscale":1.0,"oblique":0.0,"style":"STYLE2","textgen":"0","alignh":"0","alignv":"0","interlin":-1.0},"geometry":{"type":"Point","coordinates":[52.434399295547038,29.826296286280638]}},{"type":"Feature","properties":{"fid":104.0,"handle":"3302","block":"-1","etype":"25","space":"0","layer":"pelakfaz1","olinetype":"BYLAYER","linetype":null,"color":"byblock","ocolor":"0","color24":"-1","transparen":"0","lweight":"0","linewidth":0.0,"ltscale":1.0,"visible":"1","thickness":0.0,"ext":"(3:0.1014852780926056,-0.0580825163961483,0.9931400503552144)","height":2.4,"text":"58","angle":297.81703,"widthscale":1.0,"oblique":0.0,"style":"STYLE2","textgen":"0","alignh":"0","alignv":"0","interlin":-1.0},"geometry":{"type":"Point","coordinates":[52.435644308690442,29.826063933261267]}},{"type":"Feature","properties":{"fid":105.0,"handle":"3305","block":"-1","etype":"25","space":"0","layer":"pelakfaz1","olinetype":"BYLAYER","linetype":null,"color":"byblock","ocolor":"0","color24":"-1","transparen":"0","lweight":"0","linewidth":0.0,"ltscale":1.0,"visible":"1","thickness":0.0,"ext":"(3:0.1014852780926056,-0.0580825163961483,0.9931400503552144)","height":2.4,"text":"57","angle":297.81703,"widthscale":1.0,"oblique":0.0,"style":"STYLE2","textgen":"0","alignh":"0","alignv":"0","interlin":-1.0},"geometry":{"type":"Point","coordinates":[52.435499854709221,29.826182565847763]}},{"type":"Feature","properties":{"fid":106.0,"handle":"3308","block":"-1","etype":"25","space":"0","layer":"pelakfaz1","olinetype":"BYLAYER","linetype":null,"color":"byblock","ocolor":"0","color24":"-1","transparen":"0","lweight":"0","linewidth":0.0,"ltscale":1.0,"visible":"1","thickness":0.0,"ext":"(3:0.1014852780926056,-0.0580825163961483,0.9931400503552144)","height":2.4,"text":"56","angle":297.81703,"widthscale":1.0,"oblique":0.0,"style":"STYLE2","textgen":"0","alignh":"0","alignv":"0","interlin":-1.0},"geometry":{"type":"Point","coordinates":[52.435288821614442,29.82627276405216]}},{"type":"Feature","properties":{"fid":107.0,"handle":"3311","block":"-1","etype":"25","space":"0","layer":"pelakfaz1","olinetype":"BYLAYER","linetype":null,"color":"byblock","ocolor":"0","color24":"-1","transparen":"0","lweight":"0","linewidth":0.0,"ltscale":1.0,"visible":"1","thickness":0.0,"ext":"(3:0.1014852780926056,-0.0580825163961483,0.9931400503552144)","height":2.4,"text":"55","angle":297.81703,"widthscale":1.0,"oblique":0.0,"style":"STYLE2","textgen":"0","alignh":"0","alignv":"0","interlin":-1.0},"geometry":{"type":"Point","coordinates":[52.435143263743903,29.826359336166664]}},{"type":"Feature","properties":{"fid":108.0,"handle":"3314","block":"-1","etype":"25","space":"0","layer":"pelakfaz1","olinetype":"BYLAYER","linetype":null,"color":"byblock","ocolor":"0","color24":"-1","transparen":"0","lweight":"0","linewidth":0.0,"ltscale":1.0,"visible":"1","thickness":0.0,"ext":"(3:0.1014852780926056,-0.0580825163961483,0.9931400503552144)","height":2.4,"text":"54","angle":297.81703,"widthscale":1.0,"oblique":0.0,"style":"STYLE2","textgen":"0","alignh":"0","alignv":"0","interlin":-1.0},"geometry":{"type":"Point","coordinates":[52.434978301352736,29.826447479948634]}},{"type":"Feature","properties":{"fid":109.0,"handle":"3317","block":"-1","etype":"25","space":"0","layer":"pelakfaz1","olinetype":"BYLAYER","linetype":null,"color":"byblock","ocolor":"0","color24":"-1","transparen":"0","lweight":"0","linewidth":0.0,"ltscale":1.0,"visible":"1","thickness":0.0,"ext":"(3:0.1014852780926056,-0.0580825163961483,0.9931400503552144)","height":2.4,"text":"53","angle":297.81703,"widthscale":1.0,"oblique":0.0,"style":"STYLE2","textgen":"0","alignh":"0","alignv":"0","interlin":-1.0},"geometry":{"type":"Point","coordinates":[52.434821574940266,29.826526574638113]}},{"type":"Feature","properties":{"fid":110.0,"handle":"3320","block":"-1","etype":"25","space":"0","layer":"pelakfaz1","olinetype":"BYLAYER","linetype":null,"color":"byblock","ocolor":"0","color24":"-1","transparen":"0","lweight":"0","linewidth":0.0,"ltscale":1.0,"visible":"1","thickness":0.0,"ext":"(3:0.1014852780926056,-0.0580825163961483,0.9931400503552144)","height":2.4,"text":"52","angle":297.81703,"widthscale":1.0,"oblique":0.0,"style":"STYLE2","textgen":"0","alignh":"0","alignv":"0","interlin":-1.0},"geometry":{"type":"Point","coordinates":[52.434611825609224,29.826618999429478]}},{"type":"Feature","properties":{"fid":111.0,"handle":"3323","block":"-1","etype":"25","space":"0","layer":"pelakfaz1","olinetype":"BYLAYER","linetype":null,"color":"byblock","ocolor":"0","color24":"-1","transparen":"0","lweight":"0","linewidth":0.0,"ltscale":1.0,"visible":"1","thickness":0.0,"ext":"(3:0.1014852780926056,-0.0580825163961483,0.9931400503552144)","height":2.4,"text":"31","angle":297.81703,"widthscale":1.0,"oblique":0.0,"style":"STYLE2","textgen":"0","alignh":"0","alignv":"0","interlin":-1.0},"geometry":{"type":"Point","coordinates":[52.434528753129221,29.824598117178738]}},{"type":"Feature","properties":{"fid":112.0,"handle":"3326","block":"-1","etype":"25","space":"0","layer":"pelakfaz1","olinetype":"BYLAYER","linetype":null,"color":"byblock","ocolor":"0","color24":"-1","transparen":"0","lweight":"0","linewidth":0.0,"ltscale":1.0,"visible":"1","thickness":0.0,"ext":"(3:0.1014852780926056,-0.0580825163961483,0.9931400503552144)","height":2.4,"text":"30","angle":297.81703,"widthscale":1.0,"oblique":0.0,"style":"STYLE2","textgen":"0","alignh":"0","alignv":"0","interlin":-1.0},"geometry":{"type":"Point","coordinates":[52.434324191577424,29.824716723693268]}},{"type":"Feature","properties":{"fid":113.0,"handle":"3329","block":"-1","etype":"25","space":"0","layer":"pelakfaz1","olinetype":"BYLAYER","linetype":null,"color":"byblock","ocolor":"0","color24":"-1","transparen":"0","lweight":"0","linewidth":0.0,"ltscale":1.0,"visible":"1","thickness":0.0,"ext":"(3:0.1014852780926056,-0.0580825163961483,0.9931400503552144)","height":2.4,"text":"29","angle":297.81703,"widthscale":1.0,"oblique":0.0,"style":"STYLE2","textgen":"0","alignh":"0","alignv":"0","interlin":-1.0},"geometry":{"type":"Point","coordinates":[52.434142462758246,29.824839948016088]}},{"type":"Feature","properties":{"fid":115.0,"handle":"3335","block":"-1","etype":"25","space":"0","layer":"pelakfaz1","olinetype":"BYLAYER","linetype":null,"color":"byblock","ocolor":"0","color24":"-1","transparen":"0","lweight":"0","linewidth":0.0,"ltscale":1.0,"visible":"1","thickness":0.0,"ext":"(3:0.1014852780926056,-0.0580825163961483,0.9931400503552144)","height":2.4,"text":"27","angle":297.81703,"widthscale":1.0,"oblique":0.0,"style":"STYLE2","textgen":"0","alignh":"0","alignv":"0","interlin":-1.0},"geometry":{"type":"Point","coordinates":[52.433784421662082,29.825048235939494]}},{"type":"Feature","properties":{"fid":116.0,"handle":"3338","block":"-1","etype":"25","space":"0","layer":"pelakfaz1","olinetype":"BYLAYER","linetype":null,"color":"byblock","ocolor":"0","color24":"-1","transparen":"0","lweight":"0","linewidth":0.0,"ltscale":1.0,"visible":"1","thickness":0.0,"ext":"(3:0.1014852780926056,-0.0580825163961483,0.9931400503552144)","height":2.4,"text":"26","angle":297.81703,"widthscale":1.0,"oblique":0.0,"style":"STYLE2","textgen":"0","alignh":"0","alignv":"0","interlin":-1.0},"geometry":{"type":"Point","coordinates":[52.433625743099597,29.825149340784996]}},{"type":"Feature","properties":{"fid":281.0,"handle":"3332","block":"-1","etype":"25","space":"0","layer":"Masahat","olinetype":"BYLAYER","linetype":null,"color":"byblock","ocolor":"0","color24":"-1","transparen":"0","lweight":"0","linewidth":0.0,"ltscale":1.0,"visible":"1","thickness":0.0,"ext":"(3:0.1014852780926056,-0.0580825163961483,0.9931400503552144)","height":2.4,"text":"28","angle":297.81703,"widthscale":1.0,"oblique":0.0,"style":"STYLE2","textgen":"0","alignh":"0","alignv":"0","interlin":-1.0},"geometry":{"type":"Point","coordinates":[52.433936723745866,29.824961059435292]}}]}