var json_1_3 = {"type":"FeatureCollection","name":"1_3","crs":{"type":"name","properties":{"name":"urn:ogc:def:crs:OGC:1.3:CRS84"}},"features":[{"type":"Feature","properties":{"fid":2.0,"handle":"2992","block":"-1","etype":"18","space":"0","layer":"dadgostarifaz1","olinetype":"Continuous","linetype":null,"color":"0,0,0,254","ocolor":"256","color24":"-1","transparen":"0","lweight":"30","linewidth":0.3,"ltscale":1.0,"visible":"1","width":0.0,"thickness":0.0,"ext":"(3:0.1014852780926056,-0.0580825163961483,0.9931400503552144)"},"geometry":{"type":"MultiLineString","coordinates":[[[52.434604878856874,29.826819356216834],[52.43586720393418,29.82625408074102]]]}},{"type":"Feature","properties":{"fid":3.0,"handle":"6036","block":"-1","etype":"18","space":"0","layer":"dadgostarifaz1","olinetype":"BYLAYER","linetype":null,"color":"0,0,0,255","ocolor":"7","color24":"-1","transparen":"0","lweight":"0","linewidth":0.0,"ltscale":1.0,"visible":"1","width":0.0,"thickness":0.0,"ext":"(3:0.1014852780926056,-0.0580825163961483,0.9931400503552144)"},"geometry":{"type":"MultiLineString","coordinates":[[[52.43389775697495,29.825076661309318],[52.43404942555339,29.825310882704446]]]}},{"type":"Feature","properties":{"fid":4.0,"handle":"6037","block":"-1","etype":"18","space":"0","layer":"dadgostarifaz1","olinetype":"BYLAYER","linetype":null,"color":"0,0,0,255","ocolor":"7","color24":"-1","transparen":"0","lweight":"0","linewidth":0.0,"ltscale":1.0,"visible":"1","width":0.0,"thickness":0.0,"ext":"(3:0.1014852780926056,-0.0580825163961483,0.9931400503552144)"},"geometry":{"type":"MultiLineString","coordinates":[[[52.434091454881838,29.824949314412294],[52.434243123541322,29.825183535843276]]]}},{"type":"Feature","properties":{"fid":5.0,"handle":"6038","block":"-1","etype":"18","space":"0","layer":"dadgostarifaz1","olinetype":"BYLAYER","linetype":null,"color":"0,0,0,255","ocolor":"7","color24":"-1","transparen":"0","lweight":"0","linewidth":0.0,"ltscale":1.0,"visible":"1","width":0.0,"thickness":0.0,"ext":"(3:0.1014852780926056,-0.0580825163961483,0.9931400503552144)"},"geometry":{"type":"MultiLineString","coordinates":[[[52.433569578492111,29.824848704672071],[52.433771108359537,29.825159926551375]]]}},{"type":"Feature","properties":{"fid":6.0,"handle":"6039","block":"-1","etype":"18","space":"0","layer":"dadgostarifaz1","olinetype":"BYLAYER","linetype":null,"color":"0,0,0,255","ocolor":"7","color24":"-1","transparen":"0","lweight":"0","linewidth":0.0,"ltscale":1.0,"visible":"1","width":0.0,"thickness":0.0,"ext":"(3:0.1014852780926056,-0.0580825163961483,0.9931400503552144)"},"geometry":{"type":"MultiLineString","coordinates":[[[52.433745224883793,29.824759092409565],[52.433935006570138,29.825052171526718]]]}},{"type":"Feature","properties":{"fid":7.0,"handle":"6040","block":"-1","etype":"18","space":"0","layer":"dadgostarifaz1","olinetype":"BYLAYER","linetype":null,"color":"0,0,0,255","ocolor":"7","color24":"-1","transparen":"0","lweight":"0","linewidth":0.0,"ltscale":1.0,"visible":"1","width":0.0,"thickness":0.0,"ext":"(3:0.1014852780926056,-0.0580825163961483,0.9931400503552144)"},"geometry":{"type":"MultiLineString","coordinates":[[[52.433928855236118,29.824665406816006],[52.434106354722054,29.824939518494322]]]}},{"type":"Feature","properties":{"fid":8.0,"handle":"6041","block":"-1","etype":"18","space":"0","layer":"dadgostarifaz1","olinetype":"BYLAYER","linetype":null,"color":"0,0,0,255","ocolor":"7","color24":"-1","transparen":"0","lweight":"0","linewidth":0.0,"ltscale":1.0,"visible":"1","width":0.0,"thickness":0.0,"ext":"(3:0.1014852780926056,-0.0580825163961483,0.9931400503552144)"},"geometry":{"type":"MultiLineString","coordinates":[[[52.434120469553569,29.824567647885178],[52.434436821558819,29.825056188914093]]]}},{"type":"Feature","properties":{"fid":9.0,"handle":"6042","block":"-1","etype":"18","space":"0","layer":"dadgostarifaz1","olinetype":"BYLAYER","linetype":null,"color":"0,0,0,255","ocolor":"7","color24":"-1","transparen":"0","lweight":"0","linewidth":0.0,"ltscale":1.0,"visible":"1","width":0.0,"thickness":0.0,"ext":"(3:0.1014852780926056,-0.0580825163961483,0.9931400503552144)"},"geometry":{"type":"MultiLineString","coordinates":[[[52.434328051773178,29.824461742318491],[52.434630519605896,29.824928841916893]]]}},{"type":"Feature","properties":{"fid":10.0,"handle":"6043","block":"-1","etype":"18","space":"0","layer":"dadgostarifaz1","olinetype":"BYLAYER","linetype":null,"color":"0,0,0,255","ocolor":"7","color24":"-1","transparen":"0","lweight":"0","linewidth":0.0,"ltscale":1.0,"visible":"1","width":0.0,"thickness":0.0,"ext":"(3:0.1014852780926056,-0.0580825163961483,0.9931400503552144)"},"geometry":{"type":"MultiLineString","coordinates":[[[52.434857909030477,29.825131811514058],[52.435292177754356,29.825948353959117]]]}},{"type":"Feature","properties":{"fid":11.0,"handle":"6044","block":"-1","etype":"18","space":"0","layer":"dadgostarifaz1","olinetype":"BYLAYER","linetype":null,"color":"0,0,0,255","ocolor":"7","color24":"-1","transparen":"0","lweight":"0","linewidth":0.0,"ltscale":1.0,"visible":"1","width":0.0,"thickness":0.0,"ext":"(3:0.1014852780926056,-0.0580825163961483,0.9931400503552144)"},"geometry":{"type":"MultiLineString","coordinates":[[[52.43547216935557,29.825919190242711],[52.435710315817751,29.826324336084884]]]}},{"type":"Feature","properties":{"fid":12.0,"handle":"6045","block":"-1","etype":"18","space":"0","layer":"dadgostarifaz1","olinetype":"BYLAYER","linetype":null,"color":"0,0,0,255","ocolor":"7","color24":"-1","transparen":"0","lweight":"0","linewidth":0.0,"ltscale":1.0,"visible":"1","width":0.0,"thickness":0.0,"ext":"(3:0.1014852780926056,-0.0580825163961483,0.9931400503552144)"},"geometry":{"type":"MultiLineString","coordinates":[[[52.434696753266017,29.825218962362161],[52.435131021791911,29.826035504698442]]]}},{"type":"Feature","properties":{"fid":13.0,"handle":"6046","block":"-1","etype":"18","space":"0","layer":"dadgostarifaz1","olinetype":"BYLAYER","linetype":null,"color":"0,0,0,255","ocolor":"7","color24":"-1","transparen":"0","lweight":"0","linewidth":0.0,"ltscale":1.0,"visible":"1","width":0.0,"thickness":0.0,"ext":"(3:0.1014852780926056,-0.0580825163961483,0.9931400503552144)"},"geometry":{"type":"MultiLineString","coordinates":[[[52.435297194076696,29.82602368417098],[52.435523177414545,29.826408137647309]]]}},{"type":"Feature","properties":{"fid":14.0,"handle":"6047","block":"-1","etype":"18","space":"0","layer":"dadgostarifaz1","olinetype":"BYLAYER","linetype":null,"color":"0,0,0,255","ocolor":"7","color24":"-1","transparen":"0","lweight":"0","linewidth":0.0,"ltscale":1.0,"visible":"1","width":0.0,"thickness":0.0,"ext":"(3:0.1014852780926056,-0.0580825163961483,0.9931400503552144)"},"geometry":{"type":"MultiLineString","coordinates":[[[52.434535597523052,29.825306113170608],[52.434969865850917,29.82612265539812]]]}},{"type":"Feature","properties":{"fid":15.0,"handle":"6048","block":"-1","etype":"18","space":"0","layer":"dadgostarifaz1","olinetype":"BYLAYER","linetype":null,"color":"0,0,0,255","ocolor":"7","color24":"-1","transparen":"0","lweight":"0","linewidth":0.0,"ltscale":1.0,"visible":"1","width":0.0,"thickness":0.0,"ext":"(3:0.1014852780926056,-0.0580825163961483,0.9931400503552144)"},"geometry":{"type":"MultiLineString","coordinates":[[[52.435122218819757,29.826128178054159],[52.435336039043499,29.826491939170477]]]}},{"type":"Feature","properties":{"fid":16.0,"handle":"6049","block":"-1","etype":"18","space":"0","layer":"dadgostarifaz1","olinetype":"BYLAYER","linetype":null,"color":"0,0,0,255","ocolor":"7","color24":"-1","transparen":"0","lweight":"0","linewidth":0.0,"ltscale":1.0,"visible":"1","width":0.0,"thickness":0.0,"ext":"(3:0.1014852780926056,-0.0580825163961483,0.9931400503552144)"},"geometry":{"type":"MultiLineString","coordinates":[[[52.434374441801531,29.8253932639394],[52.434808709931374,29.826209806058142]]]}},{"type":"Feature","properties":{"fid":17.0,"handle":"6050","block":"-1","etype":"18","space":"0","layer":"dadgostarifaz1","olinetype":"BYLAYER","linetype":null,"color":"0,0,0,255","ocolor":"7","color24":"-1","transparen":"0","lweight":"0","linewidth":0.0,"ltscale":1.0,"visible":"1","width":0.0,"thickness":0.0,"ext":"(3:0.1014852780926056,-0.0580825163961483,0.9931400503552144)"},"geometry":{"type":"MultiLineString","coordinates":[[[52.434947243584787,29.826232671892239],[52.435148900704611,29.826575740654366]]]}},{"type":"Feature","properties":{"fid":18.0,"handle":"6051","block":"-1","etype":"18","space":"0","layer":"dadgostarifaz1","olinetype":"BYLAYER","linetype":null,"color":"0,0,0,255","ocolor":"7","color24":"-1","transparen":"0","lweight":"0","linewidth":0.0,"ltscale":1.0,"visible":"1","width":0.0,"thickness":0.0,"ext":"(3:0.1014852780926056,-0.0580825163961483,0.9931400503552144)"},"geometry":{"type":"MultiLineString","coordinates":[[[52.434213286101468,29.82548041466853],[52.434647554033276,29.826296956678515]]]}},{"type":"Feature","properties":{"fid":19.0,"handle":"6052","block":"-1","etype":"18","space":"0","layer":"dadgostarifaz1","olinetype":"BYLAYER","linetype":null,"color":"0,0,0,255","ocolor":"7","color24":"-1","transparen":"0","lweight":"0","linewidth":0.0,"ltscale":1.0,"visible":"1","width":0.0,"thickness":0.0,"ext":"(3:0.1014852780926056,-0.0580825163961483,0.9931400503552144)"},"geometry":{"type":"MultiLineString","coordinates":[[[52.434772268371781,29.826337165685235],[52.434961762397897,29.826659542098998]]]}},{"type":"Feature","properties":{"fid":20.0,"handle":"6053","block":"-1","etype":"18","space":"0","layer":"dadgostarifaz1","olinetype":"BYLAYER","linetype":null,"color":"0,0,0,255","ocolor":"7","color24":"-1","transparen":"0","lweight":"0","linewidth":0.0,"ltscale":1.0,"visible":"1","width":0.0,"thickness":0.0,"ext":"(3:0.1014852780926056,-0.0580825163961483,0.9931400503552144)"},"geometry":{"type":"MultiLineString","coordinates":[[[52.434052130422884,29.825567565358003],[52.434486398156622,29.826384107259219]]]}},{"type":"Feature","properties":{"fid":21.0,"handle":"6054","block":"-1","etype":"18","space":"0","layer":"dadgostarifaz1","olinetype":"BYLAYER","linetype":null,"color":"0,0,0,255","ocolor":"7","color24":"-1","transparen":"0","lweight":"0","linewidth":0.0,"ltscale":1.0,"visible":"1","width":0.0,"thickness":0.0,"ext":"(3:0.1014852780926056,-0.0580825163961483,0.9931400503552144)"},"geometry":{"type":"MultiLineString","coordinates":[[[52.434597293180744,29.82644165943314],[52.434774624123335,29.826743343504351]]]}},{"type":"Feature","properties":{"fid":22.0,"handle":"6055","block":"-1","etype":"18","space":"0","layer":"dadgostarifaz1","olinetype":"Continuous","linetype":null,"color":"0,0,0,254","ocolor":"256","color24":"-1","transparen":"0","lweight":"30","linewidth":0.3,"ltscale":1.0,"visible":"1","width":0.0,"thickness":0.0,"ext":"(3:0.1014852780926056,-0.0580825163961483,0.9931400503552144)"},"geometry":{"type":"MultiLineString","coordinates":[[[52.434446077657967,29.826531964076413],[52.435666491330217,29.825803142574923]]]}},{"type":"Feature","properties":{"fid":23.0,"handle":"6057","block":"-1","etype":"18","space":"0","layer":"dadgostarifaz1","olinetype":"Continuous","linetype":null,"color":"0,0,0,254","ocolor":"256","color24":"-1","transparen":"0","lweight":"30","linewidth":0.3,"ltscale":1.0,"visible":"1","width":0.0,"thickness":0.0,"ext":"(3:0.1014852780926056,-0.0580825163961483,0.9931400503552144)"},"geometry":{"type":"MultiLineString","coordinates":[[[52.433921445662563,29.825638237789445],[52.435039007028891,29.825033876143262],[52.435061912560087,29.825042379602731],[52.435390061421707,29.825874529453682],[52.435380735759367,29.825900463099739],[52.43434492444571,29.826460614009012]]]}},{"type":"Feature","properties":{"fid":24.0,"handle":"6060","block":"-1","etype":"18","space":"0","layer":"dadgostarifaz1","olinetype":"BYLAYER","linetype":null,"color":"0,0,0,255","ocolor":"7","color24":"-1","transparen":"0","lweight":"0","linewidth":0.0,"ltscale":1.0,"visible":"1","width":0.0,"thickness":0.0,"ext":"(3:0.1014852780926056,-0.0580825163961483,0.9931400503552144)"},"geometry":{"type":"MultiLineString","coordinates":[[[52.434113889586008,29.826059860510302],[52.435225987079143,29.825458454428531]]]}},{"type":"Feature","properties":{"fid":25.0,"handle":"6063","block":"-1","etype":"18","space":"0","layer":"dadgostarifaz1","olinetype":"Continuous","linetype":null,"color":"0,0,0,254","ocolor":"256","color24":"-1","transparen":"0","lweight":"30","linewidth":0.3,"ltscale":1.0,"visible":"1","width":0.0,"thickness":0.0,"ext":"(3:0.1014852780926056,-0.0580825163961483,0.9931400503552144)"},"geometry":{"type":"MultiLineString","coordinates":[[[52.433748808227847,29.825508523653667],[52.434785268043221,29.8248271023492],[52.434792146713143,29.824801176356214],[52.434571614957022,29.824357702070156],[52.434547720172091,29.824349670509374],[52.433436920159885,29.824916385026867]]]}},{"type":"Feature","properties":{"fid":26.0,"handle":"6064","block":"-1","etype":"18","space":"0","layer":"dadgostarifaz1","olinetype":"BYLAYER","linetype":null,"color":"0,0,0,255","ocolor":"7","color24":"-1","transparen":"0","lweight":"0","linewidth":0.0,"ltscale":1.0,"visible":"1","width":0.0,"thickness":0.0,"ext":"(3:0.1014852780926056,-0.0580825163961483,0.9931400503552144)"},"geometry":{"type":"MultiLineString","coordinates":[[[52.433599484992158,29.825272760449977],[52.434675022303075,29.82456564709053]]]}},{"type":"Feature","properties":{"fid":27.0,"handle":"6066","block":"-1","etype":"18","space":"0","layer":"dadgostarifaz1","olinetype":"Continuous","linetype":null,"color":"0,0,0,254","ocolor":"256","color24":"-1","transparen":"0","lweight":"30","linewidth":0.3,"ltscale":1.0,"visible":"1","width":0.0,"thickness":0.0,"ext":"(3:0.1014852780926056,-0.0580825163961483,0.9931400503552144)"},"geometry":{"type":"MultiLineString","coordinates":[[[52.433046876944708,29.824367904247183],[52.434401654901812,29.823905502417755],[52.434426056666275,29.823881749992196],[52.434449959990459,29.82381818839373],[52.434450532273964,29.82378252481659],[52.434388511687608,29.823599299481085],[52.434263826013158,29.823230945205957],[52.434228081792149,29.823213078516599],[52.43271630848561,29.823729066168063]]]}},{"type":"Feature","properties":{"fid":28.0,"handle":"6068","block":"-1","etype":"18","space":"0","layer":"dadgostarifaz1","olinetype":"Continuous","linetype":null,"color":"0,0,0,254","ocolor":"256","color24":"-1","transparen":"0","lweight":"30","linewidth":0.3,"ltscale":1.0,"visible":"1","width":0.0,"thickness":0.0,"ext":"(3:0.1014852780926056,-0.0580825163961483,0.9931400503552144)"},"geometry":{"type":"MultiLineString","coordinates":[[[52.432634279659808,29.823647058146243],[52.434239245681844,29.823149630651876],[52.434258422643587,29.823112828281715],[52.43416105182213,29.822795828013554],[52.434112266252498,29.822769305228839]]]}},{"type":"Feature","properties":{"fid":29.0,"handle":"6071","block":"-1","etype":"18","space":"0","layer":"dadgostarifaz1","olinetype":"Continuous","linetype":null,"color":"0,0,0,254","ocolor":"256","color24":"-1","transparen":"0","lweight":"30","linewidth":0.3,"ltscale":1.0,"visible":"1","width":0.0,"thickness":0.0,"ext":"(3:0.1014852780926056,-0.0580825163961483,0.9931400503552144)"},"geometry":{"type":"MultiLineString","coordinates":[[[52.433386418805384,29.824789029701908],[52.434501691603344,29.82427176170814],[52.434510446586359,29.824247844500004],[52.434394671469711,29.823991340133365],[52.434370437439398,29.823980778497337],[52.433163526583499,29.824401019702741]]]}},{"type":"Feature","properties":{"fid":30.0,"handle":"6077","block":"-1","etype":"18","space":"0","layer":"dadgostarifaz1","olinetype":"Continuous","linetype":null,"color":"0,0,0,254","ocolor":"256","color24":"-1","transparen":"0","lweight":"30","linewidth":0.3,"ltscale":1.0,"visible":"1","width":0.0,"thickness":0.0,"ext":"(3:-0.7169322238950024,-0.6971428736930232,0)"},"geometry":{"type":"MultiLineString","coordinates":[[[52.433096023038033,29.82287371592864],[52.432864978735587,29.823092918436881]]]}},{"type":"Feature","properties":{"fid":31.0,"handle":"6078","block":"-1","etype":"18","space":"0","layer":"dadgostarifaz1","olinetype":"Continuous","linetype":null,"color":"0,0,0,254","ocolor":"256","color24":"-1","transparen":"0","lweight":"30","linewidth":0.3,"ltscale":1.0,"visible":"1","width":0.0,"thickness":0.0,"ext":"(3:0.1014852780926056,-0.0580825163961483,0.9931400503552144)"},"geometry":{"type":"MultiLineString","coordinates":[[[52.432748167861504,29.823173848670777],[52.43251884099756,29.823379523863156]]]}},{"type":"Feature","properties":{"fid":32.0,"handle":"6083","block":"-1","etype":"18","space":"0","layer":"dadgostarifaz1","olinetype":"Continuous","linetype":null,"color":"0,0,0,254","ocolor":"256","color24":"-1","transparen":"0","lweight":"30","linewidth":0.3,"ltscale":1.0,"visible":"1","width":0.0,"thickness":0.0,"ext":"(3:0.1014852780926056,-0.0580825163961483,0.9931400503552144)"},"geometry":{"type":"MultiLineString","coordinates":[[[52.433207442304116,29.822827265636001],[52.43329046693384,29.82275386433712],[52.433373951354973,29.822680986417655],[52.433457892268535,29.822608634757739],[52.433542286356975,29.822536812216676],[52.433627130285792,29.822465521632907],[52.433712420701724,29.822394765823812],[52.43379815423414,29.82232454758563]]]}},{"type":"Feature","properties":{"fid":33.0,"handle":"6086","block":"-1","etype":"18","space":"0","layer":"dadgostarifaz1","olinetype":"Continuous","linetype":null,"color":"0,0,0,254","ocolor":"256","color24":"-1","transparen":"0","lweight":"30","linewidth":0.3,"ltscale":1.0,"visible":"1","width":0.0,"thickness":0.0,"ext":"(3:0.3504807047176006,0.9365699523370661,0)"},"geometry":{"type":"MultiLineString","coordinates":[[[52.432752969798592,29.823172386923233],[52.434110688848754,29.822769773031652]]]}},{"type":"Feature","properties":{"fid":34.0,"handle":"6087","block":"-1","etype":"18","space":"0","layer":"dadgostarifaz1","olinetype":"Continuous","linetype":null,"color":"0,0,0,254","ocolor":"256","color24":"-1","transparen":"0","lweight":"30","linewidth":0.3,"ltscale":1.0,"visible":"1","width":0.0,"thickness":0.0,"ext":"(3:0.1014852780926056,-0.0580825163961483,0.9931400503552144)"},"geometry":{"type":"MultiLineString","coordinates":[[[52.432969403526826,29.8230388767543],[52.434038563206052,29.822726699233311],[52.434062324504275,29.822682217653611],[52.434008493314806,29.822504296339488],[52.434003381385139,29.822487720988999],[52.433997115214623,29.822471546650736],[52.433989725906073,29.822455853589769],[52.43398125012088,29.822440719681705],[52.433971729926036,29.822426220028461],[52.433961212560483,29.822412426583654],[52.433949750219249,29.822399407796947],[52.433937399782003,29.822387228273431],[52.43392422253843,29.822375948453605],[52.433910283880877,29.822365624313196],[52.433895652977178,29.822356307085187],[52.4338804024325,29.822348043005949],[52.43386460792923,29.822340873085821],[52.433848347846627,29.822334832905227],[52.433831702871672,29.822329952438096],[52.433814755610321,29.822326255904009],[52.433797590157511,29.82232376164648]]]}},{"type":"Feature","properties":{"fid":35.0,"handle":"6096","block":"-1","etype":"18","space":"0","layer":"dadgostarifaz1","olinetype":"BYLAYER","linetype":null,"color":"0,0,0,255","ocolor":"7","color24":"-1","transparen":"0","lweight":"0","linewidth":0.0,"ltscale":1.0,"visible":"1","width":0.0,"thickness":0.0,"ext":"(3:0.1014852780926056,-0.0580825163961483,0.9931400503552144)"},"geometry":{"type":"MultiLineString","coordinates":[[[52.433484216429278,29.822586100093826],[52.433568425650073,29.822864426245076]]]}},{"type":"Feature","properties":{"fid":36.0,"handle":"6097","block":"-1","etype":"18","space":"0","layer":"dadgostarifaz1","olinetype":"BYLAYER","linetype":null,"color":"0,0,0,255","ocolor":"7","color24":"-1","transparen":"0","lweight":"0","linewidth":0.0,"ltscale":1.0,"visible":"1","width":0.0,"thickness":0.0,"ext":"(3:0.1014852780926056,-0.0580825163961483,0.9931400503552144)"},"geometry":{"type":"MultiLineString","coordinates":[[[52.433691981488529,29.822411619713879],[52.433807894537686,29.822794732282023]]]}},{"type":"Feature","properties":{"fid":37.0,"handle":"6098","block":"-1","etype":"18","space":"0","layer":"dadgostarifaz1","olinetype":"BYLAYER","linetype":null,"color":"0,0,0,255","ocolor":"7","color24":"-1","transparen":"0","lweight":"0","linewidth":0.0,"ltscale":1.0,"visible":"1","width":0.0,"thickness":0.0,"ext":"(3:0.1014852780926056,-0.0580825163961483,0.9931400503552144)"},"geometry":{"type":"MultiLineString","coordinates":[[[52.432889832116494,29.824045672945637],[52.434368961775114,29.823540827669948]]]}},{"type":"Feature","properties":{"fid":38.0,"handle":"6099","block":"-1","etype":"18","space":"0","layer":"dadgostarifaz1","olinetype":"BYLAYER","linetype":null,"color":"0,0,0,255","ocolor":"7","color24":"-1","transparen":"0","lweight":"0","linewidth":0.0,"ltscale":1.0,"visible":"1","width":0.0,"thickness":0.0,"ext":"(3:0.1014852780926056,-0.0580825163961483,0.9931400503552144)"},"geometry":{"type":"MultiLineString","coordinates":[[[52.43292365998068,29.823658294514939],[52.433037701353371,29.823995203398649]]]}},{"type":"Feature","properties":{"fid":39.0,"handle":"6100","block":"-1","etype":"18","space":"0","layer":"dadgostarifaz1","olinetype":"BYLAYER","linetype":null,"color":"0,0,0,255","ocolor":"7","color24":"-1","transparen":"0","lweight":"0","linewidth":0.0,"ltscale":1.0,"visible":"1","width":0.0,"thickness":0.0,"ext":"(3:0.1014852780926056,-0.0580825163961483,0.9931400503552144)"},"geometry":{"type":"MultiLineString","coordinates":[[[52.433145500290514,29.823582577621742],[52.433259541732966,29.82391948658892]]]}},{"type":"Feature","properties":{"fid":40.0,"handle":"6101","block":"-1","etype":"18","space":"0","layer":"dadgostarifaz1","olinetype":"BYLAYER","linetype":null,"color":"0,0,0,255","ocolor":"7","color24":"-1","transparen":"0","lweight":"0","linewidth":0.0,"ltscale":1.0,"visible":"1","width":0.0,"thickness":0.0,"ext":"(3:0.1014852780926056,-0.0580825163961483,0.9931400503552144)"},"geometry":{"type":"MultiLineString","coordinates":[[[52.433367340655387,29.823506860682095],[52.433481382167621,29.823843769732751]]]}},{"type":"Feature","properties":{"fid":41.0,"handle":"6102","block":"-1","etype":"18","space":"0","layer":"dadgostarifaz1","olinetype":"BYLAYER","linetype":null,"color":"0,0,0,255","ocolor":"7","color24":"-1","transparen":"0","lweight":"0","linewidth":0.0,"ltscale":1.0,"visible":"1","width":0.0,"thickness":0.0,"ext":"(3:0.1014852780926056,-0.0580825163961483,0.9931400503552144)"},"geometry":{"type":"MultiLineString","coordinates":[[[52.433589181075298,29.823431143696013],[52.433703222657286,29.823768052830115]]]}},{"type":"Feature","properties":{"fid":42.0,"handle":"6103","block":"-1","etype":"18","space":"0","layer":"dadgostarifaz1","olinetype":"BYLAYER","linetype":null,"color":"0,0,0,255","ocolor":"7","color24":"-1","transparen":"0","lweight":"0","linewidth":0.0,"ltscale":1.0,"visible":"1","width":0.0,"thickness":0.0,"ext":"(3:0.1014852780926056,-0.0580825163961483,0.9931400503552144)"},"geometry":{"type":"MultiLineString","coordinates":[[[52.43392506320199,29.823692335881042],[52.434039104728697,29.824029245204873]]]}},{"type":"Feature","properties":{"fid":43.0,"handle":"6104","block":"-1","etype":"18","space":"0","layer":"dadgostarifaz1","olinetype":"BYLAYER","linetype":null,"color":"0,0,0,255","ocolor":"7","color24":"-1","transparen":"0","lweight":"0","linewidth":0.0,"ltscale":1.0,"visible":"1","width":0.0,"thickness":0.0,"ext":"(3:0.1014852780926056,-0.0580825163961483,0.9931400503552144)"},"geometry":{"type":"MultiLineString","coordinates":[[[52.433921941808372,29.823317568129802],[52.434035983494979,29.823654477389095]]]}},{"type":"Feature","properties":{"fid":44.0,"handle":"6105","block":"-1","etype":"18","space":"0","layer":"dadgostarifaz1","olinetype":"BYLAYER","linetype":null,"color":"0,0,0,255","ocolor":"7","color24":"-1","transparen":"0","lweight":"0","linewidth":0.0,"ltscale":1.0,"visible":"1","width":0.0,"thickness":0.0,"ext":"(3:0.1014852780926056,-0.0580825163961483,0.9931400503552144)"},"geometry":{"type":"MultiLineString","coordinates":[[[52.433188552805497,29.823943715973062],[52.433302594100525,29.824280625019618]]]}},{"type":"Feature","properties":{"fid":45.0,"handle":"6106","block":"-1","etype":"18","space":"0","layer":"dadgostarifaz1","olinetype":"BYLAYER","linetype":null,"color":"0,0,0,255","ocolor":"7","color24":"-1","transparen":"0","lweight":"0","linewidth":0.0,"ltscale":1.0,"visible":"1","width":0.0,"thickness":0.0,"ext":"(3:0.1014852780926056,-0.0580825163961483,0.9931400503552144)"},"geometry":{"type":"MultiLineString","coordinates":[[[52.433525750261154,29.823828626355958],[52.43363979166223,29.824165535529424]]]}},{"type":"Feature","properties":{"fid":46.0,"handle":"6107","block":"-1","etype":"18","space":"0","layer":"dadgostarifaz1","olinetype":"BYLAYER","linetype":null,"color":"0,0,0,255","ocolor":"7","color24":"-1","transparen":"0","lweight":"0","linewidth":0.0,"ltscale":1.0,"visible":"1","width":0.0,"thickness":0.0,"ext":"(3:0.1014852780926056,-0.0580825163961483,0.9931400503552144)"},"geometry":{"type":"MultiLineString","coordinates":[[[52.43275269091864,29.823172507293208],[52.432875492012769,29.823572299232119]]]}},{"type":"Feature","properties":{"fid":47.0,"handle":"6108","block":"-1","etype":"18","space":"0","layer":"dadgostarifaz1","olinetype":"BYLAYER","linetype":null,"color":"0,0,0,255","ocolor":"7","color24":"-1","transparen":"0","lweight":"0","linewidth":0.0,"ltscale":1.0,"visible":"1","width":0.0,"thickness":0.0,"ext":"(3:0.1014852780926056,-0.0580825163961483,0.9931400503552144)"},"geometry":{"type":"MultiLineString","coordinates":[[[52.432985494303338,29.823103466091279],[52.43310742276649,29.8235004169339]]]}},{"type":"Feature","properties":{"fid":48.0,"handle":"6109","block":"-1","etype":"18","space":"0","layer":"dadgostarifaz1","olinetype":"BYLAYER","linetype":null,"color":"0,0,0,255","ocolor":"7","color24":"-1","transparen":"0","lweight":"0","linewidth":0.0,"ltscale":1.0,"visible":"1","width":0.0,"thickness":0.0,"ext":"(3:0.1014852780926056,-0.0580825163961483,0.9931400503552144)"},"geometry":{"type":"MultiLineString","coordinates":[[[52.43321829774753,29.823034424844305],[52.433339353578567,29.82342853458923]]]}},{"type":"Feature","properties":{"fid":49.0,"handle":"6110","block":"-1","etype":"18","space":"0","layer":"dadgostarifaz1","olinetype":"BYLAYER","linetype":null,"color":"0,0,0,255","ocolor":"7","color24":"-1","transparen":"0","lweight":"0","linewidth":0.0,"ltscale":1.0,"visible":"1","width":0.0,"thickness":0.0,"ext":"(3:0.1014852780926056,-0.0580825163961483,0.9931400503552144)"},"geometry":{"type":"MultiLineString","coordinates":[[[52.43345110125118,29.822965383552305],[52.433571284448988,29.823356652198058]]]}},{"type":"Feature","properties":{"fid":50.0,"handle":"6111","block":"-1","etype":"18","space":"0","layer":"dadgostarifaz1","olinetype":"BYLAYER","linetype":null,"color":"0,0,0,255","ocolor":"7","color24":"-1","transparen":"0","lweight":"0","linewidth":0.0,"ltscale":1.0,"visible":"1","width":0.0,"thickness":0.0,"ext":"(3:0.1014852780926056,-0.0580825163961483,0.9931400503552144)"},"geometry":{"type":"MultiLineString","coordinates":[[[52.433800306618181,29.822861821529859],[52.433919180864052,29.823248828524182]]]}},{"type":"Feature","properties":{"fid":51.0,"handle":"6112","block":"-1","etype":"18","space":"0","layer":"dadgostarifaz1","olinetype":"BYLAYER","linetype":null,"color":"0,0,0,255","ocolor":"7","color24":"-1","transparen":"0","lweight":"0","linewidth":0.0,"ltscale":1.0,"visible":"1","width":0.0,"thickness":0.0,"ext":"(3:0.1014852780926056,-0.0580825163961483,0.9931400503552144)"},"geometry":{"type":"MultiLineString","coordinates":[[[52.43429575432576,29.824367276321357],[52.434184617337678,29.824045480319629]]]}},{"type":"Feature","properties":{"fid":52.0,"handle":"6113","block":"-1","etype":"18","space":"0","layer":"dadgostarifaz1","olinetype":"BYLAYER","linetype":null,"color":"0,0,0,255","ocolor":"7","color24":"-1","transparen":"0","lweight":"0","linewidth":0.0,"ltscale":1.0,"visible":"1","width":0.0,"thickness":0.0,"ext":"(3:0.1014852780926056,-0.0580825163961483,0.9931400503552144)"},"geometry":{"type":"MultiLineString","coordinates":[[[52.434100825424643,29.8244576851685],[52.433982741010141,29.824115772832755]]]}},{"type":"Feature","properties":{"fid":53.0,"handle":"6114","block":"-1","etype":"18","space":"0","layer":"dadgostarifaz1","olinetype":"BYLAYER","linetype":null,"color":"0,0,0,255","ocolor":"7","color24":"-1","transparen":"0","lweight":"0","linewidth":0.0,"ltscale":1.0,"visible":"1","width":0.0,"thickness":0.0,"ext":"(3:0.1014852780926056,-0.0580825163961483,0.9931400503552144)"},"geometry":{"type":"MultiLineString","coordinates":[[[52.433922430111807,29.824541398084662],[52.433797701330398,29.824180246916605]]]}},{"type":"Feature","properties":{"fid":54.0,"handle":"6115","block":"-1","etype":"18","space":"0","layer":"dadgostarifaz1","olinetype":"BYLAYER","linetype":null,"color":"0,0,0,255","ocolor":"7","color24":"-1","transparen":"0","lweight":"0","linewidth":0.0,"ltscale":1.0,"visible":"1","width":0.0,"thickness":0.0,"ext":"(3:0.1014852780926056,-0.0580825163961483,0.9931400503552144)"},"geometry":{"type":"MultiLineString","coordinates":[[[52.433751867387038,29.824620505744484],[52.43362104604315,29.824241713483037]]]}},{"type":"Feature","properties":{"fid":55.0,"handle":"6116","block":"-1","etype":"18","space":"0","layer":"dadgostarifaz1","olinetype":"BYLAYER","linetype":null,"color":"0,0,0,255","ocolor":"7","color24":"-1","transparen":"0","lweight":"0","linewidth":0.0,"ltscale":1.0,"visible":"1","width":0.0,"thickness":0.0,"ext":"(3:0.1014852780926056,-0.0580825163961483,0.9931400503552144)"},"geometry":{"type":"MultiLineString","coordinates":[[[52.433581015214131,29.824698775182657],[52.433444404370995,29.824303219334212]]]}},{"type":"Feature","properties":{"fid":56.0,"handle":"6777","block":"-1","etype":"18","space":"0","layer":"dadgostarifaz1","olinetype":"BYLAYER","linetype":null,"color":"0,0,0,254","ocolor":"256","color24":"-1","transparen":"0","lweight":"-1","linewidth":0.0,"ltscale":1.0,"visible":"1","width":0.0,"thickness":0.0,"ext":"(3:0,0,0.1)"},"geometry":{"type":"MultiLineString","coordinates":[[[52.435867159214233,29.826254096325233],[52.43566647305417,29.825803096304082]]]}},{"type":"Feature","properties":{"fid":57.0,"handle":"6778","block":"-1","etype":"18","space":"0","layer":"dadgostarifaz1","olinetype":"BYLAYER","linetype":null,"color":"0,0,0,254","ocolor":"256","color24":"-1","transparen":"0","lweight":"-1","linewidth":0.0,"ltscale":1.0,"visible":"1","width":0.0,"thickness":0.0,"ext":"(3:0.8865636829873034,-0.4626065671907264,0)"},"geometry":{"type":"MultiLineString","coordinates":[[[52.432633910168846,29.823647077403731],[52.43251884099756,29.823379523863156]]]}},{"type":"Feature","properties":{"fid":58.0,"handle":"6779","block":"-1","etype":"18","space":"0","layer":"dadgostarifaz1","olinetype":"BYLAYER","linetype":null,"color":"0,0,0,254","ocolor":"256","color24":"-1","transparen":"0","lweight":"-1","linewidth":0.0,"ltscale":1.0,"visible":"1","width":0.0,"thickness":0.0,"ext":"(3:0,0,0.1)"},"geometry":{"type":"MultiLineString","coordinates":[[[52.43304688240265,29.824367904643019],[52.432889751322662,29.824045276778964],[52.432716259804344,29.823729111813073]]]}},{"type":"Feature","properties":{"fid":59.0,"handle":"6781","block":"-1","etype":"18","space":"0","layer":"dadgostarifaz1","olinetype":"BYLAYER","linetype":null,"color":"0,0,0,254","ocolor":"256","color24":"-1","transparen":"0","lweight":"-1","linewidth":0.0,"ltscale":1.0,"visible":"1","width":0.0,"thickness":0.0,"ext":"(3:0,0,0.1)"},"geometry":{"type":"MultiLineString","coordinates":[[[52.433386418492191,29.824789029551784],[52.433163488520449,29.824400926077178]]]}},{"type":"Feature","properties":{"fid":60.0,"handle":"6782","block":"-1","etype":"18","space":"0","layer":"dadgostarifaz1","olinetype":"BYLAYER","linetype":null,"color":"0,0,0,254","ocolor":"256","color24":"-1","transparen":"0","lweight":"-1","linewidth":0.0,"ltscale":1.0,"visible":"1","width":0.0,"thickness":0.0,"ext":"(3:0,0,0.1)"},"geometry":{"type":"MultiLineString","coordinates":[[[52.433748813868135,29.825508503508971],[52.433599464237751,29.825272754341039],[52.433436923616277,29.82491635769512]]]}},{"type":"Feature","properties":{"fid":61.0,"handle":"6784","block":"-1","etype":"18","space":"0","layer":"dadgostarifaz1","olinetype":"BYLAYER","linetype":null,"color":"0,0,0,254","ocolor":"256","color24":"-1","transparen":"0","lweight":"-1","linewidth":0.0,"ltscale":1.0,"visible":"1","width":0.0,"thickness":0.0,"ext":"(3:0,0,0.1)"},"geometry":{"type":"MultiLineString","coordinates":[[[52.434113851500577,29.826059703302267],[52.43392129443707,29.82563790289316]]]}},{"type":"Feature","properties":{"fid":62.0,"handle":"6785","block":"-1","etype":"18","space":"0","layer":"dadgostarifaz1","olinetype":"BYLAYER","linetype":null,"color":"0,0,0,254","ocolor":"256","color24":"-1","transparen":"0","lweight":"-1","linewidth":0.0,"ltscale":1.0,"visible":"1","width":0.0,"thickness":0.0,"ext":"(3:0,0,0.1)"},"geometry":{"type":"MultiLineString","coordinates":[[[52.434344925261811,29.826460594536218],[52.434113871300951,29.826059844529457]]]}},{"type":"Feature","properties":{"fid":63.0,"handle":"6786","block":"-1","etype":"18","space":"0","layer":"dadgostarifaz1","olinetype":"BYLAYER","linetype":null,"color":"0,0,0,254","ocolor":"256","color24":"-1","transparen":"0","lweight":"-1","linewidth":0.0,"ltscale":1.0,"visible":"1","width":0.0,"thickness":0.0,"ext":"(3:0,0,0.1)"},"geometry":{"type":"MultiLineString","coordinates":[[[52.434605047573612,29.826819144762521],[52.434445897861039,29.826531761347535]]]}}]}