var json__3 = {"type":"FeatureCollection","name":"_3","crs":{"type":"name","properties":{"name":"urn:ogc:def:crs:OGC:1.3:CRS84"}},"features":[{"type":"Feature","properties":{"fid":43.0,"handle":"6298","block":"-1","etype":"25","space":"0","layer":"pelak","olinetype":"bylayer","linetype":null,"color":"255,0,0,255","ocolor":"1","color24":"-1","transparen":"0","lweight":"-1","linewidth":0.0,"ltscale":1.0,"visible":"1","thickness":0.0,"ext":"(3:0,0,1)","height":1.5,"text":"2201","angle":105.58527,"widthscale":1.0,"oblique":0.0,"style":"Standard","textgen":"0","alignh":"2","alignv":"0","interlin":-1.0,"Name":"1022"},"geometry":{"type":"Point","coordinates":[52.432073376944935,29.833550080352499]}},{"type":"Feature","properties":{"fid":44.0,"handle":"6299","block":"-1","etype":"25","space":"0","layer":"pelak","olinetype":"bylayer","linetype":null,"color":"255,0,0,255","ocolor":"1","color24":"-1","transparen":"0","lweight":"-1","linewidth":0.0,"ltscale":1.0,"visible":"1","thickness":0.0,"ext":"(3:0,0,1)","height":1.5,"text":"3201","angle":105.58527,"widthscale":1.0,"oblique":0.0,"style":"Standard","textgen":"0","alignh":"2","alignv":"0","interlin":-1.0,"Name":"1023"},"geometry":{"type":"Point","coordinates":[52.432085052015545,29.833455479823495]}},{"type":"Feature","properties":{"fid":45.0,"handle":"6300","block":"-1","etype":"25","space":"0","layer":"pelak","olinetype":"bylayer","linetype":null,"color":"255,0,0,255","ocolor":"1","color24":"-1","transparen":"0","lweight":"-1","linewidth":0.0,"ltscale":1.0,"visible":"1","thickness":0.0,"ext":"(3:0,0,1)","height":1.5,"text":"4201","angle":105.58527,"widthscale":1.0,"oblique":0.0,"style":"Standard","textgen":"0","alignh":"2","alignv":"0","interlin":-1.0,"Name":"1024"},"geometry":{"type":"Point","coordinates":[52.43209448047989,29.833344969239235]}},{"type":"Feature","properties":{"fid":46.0,"handle":"6301","block":"-1","etype":"25","space":"0","layer":"pelak","olinetype":"bylayer","linetype":null,"color":"255,0,0,255","ocolor":"1","color24":"-1","transparen":"0","lweight":"-1","linewidth":0.0,"ltscale":1.0,"visible":"1","thickness":0.0,"ext":"(3:0,0,1)","height":1.5,"text":"5201","angle":86.17687,"widthscale":1.0,"oblique":0.0,"style":"Standard","textgen":"0","alignh":"2","alignv":"0","interlin":-1.0,"Name":"1025"},"geometry":{"type":"Point","coordinates":[52.432118387172615,29.833251314139027]}},{"type":"Feature","properties":{"fid":47.0,"handle":"6302","block":"-1","etype":"25","space":"0","layer":"pelak","olinetype":"bylayer","linetype":null,"color":"255,0,0,255","ocolor":"1","color24":"-1","transparen":"0","lweight":"-1","linewidth":0.0,"ltscale":1.0,"visible":"1","thickness":0.0,"ext":"(3:0,0,1)","height":1.5,"text":"6201","angle":70.9878,"widthscale":1.0,"oblique":0.0,"style":"Standard","textgen":"0","alignh":"2","alignv":"0","interlin":-1.0,"Name":"1026"},"geometry":{"type":"Point","coordinates":[52.432121724867201,29.833150462377134]}},{"type":"Feature","properties":{"fid":48.0,"handle":"6303","block":"-1","etype":"25","space":"0","layer":"pelak","olinetype":"bylayer","linetype":null,"color":"255,0,0,255","ocolor":"1","color24":"-1","transparen":"0","lweight":"-1","linewidth":0.0,"ltscale":1.0,"visible":"1","thickness":0.0,"ext":"(3:0,0,1)","height":1.5,"text":"7201","angle":42.20611,"widthscale":1.0,"oblique":0.0,"style":"Standard","textgen":"0","alignh":"2","alignv":"0","interlin":-1.0,"Name":"1027"},"geometry":{"type":"Point","coordinates":[52.432061916799661,29.8330720003141]}},{"type":"Feature","properties":{"fid":49.0,"handle":"6304","block":"-1","etype":"25","space":"0","layer":"pelak","olinetype":"bylayer","linetype":null,"color":"255,0,0,255","ocolor":"1","color24":"-1","transparen":"0","lweight":"-1","linewidth":0.0,"ltscale":1.0,"visible":"1","thickness":0.0,"ext":"(3:0,0,1)","height":1.5,"text":"8201","angle":30.64018,"widthscale":1.0,"oblique":0.0,"style":"Standard","textgen":"0","alignh":"2","alignv":"0","interlin":-1.0,"Name":"1028"},"geometry":{"type":"Point","coordinates":[52.43200289241873,29.833011502766272]}},{"type":"Feature","properties":{"fid":50.0,"handle":"6305","block":"-1","etype":"25","space":"0","layer":"pelak","olinetype":"bylayer","linetype":null,"color":"255,0,0,255","ocolor":"1","color24":"-1","transparen":"0","lweight":"-1","linewidth":0.0,"ltscale":1.0,"visible":"1","thickness":0.0,"ext":"(3:0,0,1)","height":1.5,"text":"9201","angle":30.64018,"widthscale":1.0,"oblique":0.0,"style":"Standard","textgen":"0","alignh":"2","alignv":"0","interlin":-1.0,"Name":"1029"},"geometry":{"type":"Point","coordinates":[52.431928030961664,29.832962683421083]}},{"type":"Feature","properties":{"fid":51.0,"handle":"6306","block":"-1","etype":"25","space":"0","layer":"pelak","olinetype":"bylayer","linetype":null,"color":"255,0,0,255","ocolor":"1","color24":"-1","transparen":"0","lweight":"-1","linewidth":0.0,"ltscale":1.0,"visible":"1","thickness":0.0,"ext":"(3:0,0,1)","height":1.5,"text":"0301","angle":30.64018,"widthscale":1.0,"oblique":0.0,"style":"Standard","textgen":"0","alignh":"2","alignv":"0","interlin":-1.0,"Name":"1030"},"geometry":{"type":"Point","coordinates":[52.431789399575919,29.832935930796143]}},{"type":"Feature","properties":{"fid":52.0,"handle":"6307","block":"-1","etype":"25","space":"0","layer":"pelak","olinetype":"bylayer","linetype":null,"color":"255,0,0,255","ocolor":"1","color24":"-1","transparen":"0","lweight":"-1","linewidth":0.0,"ltscale":1.0,"visible":"1","thickness":0.0,"ext":"(3:0,0,1)","height":1.5,"text":"1301","angle":26.92537,"widthscale":1.0,"oblique":0.0,"style":"Standard","textgen":"0","alignh":"2","alignv":"0","interlin":-1.0,"Name":"1031"},"geometry":{"type":"Point","coordinates":[52.431711600241208,29.832886775629714]}},{"type":"Feature","properties":{"fid":53.0,"handle":"6308","block":"-1","etype":"25","space":"0","layer":"pelak","olinetype":"bylayer","linetype":null,"color":"255,0,0,255","ocolor":"1","color24":"-1","transparen":"0","lweight":"-1","linewidth":0.0,"ltscale":1.0,"visible":"1","thickness":0.0,"ext":"(3:0,0,1)","height":1.5,"text":"2301","angle":3.72259,"widthscale":1.0,"oblique":0.0,"style":"Standard","textgen":"0","alignh":"2","alignv":"0","interlin":-1.0,"Name":"1032"},"geometry":{"type":"Point","coordinates":[52.431636644235617,29.832848964361997]}},{"type":"Feature","properties":{"fid":54.0,"handle":"6309","block":"-1","etype":"25","space":"0","layer":"pelak","olinetype":"bylayer","linetype":null,"color":"255,0,0,255","ocolor":"1","color24":"-1","transparen":"0","lweight":"-1","linewidth":0.0,"ltscale":1.0,"visible":"1","thickness":0.0,"ext":"(3:0,0,1)","height":1.5,"text":"3301","angle":327.78565,"widthscale":1.0,"oblique":0.0,"style":"Standard","textgen":"0","alignh":"2","alignv":"0","interlin":-1.0,"Name":"1033"},"geometry":{"type":"Point","coordinates":[52.431553235568934,29.832841461378731]}},{"type":"Feature","properties":{"fid":55.0,"handle":"6310","block":"-1","etype":"25","space":"0","layer":"pelak","olinetype":"bylayer","linetype":null,"color":"255,0,0,255","ocolor":"1","color24":"-1","transparen":"0","lweight":"-1","linewidth":0.0,"ltscale":1.0,"visible":"1","thickness":0.0,"ext":"(3:0,0,1)","height":1.5,"text":"4301","angle":289.69688,"widthscale":1.0,"oblique":0.0,"style":"Standard","textgen":"0","alignh":"2","alignv":"0","interlin":-1.0,"Name":"1034"},"geometry":{"type":"Point","coordinates":[52.431412148585743,29.833033261675556]}},{"type":"Feature","properties":{"fid":56.0,"handle":"6311","block":"-1","etype":"25","space":"0","layer":"pelak","olinetype":"bylayer","linetype":null,"color":"255,0,0,255","ocolor":"1","color24":"-1","transparen":"0","lweight":"-1","linewidth":0.0,"ltscale":1.0,"visible":"1","thickness":0.0,"ext":"(3:0,0,1)","height":1.5,"text":"5301","angle":270.0,"widthscale":1.0,"oblique":0.0,"style":"Standard","textgen":"0","alignh":"2","alignv":"0","interlin":-1.0,"Name":"1035"},"geometry":{"type":"Point","coordinates":[52.431405593637358,29.833129600969745]}},{"type":"Feature","properties":{"fid":57.0,"handle":"6312","block":"-1","etype":"25","space":"0","layer":"pelak","olinetype":"bylayer","linetype":null,"color":"255,0,0,255","ocolor":"1","color24":"-1","transparen":"0","lweight":"-1","linewidth":0.0,"ltscale":1.0,"visible":"1","thickness":0.0,"ext":"(3:0,0,1)","height":1.5,"text":"6301","angle":249.10029,"widthscale":1.0,"oblique":0.0,"style":"Standard","textgen":"0","alignh":"2","alignv":"0","interlin":-1.0,"Name":"1036"},"geometry":{"type":"Point","coordinates":[52.431436334533345,29.833216579213932]}},{"type":"Feature","properties":{"fid":58.0,"handle":"6313","block":"-1","etype":"25","space":"0","layer":"pelak","olinetype":"bylayer","linetype":null,"color":"255,0,0,255","ocolor":"1","color24":"-1","transparen":"0","lweight":"-1","linewidth":0.0,"ltscale":1.0,"visible":"1","thickness":0.0,"ext":"(3:0,0,1)","height":1.5,"text":"7301","angle":246.20046,"widthscale":1.0,"oblique":0.0,"style":"Standard","textgen":"0","alignh":"2","alignv":"0","interlin":-1.0,"Name":"1037"},"geometry":{"type":"Point","coordinates":[52.431482623973054,29.833295661773089]}},{"type":"Feature","properties":{"fid":59.0,"handle":"6314","block":"-1","etype":"25","space":"0","layer":"pelak","olinetype":"bylayer","linetype":null,"color":"255,0,0,255","ocolor":"1","color24":"-1","transparen":"0","lweight":"-1","linewidth":0.0,"ltscale":1.0,"visible":"1","thickness":0.0,"ext":"(3:0,0,1)","height":1.5,"text":"8301","angle":242.46991,"widthscale":1.0,"oblique":0.0,"style":"Standard","textgen":"0","alignh":"2","alignv":"0","interlin":-1.0,"Name":"1038"},"geometry":{"type":"Point","coordinates":[52.431528348449312,29.833376880790603]}},{"type":"Feature","properties":{"fid":60.0,"handle":"6315","block":"-1","etype":"25","space":"0","layer":"pelak","olinetype":"bylayer","linetype":null,"color":"255,0,0,255","ocolor":"1","color24":"-1","transparen":"0","lweight":"-1","linewidth":0.0,"ltscale":1.0,"visible":"1","thickness":0.0,"ext":"(3:0,0,1)","height":1.5,"text":"9301","angle":236.24721,"widthscale":1.0,"oblique":0.0,"style":"Standard","textgen":"0","alignh":"2","alignv":"0","interlin":-1.0,"Name":"1039"},"geometry":{"type":"Point","coordinates":[52.431585612334246,29.833466134861514]}},{"type":"Feature","properties":{"fid":61.0,"handle":"6316","block":"-1","etype":"25","space":"0","layer":"pelak","olinetype":"bylayer","linetype":null,"color":"255,0,0,255","ocolor":"1","color24":"-1","transparen":"0","lweight":"-1","linewidth":0.0,"ltscale":1.0,"visible":"1","thickness":0.0,"ext":"(3:0,0,1)","height":1.5,"text":"0401","angle":236.24721,"widthscale":1.0,"oblique":0.0,"style":"Standard","textgen":"0","alignh":"2","alignv":"0","interlin":-1.0,"Name":"1040"},"geometry":{"type":"Point","coordinates":[52.431649638802654,29.833538346095231]}},{"type":"Feature","properties":{"fid":62.0,"handle":"6317","block":"-1","etype":"25","space":"0","layer":"pelak","olinetype":"bylayer","linetype":null,"color":"255,0,0,255","ocolor":"1","color24":"-1","transparen":"0","lweight":"-1","linewidth":0.0,"ltscale":1.0,"visible":"1","thickness":0.0,"ext":"(3:0,0,1)","height":1.5,"text":"1401","angle":236.24721,"widthscale":1.0,"oblique":0.0,"style":"Standard","textgen":"0","alignh":"2","alignv":"0","interlin":-1.0,"Name":"1041"},"geometry":{"type":"Point","coordinates":[52.431712182573357,29.833616750476541]}},{"type":"Feature","properties":{"fid":63.0,"handle":"6318","block":"-1","etype":"25","space":"0","layer":"pelak","olinetype":"bylayer","linetype":null,"color":"255,0,0,255","ocolor":"1","color24":"-1","transparen":"0","lweight":"-1","linewidth":0.0,"ltscale":1.0,"visible":"1","thickness":0.0,"ext":"(3:0,0,1)","height":1.5,"text":"2401","angle":236.24721,"widthscale":1.0,"oblique":0.0,"style":"Standard","textgen":"0","alignh":"2","alignv":"0","interlin":-1.0,"Name":"1042"},"geometry":{"type":"Point","coordinates":[52.431773259727628,29.833695701718177]}},{"type":"Feature","properties":{"fid":64.0,"handle":"6319","block":"-1","etype":"25","space":"0","layer":"pelak","olinetype":"bylayer","linetype":null,"color":"255,0,0,255","ocolor":"1","color24":"-1","transparen":"0","lweight":"-1","linewidth":0.0,"ltscale":1.0,"visible":"1","thickness":0.0,"ext":"(3:0,0,1)","height":1.5,"text":"3401","angle":236.24721,"widthscale":1.0,"oblique":0.0,"style":"Standard","textgen":"0","alignh":"2","alignv":"0","interlin":-1.0,"Name":"1043"},"geometry":{"type":"Point","coordinates":[52.431837035175292,29.833767342148906]}},{"type":"Feature","properties":{"fid":65.0,"handle":"6320","block":"-1","etype":"25","space":"0","layer":"pelak","olinetype":"bylayer","linetype":null,"color":"255,0,0,255","ocolor":"1","color24":"-1","transparen":"0","lweight":"-1","linewidth":0.0,"ltscale":1.0,"visible":"1","thickness":0.0,"ext":"(3:0,0,1)","height":1.5,"text":"4401","angle":229.56843,"widthscale":1.0,"oblique":0.0,"style":"Standard","textgen":"0","alignh":"2","alignv":"0","interlin":-1.0,"Name":"1044"},"geometry":{"type":"Point","coordinates":[52.431902243412935,29.833845575075703]}},{"type":"Feature","properties":{"fid":66.0,"handle":"6321","block":"-1","etype":"25","space":"0","layer":"pelak","olinetype":"bylayer","linetype":null,"color":"255,0,0,255","ocolor":"1","color24":"-1","transparen":"0","lweight":"-1","linewidth":0.0,"ltscale":1.0,"visible":"1","thickness":0.0,"ext":"(3:0,0,1)","height":1.5,"text":"5401","angle":229.56843,"widthscale":1.0,"oblique":0.0,"style":"Standard","textgen":"0","alignh":"2","alignv":"0","interlin":-1.0,"Name":"1045"},"geometry":{"type":"Point","coordinates":[52.43196961476643,29.833922262684151]}},{"type":"Feature","properties":{"fid":67.0,"handle":"6322","block":"-1","etype":"25","space":"0","layer":"pelak","olinetype":"bylayer","linetype":null,"color":"255,0,0,255","ocolor":"1","color24":"-1","transparen":"0","lweight":"-1","linewidth":0.0,"ltscale":1.0,"visible":"1","thickness":0.0,"ext":"(3:0,0,1)","height":1.5,"text":"6401","angle":229.56843,"widthscale":1.0,"oblique":0.0,"style":"Standard","textgen":"0","alignh":"2","alignv":"0","interlin":-1.0,"Name":"1046"},"geometry":{"type":"Point","coordinates":[52.432029534359039,29.834009755170698]}},{"type":"Feature","properties":{"fid":68.0,"handle":"6323","block":"-1","etype":"25","space":"0","layer":"pelak","olinetype":"bylayer","linetype":null,"color":"255,0,0,255","ocolor":"1","color24":"-1","transparen":"0","lweight":"-1","linewidth":0.0,"ltscale":1.0,"visible":"1","thickness":0.0,"ext":"(3:0,0,1)","height":1.5,"text":"7401","angle":226.98917,"widthscale":1.0,"oblique":0.0,"style":"Standard","textgen":"0","alignh":"2","alignv":"0","interlin":-1.0,"Name":"1047"},"geometry":{"type":"Point","coordinates":[52.43184857365538,29.83419208193181]}},{"type":"Feature","properties":{"fid":69.0,"handle":"6324","block":"-1","etype":"25","space":"0","layer":"pelak","olinetype":"bylayer","linetype":null,"color":"255,0,0,255","ocolor":"1","color24":"-1","transparen":"0","lweight":"-1","linewidth":0.0,"ltscale":1.0,"visible":"1","thickness":0.0,"ext":"(3:0,0,1)","height":1.5,"text":"8401","angle":226.98917,"widthscale":1.0,"oblique":0.0,"style":"Standard","textgen":"0","alignh":"2","alignv":"0","interlin":-1.0,"Name":"1048"},"geometry":{"type":"Point","coordinates":[52.431784035361375,29.834108300305022]}},{"type":"Feature","properties":{"fid":70.0,"handle":"6325","block":"-1","etype":"25","space":"0","layer":"pelak","olinetype":"bylayer","linetype":null,"color":"255,0,0,255","ocolor":"1","color24":"-1","transparen":"0","lweight":"-1","linewidth":0.0,"ltscale":1.0,"visible":"1","thickness":0.0,"ext":"(3:0,0,1)","height":1.5,"text":"9401","angle":226.98917,"widthscale":1.0,"oblique":0.0,"style":"Standard","textgen":"0","alignh":"2","alignv":"0","interlin":-1.0,"Name":"1049"},"geometry":{"type":"Point","coordinates":[52.431707438809802,29.834049565836899]}},{"type":"Feature","properties":{"fid":71.0,"handle":"6326","block":"-1","etype":"25","space":"0","layer":"pelak","olinetype":"bylayer","linetype":null,"color":"255,0,0,255","ocolor":"1","color24":"-1","transparen":"0","lweight":"-1","linewidth":0.0,"ltscale":1.0,"visible":"1","thickness":0.0,"ext":"(3:0,0,1)","height":1.5,"text":"0501","angle":226.98917,"widthscale":1.0,"oblique":0.0,"style":"Standard","textgen":"0","alignh":"2","alignv":"0","interlin":-1.0,"Name":"1050"},"geometry":{"type":"Point","coordinates":[52.431630751152959,29.833995460639638]}},{"type":"Feature","properties":{"fid":72.0,"handle":"6327","block":"-1","etype":"25","space":"0","layer":"pelak","olinetype":"bylayer","linetype":null,"color":"255,0,0,255","ocolor":"1","color24":"-1","transparen":"0","lweight":"-1","linewidth":0.0,"ltscale":1.0,"visible":"1","thickness":0.0,"ext":"(3:0,0,1)","height":1.5,"text":"1501","angle":226.98917,"widthscale":1.0,"oblique":0.0,"style":"Standard","textgen":"0","alignh":"2","alignv":"0","interlin":-1.0,"Name":"1051"},"geometry":{"type":"Point","coordinates":[52.431561237975281,29.833939600040615]}},{"type":"Feature","properties":{"fid":73.0,"handle":"6328","block":"-1","etype":"25","space":"0","layer":"pelak","olinetype":"bylayer","linetype":null,"color":"255,0,0,255","ocolor":"1","color24":"-1","transparen":"0","lweight":"-1","linewidth":0.0,"ltscale":1.0,"visible":"1","thickness":0.0,"ext":"(3:0,0,1)","height":1.5,"text":"2501","angle":226.98917,"widthscale":1.0,"oblique":0.0,"style":"Standard","textgen":"0","alignh":"2","alignv":"0","interlin":-1.0,"Name":"1052"},"geometry":{"type":"Point","coordinates":[52.431500760389149,29.833865550554538]}},{"type":"Feature","properties":{"fid":74.0,"handle":"6329","block":"-1","etype":"25","space":"0","layer":"pelak","olinetype":"bylayer","linetype":null,"color":"255,0,0,255","ocolor":"1","color24":"-1","transparen":"0","lweight":"-1","linewidth":0.0,"ltscale":1.0,"visible":"1","thickness":0.0,"ext":"(3:0,0,1)","height":1.5,"text":"3501","angle":226.98917,"widthscale":1.0,"oblique":0.0,"style":"Standard","textgen":"0","alignh":"2","alignv":"0","interlin":-1.0,"Name":"1053"},"geometry":{"type":"Point","coordinates":[52.431446158402778,29.833787693831763]}},{"type":"Feature","properties":{"fid":75.0,"handle":"6330","block":"-1","etype":"25","space":"0","layer":"pelak","olinetype":"bylayer","linetype":null,"color":"255,0,0,255","ocolor":"1","color24":"-1","transparen":"0","lweight":"-1","linewidth":0.0,"ltscale":1.0,"visible":"1","thickness":0.0,"ext":"(3:0,0,1)","height":1.5,"text":"4501","angle":226.98917,"widthscale":1.0,"oblique":0.0,"style":"Standard","textgen":"0","alignh":"2","alignv":"0","interlin":-1.0,"Name":"1054"},"geometry":{"type":"Point","coordinates":[52.431392402111072,29.833716205126702]}},{"type":"Feature","properties":{"fid":76.0,"handle":"6331","block":"-1","etype":"25","space":"0","layer":"pelak","olinetype":"bylayer","linetype":null,"color":"255,0,0,255","ocolor":"1","color24":"-1","transparen":"0","lweight":"-1","linewidth":0.0,"ltscale":1.0,"visible":"1","thickness":0.0,"ext":"(3:0,0,1)","height":1.5,"text":"5501","angle":226.98917,"widthscale":1.0,"oblique":0.0,"style":"Standard","textgen":"0","alignh":"2","alignv":"0","interlin":-1.0,"Name":"1055"},"geometry":{"type":"Point","coordinates":[52.431330489818833,29.833649070779284]}},{"type":"Feature","properties":{"fid":77.0,"handle":"6332","block":"-1","etype":"25","space":"0","layer":"pelak","olinetype":"bylayer","linetype":null,"color":"255,0,0,255","ocolor":"1","color24":"-1","transparen":"0","lweight":"-1","linewidth":0.0,"ltscale":1.0,"visible":"1","thickness":0.0,"ext":"(3:0,0,1)","height":1.5,"text":"6501","angle":226.98917,"widthscale":1.0,"oblique":0.0,"style":"Standard","textgen":"0","alignh":"2","alignv":"0","interlin":-1.0,"Name":"1056"},"geometry":{"type":"Point","coordinates":[52.431288978034637,29.833568881959341]}},{"type":"Feature","properties":{"fid":78.0,"handle":"6333","block":"-1","etype":"25","space":"0","layer":"pelak","olinetype":"bylayer","linetype":null,"color":"255,0,0,255","ocolor":"1","color24":"-1","transparen":"0","lweight":"-1","linewidth":0.0,"ltscale":1.0,"visible":"1","thickness":0.0,"ext":"(3:0,0,1)","height":1.5,"text":"7501","angle":226.98917,"widthscale":1.0,"oblique":0.0,"style":"Standard","textgen":"0","alignh":"2","alignv":"0","interlin":-1.0,"Name":"1057"},"geometry":{"type":"Point","coordinates":[52.431205095071874,29.833493303802474]}},{"type":"Feature","properties":{"fid":79.0,"handle":"6334","block":"-1","etype":"25","space":"0","layer":"pelak","olinetype":"bylayer","linetype":null,"color":"255,0,0,255","ocolor":"1","color24":"-1","transparen":"0","lweight":"-1","linewidth":0.0,"ltscale":1.0,"visible":"1","thickness":0.0,"ext":"(3:0,0,1)","height":1.5,"text":"8501","angle":226.98917,"widthscale":1.0,"oblique":0.0,"style":"Standard","textgen":"0","alignh":"2","alignv":"0","interlin":-1.0,"Name":"1058"},"geometry":{"type":"Point","coordinates":[52.431161365906668,29.833404252463215]}},{"type":"Feature","properties":{"fid":80.0,"handle":"6335","block":"-1","etype":"25","space":"0","layer":"pelak","olinetype":"bylayer","linetype":null,"color":"255,0,0,255","ocolor":"1","color24":"-1","transparen":"0","lweight":"-1","linewidth":0.0,"ltscale":1.0,"visible":"1","thickness":0.0,"ext":"(3:0,0,1)","height":1.5,"text":"9501","angle":267.60839,"widthscale":1.0,"oblique":0.0,"style":"Standard","textgen":"0","alignh":"2","alignv":"0","interlin":-1.0,"Name":"1059"},"geometry":{"type":"Point","coordinates":[52.431067607495081,29.833227752245428]}},{"type":"Feature","properties":{"fid":81.0,"handle":"6336","block":"-1","etype":"25","space":"0","layer":"pelak","olinetype":"bylayer","linetype":null,"color":"255,0,0,255","ocolor":"1","color24":"-1","transparen":"0","lweight":"-1","linewidth":0.0,"ltscale":1.0,"visible":"1","thickness":0.0,"ext":"(3:0,0,1)","height":1.5,"text":"0601","angle":267.60839,"widthscale":1.0,"oblique":0.0,"style":"Standard","textgen":"0","alignh":"2","alignv":"0","interlin":-1.0,"Name":"1060"},"geometry":{"type":"Point","coordinates":[52.431046225898932,29.833137564283092]}},{"type":"Feature","properties":{"fid":82.0,"handle":"6337","block":"-1","etype":"25","space":"0","layer":"pelak","olinetype":"bylayer","linetype":null,"color":"255,0,0,255","ocolor":"1","color24":"-1","transparen":"0","lweight":"-1","linewidth":0.0,"ltscale":1.0,"visible":"1","thickness":0.0,"ext":"(3:0,0,1)","height":1.5,"text":"1601","angle":267.60839,"widthscale":1.0,"oblique":0.0,"style":"Standard","textgen":"0","alignh":"2","alignv":"0","interlin":-1.0,"Name":"1061"},"geometry":{"type":"Point","coordinates":[52.431039627153467,29.833037863377967]}},{"type":"Feature","properties":{"fid":83.0,"handle":"6338","block":"-1","etype":"25","space":"0","layer":"pelak","olinetype":"bylayer","linetype":null,"color":"255,0,0,255","ocolor":"1","color24":"-1","transparen":"0","lweight":"-1","linewidth":0.0,"ltscale":1.0,"visible":"1","thickness":0.0,"ext":"(3:0,0,1)","height":1.5,"text":"2601","angle":282.13486,"widthscale":1.0,"oblique":0.0,"style":"Standard","textgen":"0","alignh":"2","alignv":"0","interlin":-1.0,"Name":"1062"},"geometry":{"type":"Point","coordinates":[52.431048910962659,29.832931694574476]}},{"type":"Feature","properties":{"fid":84.0,"handle":"6339","block":"-1","etype":"25","space":"0","layer":"pelak","olinetype":"bylayer","linetype":null,"color":"255,0,0,255","ocolor":"1","color24":"-1","transparen":"0","lweight":"-1","linewidth":0.0,"ltscale":1.0,"visible":"1","thickness":0.0,"ext":"(3:0,0,1)","height":1.5,"text":"3601","angle":292.93924,"widthscale":1.0,"oblique":0.0,"style":"Standard","textgen":"0","alignh":"2","alignv":"0","interlin":-1.0,"Name":"1063"},"geometry":{"type":"Point","coordinates":[52.431083565533044,29.832832824039208]}},{"type":"Feature","properties":{"fid":85.0,"handle":"6340","block":"-1","etype":"25","space":"0","layer":"pelak","olinetype":"bylayer","linetype":null,"color":"255,0,0,255","ocolor":"1","color24":"-1","transparen":"0","lweight":"-1","linewidth":0.0,"ltscale":1.0,"visible":"1","thickness":0.0,"ext":"(3:0,0,1)","height":1.5,"text":"4601","angle":326.7216,"widthscale":1.0,"oblique":0.0,"style":"Standard","textgen":"0","alignh":"2","alignv":"0","interlin":-1.0,"Name":"1064"},"geometry":{"type":"Point","coordinates":[52.431130359846613,29.8327486007719]}},{"type":"Feature","properties":{"fid":86.0,"handle":"6341","block":"-1","etype":"25","space":"0","layer":"pelak","olinetype":"bylayer","linetype":null,"color":"255,0,0,255","ocolor":"1","color24":"-1","transparen":"0","lweight":"-1","linewidth":0.0,"ltscale":1.0,"visible":"1","thickness":0.0,"ext":"(3:0,0,1)","height":1.5,"text":"5601","angle":326.7216,"widthscale":1.0,"oblique":0.0,"style":"Standard","textgen":"0","alignh":"2","alignv":"0","interlin":-1.0,"Name":"1065"},"geometry":{"type":"Point","coordinates":[52.431353781201572,29.832601020240478]}},{"type":"Feature","properties":{"fid":87.0,"handle":"6342","block":"-1","etype":"25","space":"0","layer":"pelak","olinetype":"bylayer","linetype":null,"color":"255,0,0,255","ocolor":"1","color24":"-1","transparen":"0","lweight":"-1","linewidth":0.0,"ltscale":1.0,"visible":"1","thickness":0.0,"ext":"(3:0,0,1)","height":1.5,"text":"6601","angle":347.34867,"widthscale":1.0,"oblique":0.0,"style":"Standard","textgen":"0","alignh":"2","alignv":"0","interlin":-1.0,"Name":"1066"},"geometry":{"type":"Point","coordinates":[52.431458192163873,29.832567142549479]}},{"type":"Feature","properties":{"fid":88.0,"handle":"6343","block":"-1","etype":"25","space":"0","layer":"pelak","olinetype":"bylayer","linetype":null,"color":"255,0,0,255","ocolor":"1","color24":"-1","transparen":"0","lweight":"-1","linewidth":0.0,"ltscale":1.0,"visible":"1","thickness":0.0,"ext":"(3:0,0,1)","height":1.5,"text":"7601","angle":352.42311,"widthscale":1.0,"oblique":0.0,"style":"Standard","textgen":"0","alignh":"2","alignv":"0","interlin":-1.0,"Name":"1067"},"geometry":{"type":"Point","coordinates":[52.431547969053959,29.832541049402945]}},{"type":"Feature","properties":{"fid":89.0,"handle":"6344","block":"-1","etype":"25","space":"0","layer":"pelak","olinetype":"bylayer","linetype":null,"color":"255,0,0,255","ocolor":"1","color24":"-1","transparen":"0","lweight":"-1","linewidth":0.0,"ltscale":1.0,"visible":"1","thickness":0.0,"ext":"(3:0,0,1)","height":1.5,"text":"8601","angle":21.5844,"widthscale":1.0,"oblique":0.0,"style":"Standard","textgen":"0","alignh":"2","alignv":"0","interlin":-1.0,"Name":"1068"},"geometry":{"type":"Point","coordinates":[52.431683145425339,29.832583263059792]}},{"type":"Feature","properties":{"fid":90.0,"handle":"6345","block":"-1","etype":"25","space":"0","layer":"pelak","olinetype":"bylayer","linetype":null,"color":"255,0,0,255","ocolor":"1","color24":"-1","transparen":"0","lweight":"-1","linewidth":0.0,"ltscale":1.0,"visible":"1","thickness":0.0,"ext":"(3:0,0,1)","height":1.5,"text":"9601","angle":21.5844,"widthscale":1.0,"oblique":0.0,"style":"Standard","textgen":"0","alignh":"2","alignv":"0","interlin":-1.0,"Name":"1069"},"geometry":{"type":"Point","coordinates":[52.431781285940517,29.832599330322211]}},{"type":"Feature","properties":{"fid":91.0,"handle":"6346","block":"-1","etype":"25","space":"0","layer":"pelak","olinetype":"bylayer","linetype":null,"color":"255,0,0,255","ocolor":"1","color24":"-1","transparen":"0","lweight":"-1","linewidth":0.0,"ltscale":1.0,"visible":"1","thickness":0.0,"ext":"(3:0,0,1)","height":1.5,"text":"0701","angle":35.6121,"widthscale":1.0,"oblique":0.0,"style":"Standard","textgen":"0","alignh":"2","alignv":"0","interlin":-1.0,"Name":"1070"},"geometry":{"type":"Point","coordinates":[52.43185695020221,29.832650528989447]}},{"type":"Feature","properties":{"fid":92.0,"handle":"6347","block":"-1","etype":"25","space":"0","layer":"pelak","olinetype":"bylayer","linetype":null,"color":"255,0,0,255","ocolor":"1","color24":"-1","transparen":"0","lweight":"-1","linewidth":0.0,"ltscale":1.0,"visible":"1","thickness":0.0,"ext":"(3:0,0,1)","height":1.5,"text":"1701","angle":35.6121,"widthscale":1.0,"oblique":0.0,"style":"Standard","textgen":"0","alignh":"2","alignv":"0","interlin":-1.0,"Name":"1071"},"geometry":{"type":"Point","coordinates":[52.431985488947326,29.832705416569748]}},{"type":"Feature","properties":{"fid":93.0,"handle":"6348","block":"-1","etype":"25","space":"0","layer":"pelak","olinetype":"bylayer","linetype":null,"color":"255,0,0,255","ocolor":"1","color24":"-1","transparen":"0","lweight":"-1","linewidth":0.0,"ltscale":1.0,"visible":"1","thickness":0.0,"ext":"(3:0,0,1)","height":1.5,"text":"2701","angle":35.6121,"widthscale":1.0,"oblique":0.0,"style":"Standard","textgen":"0","alignh":"2","alignv":"0","interlin":-1.0,"Name":"1072"},"geometry":{"type":"Point","coordinates":[52.432068023284884,29.832744424547617]}},{"type":"Feature","properties":{"fid":94.0,"handle":"6349","block":"-1","etype":"25","space":"0","layer":"pelak","olinetype":"bylayer","linetype":null,"color":"255,0,0,255","ocolor":"1","color24":"-1","transparen":"0","lweight":"-1","linewidth":0.0,"ltscale":1.0,"visible":"1","thickness":0.0,"ext":"(3:0,0,1)","height":1.5,"text":"3701","angle":35.6121,"widthscale":1.0,"oblique":0.0,"style":"Standard","textgen":"0","alignh":"2","alignv":"0","interlin":-1.0,"Name":"1073"},"geometry":{"type":"Point","coordinates":[52.432149303170412,29.832786888768439]}},{"type":"Feature","properties":{"fid":95.0,"handle":"6350","block":"-1","etype":"25","space":"0","layer":"pelak","olinetype":"bylayer","linetype":null,"color":"255,0,0,255","ocolor":"1","color24":"-1","transparen":"0","lweight":"-1","linewidth":0.0,"ltscale":1.0,"visible":"1","thickness":0.0,"ext":"(3:0,0,1)","height":1.5,"text":"4701","angle":39.73887,"widthscale":1.0,"oblique":0.0,"style":"Standard","textgen":"0","alignh":"2","alignv":"0","interlin":-1.0,"Name":"1074"},"geometry":{"type":"Point","coordinates":[52.431894443223761,29.832468499806588]}},{"type":"Feature","properties":{"fid":96.0,"handle":"6351","block":"-1","etype":"25","space":"0","layer":"pelak","olinetype":"bylayer","linetype":null,"color":"255,0,0,255","ocolor":"1","color24":"-1","transparen":"0","lweight":"-1","linewidth":0.0,"ltscale":1.0,"visible":"1","thickness":0.0,"ext":"(3:0,0,1)","height":1.5,"text":"5701","angle":39.73887,"widthscale":1.0,"oblique":0.0,"style":"Standard","textgen":"0","alignh":"2","alignv":"0","interlin":-1.0,"Name":"1075"},"geometry":{"type":"Point","coordinates":[52.431803357327546,29.832385895216717]}},{"type":"Feature","properties":{"fid":97.0,"handle":"6352","block":"-1","etype":"25","space":"0","layer":"pelak","olinetype":"bylayer","linetype":null,"color":"255,0,0,255","ocolor":"1","color24":"-1","transparen":"0","lweight":"-1","linewidth":0.0,"ltscale":1.0,"visible":"1","thickness":0.0,"ext":"(3:0,0,1)","height":1.5,"text":"6701","angle":20.27897,"widthscale":1.0,"oblique":0.0,"style":"Standard","textgen":"0","alignh":"2","alignv":"0","interlin":-1.0,"Name":"1076"},"geometry":{"type":"Point","coordinates":[52.431696063251792,29.832353249635144]}},{"type":"Feature","properties":{"fid":98.0,"handle":"6353","block":"-1","etype":"25","space":"0","layer":"pelak","olinetype":"bylayer","linetype":null,"color":"255,0,0,255","ocolor":"1","color24":"-1","transparen":"0","lweight":"-1","linewidth":0.0,"ltscale":1.0,"visible":"1","thickness":0.0,"ext":"(3:0,0,1)","height":1.5,"text":"7701","angle":358.41263,"widthscale":1.0,"oblique":0.0,"style":"Standard","textgen":"0","alignh":"2","alignv":"0","interlin":-1.0,"Name":"1077"},"geometry":{"type":"Point","coordinates":[52.431529009995231,29.832344739047194]}},{"type":"Feature","properties":{"fid":99.0,"handle":"6354","block":"-1","etype":"25","space":"0","layer":"pelak","olinetype":"bylayer","linetype":null,"color":"255,0,0,255","ocolor":"1","color24":"-1","transparen":"0","lweight":"-1","linewidth":0.0,"ltscale":1.0,"visible":"1","thickness":0.0,"ext":"(3:0,0,1)","height":1.5,"text":"8701","angle":349.81968,"widthscale":1.0,"oblique":0.0,"style":"Standard","textgen":"0","alignh":"2","alignv":"0","interlin":-1.0,"Name":"1078"},"geometry":{"type":"Point","coordinates":[52.431431439126911,29.832348004908138]}},{"type":"Feature","properties":{"fid":100.0,"handle":"6355","block":"-1","etype":"25","space":"0","layer":"pelak","olinetype":"bylayer","linetype":null,"color":"255,0,0,255","ocolor":"1","color24":"-1","transparen":"0","lweight":"-1","linewidth":0.0,"ltscale":1.0,"visible":"1","thickness":0.0,"ext":"(3:0,0,1)","height":1.5,"text":"9701","angle":343.27491,"widthscale":1.0,"oblique":0.0,"style":"Standard","textgen":"0","alignh":"2","alignv":"0","interlin":-1.0,"Name":"1079"},"geometry":{"type":"Point","coordinates":[52.431337100260343,29.832379063581762]}},{"type":"Feature","properties":{"fid":101.0,"handle":"6356","block":"-1","etype":"25","space":"0","layer":"pelak","olinetype":"bylayer","linetype":null,"color":"255,0,0,255","ocolor":"1","color24":"-1","transparen":"0","lweight":"-1","linewidth":0.0,"ltscale":1.0,"visible":"1","thickness":0.0,"ext":"(3:0,0,1)","height":1.5,"text":"0801","angle":335.68853,"widthscale":1.0,"oblique":0.0,"style":"Standard","textgen":"0","alignh":"2","alignv":"0","interlin":-1.0,"Name":"1080"},"geometry":{"type":"Point","coordinates":[52.431256462965017,29.832410521111669]}},{"type":"Feature","properties":{"fid":102.0,"handle":"6357","block":"-1","etype":"25","space":"0","layer":"pelak","olinetype":"bylayer","linetype":null,"color":"255,0,0,255","ocolor":"1","color24":"-1","transparen":"0","lweight":"-1","linewidth":0.0,"ltscale":1.0,"visible":"1","thickness":0.0,"ext":"(3:0,0,1)","height":1.5,"text":"1801","angle":318.53565,"widthscale":1.0,"oblique":0.0,"style":"Standard","textgen":"0","alignh":"2","alignv":"0","interlin":-1.0,"Name":"1081"},"geometry":{"type":"Point","coordinates":[52.431006707422171,29.832528750452859]}},{"type":"Feature","properties":{"fid":103.0,"handle":"6358","block":"-1","etype":"25","space":"0","layer":"pelak","olinetype":"bylayer","linetype":null,"color":"255,0,0,255","ocolor":"1","color24":"-1","transparen":"0","lweight":"-1","linewidth":0.0,"ltscale":1.0,"visible":"1","thickness":0.0,"ext":"(3:0,0,1)","height":1.5,"text":"2801","angle":318.53565,"widthscale":1.0,"oblique":0.0,"style":"Standard","textgen":"0","alignh":"2","alignv":"0","interlin":-1.0,"Name":"1082"},"geometry":{"type":"Point","coordinates":[52.430935757859757,29.832594656384629]}},{"type":"Feature","properties":{"fid":104.0,"handle":"6359","block":"-1","etype":"25","space":"0","layer":"pelak","olinetype":"bylayer","linetype":null,"color":"255,0,0,255","ocolor":"1","color24":"-1","transparen":"0","lweight":"-1","linewidth":0.0,"ltscale":1.0,"visible":"1","thickness":0.0,"ext":"(3:0,0,1)","height":1.5,"text":"3801","angle":291.49393,"widthscale":1.0,"oblique":0.0,"style":"Standard","textgen":"0","alignh":"2","alignv":"0","interlin":-1.0,"Name":"1083"},"geometry":{"type":"Point","coordinates":[52.430880037136042,29.83270430675789]}},{"type":"Feature","properties":{"fid":105.0,"handle":"6360","block":"-1","etype":"25","space":"0","layer":"pelak","olinetype":"bylayer","linetype":null,"color":"255,0,0,255","ocolor":"1","color24":"-1","transparen":"0","lweight":"-1","linewidth":0.0,"ltscale":1.0,"visible":"1","thickness":0.0,"ext":"(3:0,0,1)","height":1.5,"text":"4801","angle":291.49393,"widthscale":1.0,"oblique":0.0,"style":"Standard","textgen":"0","alignh":"2","alignv":"0","interlin":-1.0,"Name":"1084"},"geometry":{"type":"Point","coordinates":[52.43085044520118,29.832831249530393]}},{"type":"Feature","properties":{"fid":106.0,"handle":"6361","block":"-1","etype":"25","space":"0","layer":"pelak","olinetype":"bylayer","linetype":null,"color":"255,0,0,255","ocolor":"1","color24":"-1","transparen":"0","lweight":"-1","linewidth":0.0,"ltscale":1.0,"visible":"1","thickness":0.0,"ext":"(3:0,0,1)","height":1.5,"text":"5801","angle":273.45147,"widthscale":1.0,"oblique":0.0,"style":"Standard","textgen":"0","alignh":"2","alignv":"0","interlin":-1.0,"Name":"1085"},"geometry":{"type":"Point","coordinates":[52.430834269229379,29.832919910914399]}},{"type":"Feature","properties":{"fid":107.0,"handle":"6362","block":"-1","etype":"25","space":"0","layer":"pelak","olinetype":"bylayer","linetype":null,"color":"255,0,0,255","ocolor":"1","color24":"-1","transparen":"0","lweight":"-1","linewidth":0.0,"ltscale":1.0,"visible":"1","thickness":0.0,"ext":"(3:0,0,1)","height":1.5,"text":"6801","angle":270.0,"widthscale":1.0,"oblique":0.0,"style":"Standard","textgen":"0","alignh":"2","alignv":"0","interlin":-1.0,"Name":"1086"},"geometry":{"type":"Point","coordinates":[52.43083597559346,29.833030096946977]}},{"type":"Feature","properties":{"fid":108.0,"handle":"6363","block":"-1","etype":"25","space":"0","layer":"pelak","olinetype":"bylayer","linetype":null,"color":"255,0,0,255","ocolor":"1","color24":"-1","transparen":"0","lweight":"-1","linewidth":0.0,"ltscale":1.0,"visible":"1","thickness":0.0,"ext":"(3:0,0,1)","height":1.5,"text":"7801","angle":270.0,"widthscale":1.0,"oblique":0.0,"style":"Standard","textgen":"0","alignh":"2","alignv":"0","interlin":-1.0,"Name":"1087"},"geometry":{"type":"Point","coordinates":[52.430844006609263,29.833142910155509]}},{"type":"Feature","properties":{"fid":109.0,"handle":"6364","block":"-1","etype":"25","space":"0","layer":"pelak","olinetype":"bylayer","linetype":null,"color":"255,0,0,255","ocolor":"1","color24":"-1","transparen":"0","lweight":"-1","linewidth":0.0,"ltscale":1.0,"visible":"1","thickness":0.0,"ext":"(3:0,0,1)","height":1.5,"text":"8801","angle":270.0,"widthscale":1.0,"oblique":0.0,"style":"Standard","textgen":"0","alignh":"2","alignv":"0","interlin":-1.0,"Name":"1088"},"geometry":{"type":"Point","coordinates":[52.43085533850369,29.833252570648909]}},{"type":"Feature","properties":{"fid":110.0,"handle":"6365","block":"-1","etype":"25","space":"0","layer":"pelak","olinetype":"bylayer","linetype":null,"color":"255,0,0,255","ocolor":"1","color24":"-1","transparen":"0","lweight":"-1","linewidth":0.0,"ltscale":1.0,"visible":"1","thickness":0.0,"ext":"(3:0,0,1)","height":1.5,"text":"9801","angle":227.13487,"widthscale":1.0,"oblique":0.0,"style":"Standard","textgen":"0","alignh":"2","alignv":"0","interlin":-1.0,"Name":"1089"},"geometry":{"type":"Point","coordinates":[52.430924585187384,29.833409637312883]}},{"type":"Feature","properties":{"fid":111.0,"handle":"6366","block":"-1","etype":"25","space":"0","layer":"pelak","olinetype":"bylayer","linetype":null,"color":"255,0,0,255","ocolor":"1","color24":"-1","transparen":"0","lweight":"-1","linewidth":0.0,"ltscale":1.0,"visible":"1","thickness":0.0,"ext":"(3:0,0,1)","height":1.5,"text":"0901","angle":320.77709,"widthscale":1.0,"oblique":0.0,"style":"Standard","textgen":"0","alignh":"2","alignv":"0","interlin":-1.0,"Name":"1090"},"geometry":{"type":"Point","coordinates":[52.429771882243038,29.832206076956322]}},{"type":"Feature","properties":{"fid":112.0,"handle":"6367","block":"-1","etype":"25","space":"0","layer":"pelak","olinetype":"bylayer","linetype":null,"color":"255,0,0,255","ocolor":"1","color24":"-1","transparen":"0","lweight":"-1","linewidth":0.0,"ltscale":1.0,"visible":"1","thickness":0.0,"ext":"(3:0,0,1)","height":1.5,"text":"1901","angle":320.77709,"widthscale":1.0,"oblique":0.0,"style":"Standard","textgen":"0","alignh":"2","alignv":"0","interlin":-1.0,"Name":"1091"},"geometry":{"type":"Point","coordinates":[52.429830446401652,29.832121768288768]}},{"type":"Feature","properties":{"fid":113.0,"handle":"6368","block":"-1","etype":"25","space":"0","layer":"pelak","olinetype":"bylayer","linetype":null,"color":"255,0,0,255","ocolor":"1","color24":"-1","transparen":"0","lweight":"-1","linewidth":0.0,"ltscale":1.0,"visible":"1","thickness":0.0,"ext":"(3:0,0,1)","height":1.5,"text":"2901","angle":320.77709,"widthscale":1.0,"oblique":0.0,"style":"Standard","textgen":"0","alignh":"2","alignv":"0","interlin":-1.0,"Name":"1092"},"geometry":{"type":"Point","coordinates":[52.429884652251104,29.832049140373012]}},{"type":"Feature","properties":{"fid":114.0,"handle":"6369","block":"-1","etype":"25","space":"0","layer":"pelak","olinetype":"bylayer","linetype":null,"color":"255,0,0,255","ocolor":"1","color24":"-1","transparen":"0","lweight":"-1","linewidth":0.0,"ltscale":1.0,"visible":"1","thickness":0.0,"ext":"(3:0,0,1)","height":1.5,"text":"3901","angle":320.77709,"widthscale":1.0,"oblique":0.0,"style":"Standard","textgen":"0","alignh":"2","alignv":"0","interlin":-1.0,"Name":"1093"},"geometry":{"type":"Point","coordinates":[52.429955241036829,29.831978978811598]}},{"type":"Feature","properties":{"fid":115.0,"handle":"6370","block":"-1","etype":"25","space":"0","layer":"pelak","olinetype":"bylayer","linetype":null,"color":"255,0,0,255","ocolor":"1","color24":"-1","transparen":"0","lweight":"-1","linewidth":0.0,"ltscale":1.0,"visible":"1","thickness":0.0,"ext":"(3:0,0,1)","height":1.5,"text":"4901","angle":342.0508,"widthscale":1.0,"oblique":0.0,"style":"Standard","textgen":"0","alignh":"2","alignv":"0","interlin":-1.0,"Name":"1094"},"geometry":{"type":"Point","coordinates":[52.430109007593195,29.831926113653171]}},{"type":"Feature","properties":{"fid":116.0,"handle":"6371","block":"-1","etype":"25","space":"0","layer":"pelak","olinetype":"bylayer","linetype":null,"color":"255,0,0,255","ocolor":"1","color24":"-1","transparen":"0","lweight":"-1","linewidth":0.0,"ltscale":1.0,"visible":"1","thickness":0.0,"ext":"(3:0,0,1)","height":1.5,"text":"5901","angle":354.53552,"widthscale":1.0,"oblique":0.0,"style":"Standard","textgen":"0","alignh":"2","alignv":"0","interlin":-1.0,"Name":"1095"},"geometry":{"type":"Point","coordinates":[52.430211200872108,29.831911051205935]}},{"type":"Feature","properties":{"fid":117.0,"handle":"6372","block":"-1","etype":"25","space":"0","layer":"pelak","olinetype":"bylayer","linetype":null,"color":"255,0,0,255","ocolor":"1","color24":"-1","transparen":"0","lweight":"-1","linewidth":0.0,"ltscale":1.0,"visible":"1","thickness":0.0,"ext":"(3:0,0,1)","height":1.5,"text":"6901","angle":354.53552,"widthscale":1.0,"oblique":0.0,"style":"Standard","textgen":"0","alignh":"2","alignv":"0","interlin":-1.0,"Name":"1096"},"geometry":{"type":"Point","coordinates":[52.430311220559574,29.831917350581584]}},{"type":"Feature","properties":{"fid":118.0,"handle":"6373","block":"-1","etype":"25","space":"0","layer":"pelak","olinetype":"bylayer","linetype":null,"color":"255,0,0,255","ocolor":"1","color24":"-1","transparen":"0","lweight":"-1","linewidth":0.0,"ltscale":1.0,"visible":"1","thickness":0.0,"ext":"(3:0,0,1)","height":1.5,"text":"7901","angle":349.48222,"widthscale":1.0,"oblique":0.0,"style":"Standard","textgen":"0","alignh":"2","alignv":"0","interlin":-1.0,"Name":"1097"},"geometry":{"type":"Point","coordinates":[52.430036767384806,29.831576494339352]}},{"type":"Feature","properties":{"fid":119.0,"handle":"6374","block":"-1","etype":"25","space":"0","layer":"pelak","olinetype":"bylayer","linetype":null,"color":"255,0,0,255","ocolor":"1","color24":"-1","transparen":"0","lweight":"-1","linewidth":0.0,"ltscale":1.0,"visible":"1","thickness":0.0,"ext":"(3:0,0,1)","height":1.5,"text":"8901","angle":1.74926,"widthscale":1.0,"oblique":0.0,"style":"Standard","textgen":"0","alignh":"2","alignv":"0","interlin":-1.0,"Name":"1098"},"geometry":{"type":"Point","coordinates":[52.430125326492032,29.831571258282349]}},{"type":"Feature","properties":{"fid":120.0,"handle":"6375","block":"-1","etype":"25","space":"0","layer":"pelak","olinetype":"bylayer","linetype":null,"color":"255,0,0,255","ocolor":"1","color24":"-1","transparen":"0","lweight":"-1","linewidth":0.0,"ltscale":1.0,"visible":"1","thickness":0.0,"ext":"(3:0,0,1)","height":1.5,"text":"9901","angle":1.74926,"widthscale":1.0,"oblique":0.0,"style":"Standard","textgen":"0","alignh":"2","alignv":"0","interlin":-1.0,"Name":"1099"},"geometry":{"type":"Point","coordinates":[52.430207543297527,29.831572470843334]}},{"type":"Feature","properties":{"fid":121.0,"handle":"6376","block":"-1","etype":"25","space":"0","layer":"pelak","olinetype":"bylayer","linetype":null,"color":"255,0,0,255","ocolor":"1","color24":"-1","transparen":"0","lweight":"-1","linewidth":0.0,"ltscale":1.0,"visible":"1","thickness":0.0,"ext":"(3:0,0,1)","height":1.5,"text":"0111","angle":7.30927,"widthscale":1.0,"oblique":0.0,"style":"Standard","textgen":"0","alignh":"2","alignv":"0","interlin":-1.0,"Name":"1110"},"geometry":{"type":"Point","coordinates":[52.430299465109101,29.831577406247852]}},{"type":"Feature","properties":{"fid":122.0,"handle":"6377","block":"-1","etype":"25","space":"0","layer":"pelak","olinetype":"bylayer","linetype":null,"color":"255,0,0,255","ocolor":"1","color24":"-1","transparen":"0","lweight":"-1","linewidth":0.0,"ltscale":1.0,"visible":"1","thickness":0.0,"ext":"(3:0,0,1)","height":1.5,"text":"1011","angle":7.30927,"widthscale":1.0,"oblique":0.0,"style":"Standard","textgen":"0","alignh":"2","alignv":"0","interlin":-1.0,"Name":"1101"},"geometry":{"type":"Point","coordinates":[52.430449019233762,29.831578143342458]}},{"type":"Feature","properties":{"fid":123.0,"handle":"6378","block":"-1","etype":"25","space":"0","layer":"pelak","olinetype":"bylayer","linetype":null,"color":"255,0,0,255","ocolor":"1","color24":"-1","transparen":"0","lweight":"-1","linewidth":0.0,"ltscale":1.0,"visible":"1","thickness":0.0,"ext":"(3:0,0,1)","height":1.5,"text":"2011","angle":27.13719,"widthscale":1.0,"oblique":0.0,"style":"Standard","textgen":"0","alignh":"2","alignv":"0","interlin":-1.0,"Name":"1102"},"geometry":{"type":"Point","coordinates":[52.430540481147268,29.831609210252125]}},{"type":"Feature","properties":{"fid":124.0,"handle":"6379","block":"-1","etype":"25","space":"0","layer":"pelak","olinetype":"bylayer","linetype":null,"color":"255,0,0,255","ocolor":"1","color24":"-1","transparen":"0","lweight":"-1","linewidth":0.0,"ltscale":1.0,"visible":"1","thickness":0.0,"ext":"(3:0,0,1)","height":1.5,"text":"3011","angle":27.13719,"widthscale":1.0,"oblique":0.0,"style":"Standard","textgen":"0","alignh":"2","alignv":"0","interlin":-1.0,"Name":"1103"},"geometry":{"type":"Point","coordinates":[52.430624502499256,29.831651789755959]}},{"type":"Feature","properties":{"fid":125.0,"handle":"6380","block":"-1","etype":"25","space":"0","layer":"pelak","olinetype":"bylayer","linetype":null,"color":"255,0,0,255","ocolor":"1","color24":"-1","transparen":"0","lweight":"-1","linewidth":0.0,"ltscale":1.0,"visible":"1","thickness":0.0,"ext":"(3:0,0,1)","height":1.5,"text":"4011","angle":27.13719,"widthscale":1.0,"oblique":0.0,"style":"Standard","textgen":"0","alignh":"2","alignv":"0","interlin":-1.0,"Name":"1104"},"geometry":{"type":"Point","coordinates":[52.430706705690831,29.831695267238182]}},{"type":"Feature","properties":{"fid":126.0,"handle":"6381","block":"-1","etype":"25","space":"0","layer":"pelak","olinetype":"bylayer","linetype":null,"color":"255,0,0,255","ocolor":"1","color24":"-1","transparen":"0","lweight":"-1","linewidth":0.0,"ltscale":1.0,"visible":"1","thickness":0.0,"ext":"(3:0,0,1)","height":1.5,"text":"5011","angle":337.09463,"widthscale":1.0,"oblique":0.0,"style":"Standard","textgen":"0","alignh":"2","alignv":"0","interlin":-1.0,"Name":"1105"},"geometry":{"type":"Point","coordinates":[52.430987232404931,29.831652833726707]}},{"type":"Feature","properties":{"fid":127.0,"handle":"6382","block":"-1","etype":"25","space":"0","layer":"pelak","olinetype":"bylayer","linetype":null,"color":"255,0,0,255","ocolor":"1","color24":"-1","transparen":"0","lweight":"-1","linewidth":0.0,"ltscale":1.0,"visible":"1","thickness":0.0,"ext":"(3:0,0,1)","height":1.5,"text":"6011","angle":323.73018,"widthscale":1.0,"oblique":0.0,"style":"Standard","textgen":"0","alignh":"2","alignv":"0","interlin":-1.0,"Name":"1106"},"geometry":{"type":"Point","coordinates":[52.431052676398657,29.831574778282565]}},{"type":"Feature","properties":{"fid":128.0,"handle":"6383","block":"-1","etype":"25","space":"0","layer":"pelak","olinetype":"bylayer","linetype":null,"color":"255,0,0,255","ocolor":"1","color24":"-1","transparen":"0","lweight":"-1","linewidth":0.0,"ltscale":1.0,"visible":"1","thickness":0.0,"ext":"(3:0,0,1)","height":1.5,"text":"7011","angle":337.09463,"widthscale":1.0,"oblique":0.0,"style":"Standard","textgen":"0","alignh":"2","alignv":"0","interlin":-1.0,"Name":"1107"},"geometry":{"type":"Point","coordinates":[52.431136799089323,29.831511964498063]}},{"type":"Feature","properties":{"fid":129.0,"handle":"6384","block":"-1","etype":"25","space":"0","layer":"pelak","olinetype":"bylayer","linetype":null,"color":"255,0,0,255","ocolor":"1","color24":"-1","transparen":"0","lweight":"-1","linewidth":0.0,"ltscale":1.0,"visible":"1","thickness":0.0,"ext":"(3:0,0,1)","height":1.5,"text":"8011","angle":337.09463,"widthscale":1.0,"oblique":0.0,"style":"Standard","textgen":"0","alignh":"2","alignv":"0","interlin":-1.0,"Name":"1108"},"geometry":{"type":"Point","coordinates":[52.431287061195,29.831520733839294]}},{"type":"Feature","properties":{"fid":130.0,"handle":"6385","block":"-1","etype":"25","space":"0","layer":"pelak","olinetype":"bylayer","linetype":null,"color":"255,0,0,255","ocolor":"1","color24":"-1","transparen":"0","lweight":"-1","linewidth":0.0,"ltscale":1.0,"visible":"1","thickness":0.0,"ext":"(3:0,0,1)","height":1.5,"text":"9011","angle":0.0,"widthscale":1.0,"oblique":0.0,"style":"Standard","textgen":"0","alignh":"2","alignv":"0","interlin":-1.0,"Name":"1109"},"geometry":{"type":"Point","coordinates":[52.431383410572344,29.831478639270994]}},{"type":"Feature","properties":{"fid":131.0,"handle":"6386","block":"-1","etype":"25","space":"0","layer":"pelak","olinetype":"bylayer","linetype":null,"color":"255,0,0,255","ocolor":"1","color24":"-1","transparen":"0","lweight":"-1","linewidth":0.0,"ltscale":1.0,"visible":"1","thickness":0.0,"ext":"(3:0,0,1)","height":1.5,"text":"0111","angle":2.31602,"widthscale":1.0,"oblique":0.0,"style":"Standard","textgen":"0","alignh":"2","alignv":"0","interlin":-1.0,"Name":"1110"},"geometry":{"type":"Point","coordinates":[52.431485839533536,29.831464563476498]}},{"type":"Feature","properties":{"fid":132.0,"handle":"6387","block":"-1","etype":"25","space":"0","layer":"pelak","olinetype":"bylayer","linetype":null,"color":"255,0,0,255","ocolor":"1","color24":"-1","transparen":"0","lweight":"-1","linewidth":0.0,"ltscale":1.0,"visible":"1","thickness":0.0,"ext":"(3:0,0,1)","height":1.5,"text":"1111","angle":17.18508,"widthscale":1.0,"oblique":0.0,"style":"Standard","textgen":"0","alignh":"2","alignv":"0","interlin":-1.0,"Name":"1111"},"geometry":{"type":"Point","coordinates":[52.431672024749965,29.831546600961858]}},{"type":"Feature","properties":{"fid":133.0,"handle":"6388","block":"-1","etype":"25","space":"0","layer":"pelak","olinetype":"bylayer","linetype":null,"color":"255,0,0,255","ocolor":"1","color24":"-1","transparen":"0","lweight":"-1","linewidth":0.0,"ltscale":1.0,"visible":"1","thickness":0.0,"ext":"(3:0,0,1)","height":1.5,"text":"2111","angle":17.18508,"widthscale":1.0,"oblique":0.0,"style":"Standard","textgen":"0","alignh":"2","alignv":"0","interlin":-1.0,"Name":"1112"},"geometry":{"type":"Point","coordinates":[52.431770069985461,29.831562871338313]}},{"type":"Feature","properties":{"fid":134.0,"handle":"6389","block":"-1","etype":"25","space":"0","layer":"pelak","olinetype":"bylayer","linetype":null,"color":"255,0,0,255","ocolor":"1","color24":"-1","transparen":"0","lweight":"-1","linewidth":0.0,"ltscale":1.0,"visible":"1","thickness":0.0,"ext":"(3:0,0,1)","height":1.5,"text":"3111","angle":36.15412,"widthscale":1.0,"oblique":0.0,"style":"Standard","textgen":"0","alignh":"2","alignv":"0","interlin":-1.0,"Name":"1113"},"geometry":{"type":"Point","coordinates":[52.43186509459953,29.831583786493397]}},{"type":"Feature","properties":{"fid":135.0,"handle":"6390","block":"-1","etype":"25","space":"0","layer":"pelak","olinetype":"bylayer","linetype":null,"color":"255,0,0,255","ocolor":"1","color24":"-1","transparen":"0","lweight":"-1","linewidth":0.0,"ltscale":1.0,"visible":"1","thickness":0.0,"ext":"(3:0,0,1)","height":1.5,"text":"4111","angle":36.47525,"widthscale":1.0,"oblique":0.0,"style":"Standard","textgen":"0","alignh":"2","alignv":"0","interlin":-1.0,"Name":"1114"},"geometry":{"type":"Point","coordinates":[52.431950940889102,29.831625396025153]}},{"type":"Feature","properties":{"fid":136.0,"handle":"6391","block":"-1","etype":"25","space":"0","layer":"pelak","olinetype":"bylayer","linetype":null,"color":"255,0,0,255","ocolor":"1","color24":"-1","transparen":"0","lweight":"-1","linewidth":0.0,"ltscale":1.0,"visible":"1","thickness":0.0,"ext":"(3:0,0,1)","height":1.5,"text":"5111","angle":47.1349,"widthscale":1.0,"oblique":0.0,"style":"Standard","textgen":"0","alignh":"2","alignv":"0","interlin":-1.0,"Name":"1115"},"geometry":{"type":"Point","coordinates":[52.432070806193295,29.831721716693007]}},{"type":"Feature","properties":{"fid":137.0,"handle":"6392","block":"-1","etype":"25","space":"0","layer":"pelak","olinetype":"bylayer","linetype":null,"color":"255,0,0,255","ocolor":"1","color24":"-1","transparen":"0","lweight":"-1","linewidth":0.0,"ltscale":1.0,"visible":"1","thickness":0.0,"ext":"(3:0,0,1)","height":1.5,"text":"6111","angle":47.1349,"widthscale":1.0,"oblique":0.0,"style":"Standard","textgen":"0","alignh":"2","alignv":"0","interlin":-1.0,"Name":"1116"},"geometry":{"type":"Point","coordinates":[52.432157988951701,29.83177974068894]}},{"type":"Feature","properties":{"fid":138.0,"handle":"6393","block":"-1","etype":"25","space":"0","layer":"pelak","olinetype":"bylayer","linetype":null,"color":"255,0,0,255","ocolor":"1","color24":"-1","transparen":"0","lweight":"-1","linewidth":0.0,"ltscale":1.0,"visible":"1","thickness":0.0,"ext":"(3:0,0,1)","height":1.5,"text":"7111","angle":47.1349,"widthscale":1.0,"oblique":0.0,"style":"Standard","textgen":"0","alignh":"2","alignv":"0","interlin":-1.0,"Name":"1117"},"geometry":{"type":"Point","coordinates":[52.432240965164155,29.831834351830164]}},{"type":"Feature","properties":{"fid":139.0,"handle":"6394","block":"-1","etype":"25","space":"0","layer":"pelak","olinetype":"bylayer","linetype":null,"color":"255,0,0,255","ocolor":"1","color24":"-1","transparen":"0","lweight":"-1","linewidth":0.0,"ltscale":1.0,"visible":"1","thickness":0.0,"ext":"(3:0,0,1)","height":1.5,"text":"8111","angle":47.1349,"widthscale":1.0,"oblique":0.0,"style":"Standard","textgen":"0","alignh":"2","alignv":"0","interlin":-1.0,"Name":"1118"},"geometry":{"type":"Point","coordinates":[52.432300471231493,29.831940567336499]}},{"type":"Feature","properties":{"fid":140.0,"handle":"6395","block":"-1","etype":"25","space":"0","layer":"pelak","olinetype":"bylayer","linetype":null,"color":"255,0,0,255","ocolor":"1","color24":"-1","transparen":"0","lweight":"-1","linewidth":0.0,"ltscale":1.0,"visible":"1","thickness":0.0,"ext":"(3:0,0,1)","height":1.5,"text":"9111","angle":56.24725,"widthscale":1.0,"oblique":0.0,"style":"Standard","textgen":"0","alignh":"2","alignv":"0","interlin":-1.0,"Name":"1119"},"geometry":{"type":"Point","coordinates":[52.432374780310006,29.8320026918088]}},{"type":"Feature","properties":{"fid":141.0,"handle":"6396","block":"-1","etype":"25","space":"0","layer":"pelak","olinetype":"bylayer","linetype":null,"color":"255,0,0,255","ocolor":"1","color24":"-1","transparen":"0","lweight":"-1","linewidth":0.0,"ltscale":1.0,"visible":"1","thickness":0.0,"ext":"(3:0,0,1)","height":1.5,"text":"0211","angle":56.24725,"widthscale":1.0,"oblique":0.0,"style":"Standard","textgen":"0","alignh":"2","alignv":"0","interlin":-1.0,"Name":"1120"},"geometry":{"type":"Point","coordinates":[52.43244823149751,29.832071958679204]}},{"type":"Feature","properties":{"fid":142.0,"handle":"6397","block":"-1","etype":"25","space":"0","layer":"pelak","olinetype":"bylayer","linetype":null,"color":"255,0,0,255","ocolor":"1","color24":"-1","transparen":"0","lweight":"-1","linewidth":0.0,"ltscale":1.0,"visible":"1","thickness":0.0,"ext":"(3:0,0,1)","height":1.5,"text":"1211","angle":38.22405,"widthscale":1.0,"oblique":0.0,"style":"Standard","textgen":"0","alignh":"2","alignv":"0","interlin":-1.0,"Name":"1121"},"geometry":{"type":"Point","coordinates":[52.432080954119918,29.831420733364276]}},{"type":"Feature","properties":{"fid":143.0,"handle":"6398","block":"-1","etype":"25","space":"0","layer":"pelak","olinetype":"bylayer","linetype":null,"color":"255,0,0,255","ocolor":"1","color24":"-1","transparen":"0","lweight":"-1","linewidth":0.0,"ltscale":1.0,"visible":"1","thickness":0.0,"ext":"(3:0,0,1)","height":1.5,"text":"2211","angle":38.22405,"widthscale":1.0,"oblique":0.0,"style":"Standard","textgen":"0","alignh":"2","alignv":"0","interlin":-1.0,"Name":"1122"},"geometry":{"type":"Point","coordinates":[52.432004615177377,29.831375204915346]}},{"type":"Feature","properties":{"fid":144.0,"handle":"6399","block":"-1","etype":"25","space":"0","layer":"pelak","olinetype":"bylayer","linetype":null,"color":"255,0,0,255","ocolor":"1","color24":"-1","transparen":"0","lweight":"-1","linewidth":0.0,"ltscale":1.0,"visible":"1","thickness":0.0,"ext":"(3:0,0,1)","height":1.5,"text":"3211","angle":33.22301,"widthscale":1.0,"oblique":0.0,"style":"Standard","textgen":"0","alignh":"2","alignv":"0","interlin":-1.0,"Name":"1123"},"geometry":{"type":"Point","coordinates":[52.431927461998022,29.831329562240867]}},{"type":"Feature","properties":{"fid":145.0,"handle":"6400","block":"-1","etype":"25","space":"0","layer":"pelak","olinetype":"bylayer","linetype":null,"color":"255,0,0,255","ocolor":"1","color24":"-1","transparen":"0","lweight":"-1","linewidth":0.0,"ltscale":1.0,"visible":"1","thickness":0.0,"ext":"(3:0,0,1)","height":1.5,"text":"4211","angle":23.14947,"widthscale":1.0,"oblique":0.0,"style":"Standard","textgen":"0","alignh":"2","alignv":"0","interlin":-1.0,"Name":"1124"},"geometry":{"type":"Point","coordinates":[52.431799574228059,29.831260569488787]}},{"type":"Feature","properties":{"fid":146.0,"handle":"6401","block":"-1","etype":"25","space":"0","layer":"pelak","olinetype":"bylayer","linetype":null,"color":"255,0,0,255","ocolor":"1","color24":"-1","transparen":"0","lweight":"-1","linewidth":0.0,"ltscale":1.0,"visible":"1","thickness":0.0,"ext":"(3:0,0,1)","height":1.5,"text":"5211","angle":23.14947,"widthscale":1.0,"oblique":0.0,"style":"Standard","textgen":"0","alignh":"2","alignv":"0","interlin":-1.0,"Name":"1125"},"geometry":{"type":"Point","coordinates":[52.431704430897987,29.831241946507394]}},{"type":"Feature","properties":{"fid":147.0,"handle":"6402","block":"-1","etype":"25","space":"0","layer":"pelak","olinetype":"bylayer","linetype":null,"color":"255,0,0,255","ocolor":"1","color24":"-1","transparen":"0","lweight":"-1","linewidth":0.0,"ltscale":1.0,"visible":"1","thickness":0.0,"ext":"(3:0,0,1)","height":1.5,"text":"6211","angle":9.32305,"widthscale":1.0,"oblique":0.0,"style":"Standard","textgen":"0","alignh":"2","alignv":"0","interlin":-1.0,"Name":"1126"},"geometry":{"type":"Point","coordinates":[52.431610797146149,29.831221816626353]}},{"type":"Feature","properties":{"fid":148.0,"handle":"6403","block":"-1","etype":"25","space":"0","layer":"pelak","olinetype":"bylayer","linetype":null,"color":"255,0,0,255","ocolor":"1","color24":"-1","transparen":"0","lweight":"-1","linewidth":0.0,"ltscale":1.0,"visible":"1","thickness":0.0,"ext":"(3:0,0,1)","height":1.5,"text":"7211","angle":1.47795,"widthscale":1.0,"oblique":0.0,"style":"Standard","textgen":"0","alignh":"2","alignv":"0","interlin":-1.0,"Name":"1127"},"geometry":{"type":"Point","coordinates":[52.431467148708521,29.831189618225945]}},{"type":"Feature","properties":{"fid":149.0,"handle":"6404","block":"-1","etype":"25","space":"0","layer":"pelak","olinetype":"bylayer","linetype":null,"color":"255,0,0,255","ocolor":"1","color24":"-1","transparen":"0","lweight":"-1","linewidth":0.0,"ltscale":1.0,"visible":"1","thickness":0.0,"ext":"(3:0,0,1)","height":1.5,"text":"8211","angle":351.37728,"widthscale":1.0,"oblique":0.0,"style":"Standard","textgen":"0","alignh":"2","alignv":"0","interlin":-1.0,"Name":"1128"},"geometry":{"type":"Point","coordinates":[52.431378166420089,29.831203357589633]}},{"type":"Feature","properties":{"fid":150.0,"handle":"6405","block":"-1","etype":"25","space":"0","layer":"pelak","olinetype":"bylayer","linetype":null,"color":"255,0,0,255","ocolor":"1","color24":"-1","transparen":"0","lweight":"-1","linewidth":0.0,"ltscale":1.0,"visible":"1","thickness":0.0,"ext":"(3:0,0,1)","height":1.5,"text":"9211","angle":345.01143,"widthscale":1.0,"oblique":0.0,"style":"Standard","textgen":"0","alignh":"2","alignv":"0","interlin":-1.0,"Name":"1129"},"geometry":{"type":"Point","coordinates":[52.431272740921791,29.831230478890976]}},{"type":"Feature","properties":{"fid":151.0,"handle":"6406","block":"-1","etype":"25","space":"0","layer":"pelak","olinetype":"bylayer","linetype":null,"color":"255,0,0,255","ocolor":"1","color24":"-1","transparen":"0","lweight":"-1","linewidth":0.0,"ltscale":1.0,"visible":"1","thickness":0.0,"ext":"(3:0,0,1)","height":1.5,"text":"0311","angle":343.04708,"widthscale":1.0,"oblique":0.0,"style":"Standard","textgen":"0","alignh":"2","alignv":"0","interlin":-1.0,"Name":"1130"},"geometry":{"type":"Point","coordinates":[52.431112960605105,29.831252530915251]}},{"type":"Feature","properties":{"fid":152.0,"handle":"6407","block":"-1","etype":"25","space":"0","layer":"pelak","olinetype":"bylayer","linetype":null,"color":"255,0,0,255","ocolor":"1","color24":"-1","transparen":"0","lweight":"-1","linewidth":0.0,"ltscale":1.0,"visible":"1","thickness":0.0,"ext":"(3:0,0,1)","height":1.5,"text":"1311","angle":331.83917,"widthscale":1.0,"oblique":0.0,"style":"Standard","textgen":"0","alignh":"2","alignv":"0","interlin":-1.0,"Name":"1131"},"geometry":{"type":"Point","coordinates":[52.431022132152187,29.831302715529446]}},{"type":"Feature","properties":{"fid":153.0,"handle":"6408","block":"-1","etype":"25","space":"0","layer":"pelak","olinetype":"bylayer","linetype":null,"color":"255,0,0,255","ocolor":"1","color24":"-1","transparen":"0","lweight":"-1","linewidth":0.0,"ltscale":1.0,"visible":"1","thickness":0.0,"ext":"(3:0,0,1)","height":1.5,"text":"2311","angle":331.83917,"widthscale":1.0,"oblique":0.0,"style":"Standard","textgen":"0","alignh":"2","alignv":"0","interlin":-1.0,"Name":"1132"},"geometry":{"type":"Point","coordinates":[52.430937114175201,29.831367195518407]}},{"type":"Feature","properties":{"fid":154.0,"handle":"6409","block":"-1","etype":"25","space":"0","layer":"pelak","olinetype":"bylayer","linetype":null,"color":"255,0,0,255","ocolor":"1","color24":"-1","transparen":"0","lweight":"-1","linewidth":0.0,"ltscale":1.0,"visible":"1","thickness":0.0,"ext":"(3:0,0,1)","height":1.5,"text":"3311","angle":10.85778,"widthscale":1.0,"oblique":0.0,"style":"Standard","textgen":"0","alignh":"2","alignv":"0","interlin":-1.0,"Name":"1133"},"geometry":{"type":"Point","coordinates":[52.430743187560701,29.831427544970545]}},{"type":"Feature","properties":{"fid":155.0,"handle":"6410","block":"-1","etype":"25","space":"0","layer":"pelak","olinetype":"bylayer","linetype":null,"color":"255,0,0,255","ocolor":"1","color24":"-1","transparen":"0","lweight":"-1","linewidth":0.0,"ltscale":1.0,"visible":"1","thickness":0.0,"ext":"(3:0,0,1)","height":1.5,"text":"4311","angle":14.41626,"widthscale":1.0,"oblique":0.0,"style":"Standard","textgen":"0","alignh":"2","alignv":"0","interlin":-1.0,"Name":"1134"},"geometry":{"type":"Point","coordinates":[52.430651406961395,29.831388472285241]}},{"type":"Feature","properties":{"fid":156.0,"handle":"6411","block":"-1","etype":"25","space":"0","layer":"pelak","olinetype":"bylayer","linetype":null,"color":"255,0,0,255","ocolor":"1","color24":"-1","transparen":"0","lweight":"-1","linewidth":0.0,"ltscale":1.0,"visible":"1","thickness":0.0,"ext":"(3:0,0,1)","height":1.5,"text":"5311","angle":4.85835,"widthscale":1.0,"oblique":0.0,"style":"Standard","textgen":"0","alignh":"2","alignv":"0","interlin":-1.0,"Name":"1135"},"geometry":{"type":"Point","coordinates":[52.430562616807492,29.831360506390872]}},{"type":"Feature","properties":{"fid":157.0,"handle":"6412","block":"-1","etype":"25","space":"0","layer":"pelak","olinetype":"bylayer","linetype":null,"color":"255,0,0,255","ocolor":"1","color24":"-1","transparen":"0","lweight":"-1","linewidth":0.0,"ltscale":1.0,"visible":"1","thickness":0.0,"ext":"(3:0,0,1)","height":1.5,"text":"6311","angle":359.27806,"widthscale":1.0,"oblique":0.0,"style":"Standard","textgen":"0","alignh":"2","alignv":"0","interlin":-1.0,"Name":"1136"},"geometry":{"type":"Point","coordinates":[52.430415352972211,29.831369858396798]}},{"type":"Feature","properties":{"fid":644.0,"handle":"7010","block":"-1","etype":"25","space":"0","layer":"pelak","olinetype":"bylayer","linetype":null,"color":"255,0,0,255","ocolor":"1","color24":"-1","transparen":"0","lweight":"-1","linewidth":0.0,"ltscale":1.0,"visible":"1","thickness":0.0,"ext":"(3:0,0,1)","height":1.5,"text":"56","angle":110.64948,"widthscale":1.0,"oblique":0.0,"style":"Standard","textgen":"0","alignh":"2","alignv":"0","interlin":-1.0,"Name":"65"},"geometry":{"type":"Point","coordinates":[52.432479676777362,29.833372514635265]}},{"type":"Feature","properties":{"fid":645.0,"handle":"7012","block":"-1","etype":"25","space":"0","layer":"pelak","olinetype":"bylayer","linetype":null,"color":"255,0,0,255","ocolor":"1","color24":"-1","transparen":"0","lweight":"-1","linewidth":0.0,"ltscale":1.0,"visible":"1","thickness":0.0,"ext":"(3:0,0,1)","height":1.5,"text":"66","angle":38.62142,"widthscale":1.0,"oblique":0.0,"style":"Standard","textgen":"0","alignh":"2","alignv":"0","interlin":-1.0,"Name":"66"},"geometry":{"type":"Point","coordinates":[52.432460476196226,29.832936004135693]}},{"type":"Feature","properties":{"fid":646.0,"handle":"7017","block":"-1","etype":"25","space":"0","layer":"pelak","olinetype":"bylayer","linetype":null,"color":"255,0,0,255","ocolor":"1","color24":"-1","transparen":"0","lweight":"-1","linewidth":0.0,"ltscale":1.0,"visible":"1","thickness":0.0,"ext":"(3:0,0,1)","height":1.5,"text":"76","angle":58.3041,"widthscale":1.0,"oblique":0.0,"style":"Standard","textgen":"0","alignh":"2","alignv":"0","interlin":-1.0,"Name":"67"},"geometry":{"type":"Point","coordinates":[52.432006072280963,29.832214705129051]}},{"type":"Feature","properties":{"fid":647.0,"handle":"7018","block":"-1","etype":"25","space":"0","layer":"pelak","olinetype":"bylayer","linetype":null,"color":"255,0,0,255","ocolor":"1","color24":"-1","transparen":"0","lweight":"-1","linewidth":0.0,"ltscale":1.0,"visible":"1","thickness":0.0,"ext":"(3:0,0,1)","height":1.5,"text":"86","angle":35.92963,"widthscale":1.0,"oblique":0.0,"style":"Standard","textgen":"0","alignh":"2","alignv":"0","interlin":-1.0,"Name":"68"},"geometry":{"type":"Point","coordinates":[52.431738623256642,29.831980896700109]}},{"type":"Feature","properties":{"fid":648.0,"handle":"7019","block":"-1","etype":"25","space":"0","layer":"pelak","olinetype":"bylayer","linetype":null,"color":"255,0,0,255","ocolor":"1","color24":"-1","transparen":"0","lweight":"-1","linewidth":0.0,"ltscale":1.0,"visible":"1","thickness":0.0,"ext":"(3:0,0,1)","height":1.5,"text":"96","angle":331.99878,"widthscale":1.0,"oblique":0.0,"style":"Standard","textgen":"0","alignh":"2","alignv":"0","interlin":-1.0,"Name":"69"},"geometry":{"type":"Point","coordinates":[52.431303556343991,29.831962802893013]}},{"type":"Feature","properties":{"fid":649.0,"handle":"7020","block":"-1","etype":"25","space":"0","layer":"pelak","olinetype":"bylayer","linetype":null,"color":"255,0,0,255","ocolor":"1","color24":"-1","transparen":"0","lweight":"-1","linewidth":0.0,"ltscale":1.0,"visible":"1","thickness":0.0,"ext":"(3:0,0,1)","height":1.5,"text":"07","angle":13.02137,"widthscale":1.0,"oblique":0.0,"style":"Standard","textgen":"0","alignh":"2","alignv":"0","interlin":-1.0,"Name":"70"},"geometry":{"type":"Point","coordinates":[52.430496804477983,29.831997192319022]}},{"type":"Feature","properties":{"fid":769.0,"handle":"7394","block":"-1","etype":"25","space":"0","layer":"pelak","olinetype":"bylayer","linetype":null,"color":"255,0,0,255","ocolor":"1","color24":"-1","transparen":"0","lweight":"-1","linewidth":0.0,"ltscale":1.0,"visible":"1","thickness":0.0,"ext":"(3:0,0,1)","height":1.5,"text":"331","angle":334.26374,"widthscale":1.0,"oblique":0.0,"style":"Standard","textgen":"0","alignh":"2","alignv":"0","interlin":-1.0,"Name":"133"},"geometry":{"type":"Point","coordinates":[52.43346285228219,29.830767290815455]}},{"type":"Feature","properties":{"fid":770.0,"handle":"7395","block":"-1","etype":"25","space":"0","layer":"pelak","olinetype":"bylayer","linetype":null,"color":"255,0,0,255","ocolor":"1","color24":"-1","transparen":"0","lweight":"-1","linewidth":0.0,"ltscale":1.0,"visible":"1","thickness":0.0,"ext":"(3:0,0,1)","height":1.5,"text":"241","angle":334.26374,"widthscale":1.0,"oblique":0.0,"style":"Standard","textgen":"0","alignh":"2","alignv":"0","interlin":-1.0,"Name":"142"},"geometry":{"type":"Point","coordinates":[52.433305151772181,29.830548278795284]}},{"type":"Feature","properties":{"fid":771.0,"handle":"7396","block":"-1","etype":"25","space":"0","layer":"pelak","olinetype":"bylayer","linetype":null,"color":"255,0,0,255","ocolor":"1","color24":"-1","transparen":"0","lweight":"-1","linewidth":0.0,"ltscale":1.0,"visible":"1","thickness":0.0,"ext":"(3:0,0,1)","height":1.5,"text":"341","angle":334.26374,"widthscale":1.0,"oblique":0.0,"style":"Standard","textgen":"0","alignh":"2","alignv":"0","interlin":-1.0,"Name":"143"},"geometry":{"type":"Point","coordinates":[52.433436308702014,29.830480911116013]}},{"type":"Feature","properties":{"fid":772.0,"handle":"7397","block":"-1","etype":"25","space":"0","layer":"pelak","olinetype":"bylayer","linetype":null,"color":"255,0,0,255","ocolor":"1","color24":"-1","transparen":"0","lweight":"-1","linewidth":0.0,"ltscale":1.0,"visible":"1","thickness":0.0,"ext":"(3:0,0,1)","height":1.5,"text":"851","angle":334.26374,"widthscale":1.0,"oblique":0.0,"style":"Standard","textgen":"0","alignh":"2","alignv":"0","interlin":-1.0,"Name":"158"},"geometry":{"type":"Point","coordinates":[52.433290830691533,29.830294810845892]}},{"type":"Feature","properties":{"fid":773.0,"handle":"7398","block":"-1","etype":"25","space":"0","layer":"pelak","olinetype":"bylayer","linetype":null,"color":"255,0,0,255","ocolor":"1","color24":"-1","transparen":"0","lweight":"-1","linewidth":0.0,"ltscale":1.0,"visible":"1","thickness":0.0,"ext":"(3:0,0,1)","height":1.5,"text":"951","angle":334.26374,"widthscale":1.0,"oblique":0.0,"style":"Standard","textgen":"0","alignh":"2","alignv":"0","interlin":-1.0,"Name":"159"},"geometry":{"type":"Point","coordinates":[52.433420062146446,29.830204705775856]}},{"type":"Feature","properties":{"fid":774.0,"handle":"7406","block":"-1","etype":"25","space":"0","layer":"pelak","olinetype":"bylayer","linetype":null,"color":"255,0,0,255","ocolor":"1","color24":"-1","transparen":"0","lweight":"-1","linewidth":0.0,"ltscale":1.0,"visible":"1","thickness":0.0,"ext":"(3:0,0,1)","height":1.5,"text":"551","angle":334.26374,"widthscale":1.0,"oblique":0.0,"style":"Standard","textgen":"0","alignh":"2","alignv":"0","interlin":-1.0,"Name":"155"},"geometry":{"type":"Point","coordinates":[52.432946000609576,29.830314999761498]}},{"type":"Feature","properties":{"fid":776.0,"handle":"7411","block":"-1","etype":"25","space":"0","layer":"pelak","olinetype":"bylayer","linetype":null,"color":"255,0,0,255","ocolor":"1","color24":"-1","transparen":"0","lweight":"-1","linewidth":0.0,"ltscale":1.0,"visible":"1","thickness":0.0,"ext":"(3:0,0,1)","height":1.5,"text":"651","angle":334.26374,"widthscale":1.0,"oblique":0.0,"style":"Standard","textgen":"0","alignh":"2","alignv":"0","interlin":-1.0,"Name":"156"},"geometry":{"type":"Point","coordinates":[52.43309433439137,29.830341838513906]}},{"type":"Feature","properties":{"fid":808.0,"handle":"7445","block":"-1","etype":"25","space":"0","layer":"pelak","olinetype":"bylayer","linetype":null,"color":"255,0,0,255","ocolor":"1","color24":"-1","transparen":"0","lweight":"-1","linewidth":0.0,"ltscale":1.0,"visible":"1","thickness":0.0,"ext":"(3:0,0,1)","height":1.5,"text":"751","angle":334.26374,"widthscale":1.0,"oblique":0.0,"style":"Standard","textgen":"0","alignh":"2","alignv":"0","interlin":-1.0,"Name":"157"},"geometry":{"type":"Point","coordinates":[52.43318395540193,29.830311301280737]}},{"type":"Feature","properties":{"fid":822.0,"handle":"7480","block":"-1","etype":"25","space":"0","layer":"pelak","olinetype":"bylayer","linetype":null,"color":"255,0,0,255","ocolor":"1","color24":"-1","transparen":"0","lweight":"-1","linewidth":0.0,"ltscale":1.0,"visible":"1","thickness":0.0,"ext":"(3:0,0,1)","height":1.5,"text":"351","angle":334.26374,"widthscale":1.0,"oblique":0.0,"style":"Standard","textgen":"0","alignh":"2","alignv":"0","interlin":-1.0,"Name":"153"},"geometry":{"type":"Point","coordinates":[52.434427813678617,29.830007449057856]}},{"type":"Feature","properties":{"fid":823.0,"handle":"7481","block":"-1","etype":"25","space":"0","layer":"pelak","olinetype":"bylayer","linetype":null,"color":"255,0,0,255","ocolor":"1","color24":"-1","transparen":"0","lweight":"-1","linewidth":0.0,"ltscale":1.0,"visible":"1","thickness":0.0,"ext":"(3:0,0,1)","height":1.5,"text":"451","angle":334.26374,"widthscale":1.0,"oblique":0.0,"style":"Standard","textgen":"0","alignh":"2","alignv":"0","interlin":-1.0,"Name":"154"},"geometry":{"type":"Point","coordinates":[52.434510943782591,29.829913850682875]}},{"type":"Feature","properties":{"fid":824.0,"handle":"7482","block":"-1","etype":"25","space":"0","layer":"pelak","olinetype":"bylayer","linetype":null,"color":"255,0,0,255","ocolor":"1","color24":"-1","transparen":"0","lweight":"-1","linewidth":0.0,"ltscale":1.0,"visible":"1","thickness":0.0,"ext":"(3:0,0,1)","height":1.5,"text":"071","angle":334.26374,"widthscale":1.0,"oblique":0.0,"style":"Standard","textgen":"0","alignh":"2","alignv":"0","interlin":-1.0,"Name":"170"},"geometry":{"type":"Point","coordinates":[52.434501770876501,29.829743894501643]}},{"type":"Feature","properties":{"fid":840.0,"handle":"7832","block":"-1","etype":"25","space":"0","layer":"pelak","olinetype":"bylayer","linetype":null,"color":"255,0,0,255","ocolor":"1","color24":"-1","transparen":"0","lweight":"-1","linewidth":0.0,"ltscale":1.0,"visible":"1","thickness":0.0,"ext":"(3:0,0,1)","height":1.5,"text":"521","angle":334.26374,"widthscale":1.0,"oblique":0.0,"style":"Standard","textgen":"0","alignh":"2","alignv":"0","interlin":-1.0,"Name":"125"},"geometry":{"type":"Point","coordinates":[52.433710911416917,29.831230978826007]}},{"type":"Feature","properties":{"fid":841.0,"handle":"7833","block":"-1","etype":"25","space":"0","layer":"pelak","olinetype":"bylayer","linetype":null,"color":"255,0,0,255","ocolor":"1","color24":"-1","transparen":"0","lweight":"-1","linewidth":0.0,"ltscale":1.0,"visible":"1","thickness":0.0,"ext":"(3:0,0,1)","height":1.5,"text":"621","angle":334.26374,"widthscale":1.0,"oblique":0.0,"style":"Standard","textgen":"0","alignh":"2","alignv":"0","interlin":-1.0,"Name":"126"},"geometry":{"type":"Point","coordinates":[52.43377287489124,29.831150687738049]}},{"type":"Feature","properties":{"fid":842.0,"handle":"7834","block":"-1","etype":"25","space":"0","layer":"pelak","olinetype":"bylayer","linetype":null,"color":"255,0,0,255","ocolor":"1","color24":"-1","transparen":"0","lweight":"-1","linewidth":0.0,"ltscale":1.0,"visible":"1","thickness":0.0,"ext":"(3:0,0,1)","height":1.5,"text":"721","angle":334.26374,"widthscale":1.0,"oblique":0.0,"style":"Standard","textgen":"0","alignh":"2","alignv":"0","interlin":-1.0,"Name":"127"},"geometry":{"type":"Point","coordinates":[52.43359142502743,29.830997578181574]}},{"type":"Feature","properties":{"fid":843.0,"handle":"7835","block":"-1","etype":"25","space":"0","layer":"pelak","olinetype":"bylayer","linetype":null,"color":"255,0,0,255","ocolor":"1","color24":"-1","transparen":"0","lweight":"-1","linewidth":0.0,"ltscale":1.0,"visible":"1","thickness":0.0,"ext":"(3:0,0,1)","height":1.5,"text":"821","angle":334.26374,"widthscale":1.0,"oblique":0.0,"style":"Standard","textgen":"0","alignh":"2","alignv":"0","interlin":-1.0,"Name":"128"},"geometry":{"type":"Point","coordinates":[52.433672665631278,29.830958817236603]}},{"type":"Feature","properties":{"fid":844.0,"handle":"7836","block":"-1","etype":"25","space":"0","layer":"pelak","olinetype":"bylayer","linetype":null,"color":"255,0,0,255","ocolor":"1","color24":"-1","transparen":"0","lweight":"-1","linewidth":0.0,"ltscale":1.0,"visible":"1","thickness":0.0,"ext":"(3:0,0,1)","height":1.5,"text":"921","angle":334.26374,"widthscale":1.0,"oblique":0.0,"style":"Standard","textgen":"0","alignh":"2","alignv":"0","interlin":-1.0,"Name":"129"},"geometry":{"type":"Point","coordinates":[52.43375803723265,29.830914518928179]}},{"type":"Feature","properties":{"fid":845.0,"handle":"7837","block":"-1","etype":"25","space":"0","layer":"pelak","olinetype":"bylayer","linetype":null,"color":"255,0,0,255","ocolor":"1","color24":"-1","transparen":"0","lweight":"-1","linewidth":0.0,"ltscale":1.0,"visible":"1","thickness":0.0,"ext":"(3:0,0,1)","height":1.5,"text":"031","angle":334.26374,"widthscale":1.0,"oblique":0.0,"style":"Standard","textgen":"0","alignh":"2","alignv":"0","interlin":-1.0,"Name":"130"},"geometry":{"type":"Point","coordinates":[52.433844785697218,29.830878526611169]}},{"type":"Feature","properties":{"fid":846.0,"handle":"7838","block":"-1","etype":"25","space":"0","layer":"pelak","olinetype":"bylayer","linetype":null,"color":"255,0,0,255","ocolor":"1","color24":"-1","transparen":"0","lweight":"-1","linewidth":0.0,"ltscale":1.0,"visible":"1","thickness":0.0,"ext":"(3:0,0,1)","height":1.5,"text":"131","angle":334.26374,"widthscale":1.0,"oblique":0.0,"style":"Standard","textgen":"0","alignh":"2","alignv":"0","interlin":-1.0,"Name":"131"},"geometry":{"type":"Point","coordinates":[52.433928527817976,29.830826419105136]}},{"type":"Feature","properties":{"fid":847.0,"handle":"7839","block":"-1","etype":"25","space":"0","layer":"pelak","olinetype":"bylayer","linetype":null,"color":"255,0,0,255","ocolor":"1","color24":"-1","transparen":"0","lweight":"-1","linewidth":0.0,"ltscale":1.0,"visible":"1","thickness":0.0,"ext":"(3:0,0,1)","height":1.5,"text":"231","angle":334.26374,"widthscale":1.0,"oblique":0.0,"style":"Standard","textgen":"0","alignh":"2","alignv":"0","interlin":-1.0,"Name":"132"},"geometry":{"type":"Point","coordinates":[52.434008888265978,29.830693125899746]}},{"type":"Feature","properties":{"fid":848.0,"handle":"7840","block":"-1","etype":"25","space":"0","layer":"pelak","olinetype":"bylayer","linetype":null,"color":"255,0,0,255","ocolor":"1","color24":"-1","transparen":"0","lweight":"-1","linewidth":0.0,"ltscale":1.0,"visible":"1","thickness":0.0,"ext":"(3:0,0,1)","height":1.5,"text":"431","angle":334.26374,"widthscale":1.0,"oblique":0.0,"style":"Standard","textgen":"0","alignh":"2","alignv":"0","interlin":-1.0,"Name":"134"},"geometry":{"type":"Point","coordinates":[52.433536049838082,29.830732462970634]}},{"type":"Feature","properties":{"fid":849.0,"handle":"7841","block":"-1","etype":"25","space":"0","layer":"pelak","olinetype":"bylayer","linetype":null,"color":"255,0,0,255","ocolor":"1","color24":"-1","transparen":"0","lweight":"-1","linewidth":0.0,"ltscale":1.0,"visible":"1","thickness":0.0,"ext":"(3:0,0,1)","height":1.5,"text":"531","angle":334.26374,"widthscale":1.0,"oblique":0.0,"style":"Standard","textgen":"0","alignh":"2","alignv":"0","interlin":-1.0,"Name":"135"},"geometry":{"type":"Point","coordinates":[52.433619825780561,29.830689548990765]}},{"type":"Feature","properties":{"fid":850.0,"handle":"7842","block":"-1","etype":"25","space":"0","layer":"pelak","olinetype":"bylayer","linetype":null,"color":"255,0,0,255","ocolor":"1","color24":"-1","transparen":"0","lweight":"-1","linewidth":0.0,"ltscale":1.0,"visible":"1","thickness":0.0,"ext":"(3:0,0,1)","height":1.5,"text":"631","angle":334.26374,"widthscale":1.0,"oblique":0.0,"style":"Standard","textgen":"0","alignh":"2","alignv":"0","interlin":-1.0,"Name":"136"},"geometry":{"type":"Point","coordinates":[52.433708453652052,29.830651007814005]}},{"type":"Feature","properties":{"fid":851.0,"handle":"7843","block":"-1","etype":"25","space":"0","layer":"pelak","olinetype":"bylayer","linetype":null,"color":"255,0,0,255","ocolor":"1","color24":"-1","transparen":"0","lweight":"-1","linewidth":0.0,"ltscale":1.0,"visible":"1","thickness":0.0,"ext":"(3:0,0,1)","height":1.5,"text":"731","angle":334.26374,"widthscale":1.0,"oblique":0.0,"style":"Standard","textgen":"0","alignh":"2","alignv":"0","interlin":-1.0,"Name":"137"},"geometry":{"type":"Point","coordinates":[52.433837460749743,29.830599373488642]}},{"type":"Feature","properties":{"fid":852.0,"handle":"7844","block":"-1","etype":"25","space":"0","layer":"pelak","olinetype":"bylayer","linetype":null,"color":"255,0,0,255","ocolor":"1","color24":"-1","transparen":"0","lweight":"-1","linewidth":0.0,"ltscale":1.0,"visible":"1","thickness":0.0,"ext":"(3:0,0,1)","height":1.5,"text":"831","angle":334.26374,"widthscale":1.0,"oblique":0.0,"style":"Standard","textgen":"0","alignh":"2","alignv":"0","interlin":-1.0,"Name":"138"},"geometry":{"type":"Point","coordinates":[52.433929717121693,29.830550922185047]}},{"type":"Feature","properties":{"fid":853.0,"handle":"7845","block":"-1","etype":"25","space":"0","layer":"pelak","olinetype":"bylayer","linetype":null,"color":"255,0,0,255","ocolor":"1","color24":"-1","transparen":"0","lweight":"-1","linewidth":0.0,"ltscale":1.0,"visible":"1","thickness":0.0,"ext":"(3:0,0,1)","height":1.5,"text":"931","angle":334.26374,"widthscale":1.0,"oblique":0.0,"style":"Standard","textgen":"0","alignh":"2","alignv":"0","interlin":-1.0,"Name":"139"},"geometry":{"type":"Point","coordinates":[52.434024221763664,29.83050194937066]}},{"type":"Feature","properties":{"fid":854.0,"handle":"7846","block":"-1","etype":"25","space":"0","layer":"pelak","olinetype":"bylayer","linetype":null,"color":"255,0,0,255","ocolor":"1","color24":"-1","transparen":"0","lweight":"-1","linewidth":0.0,"ltscale":1.0,"visible":"1","thickness":0.0,"ext":"(3:0,0,1)","height":1.5,"text":"041","angle":334.26374,"widthscale":1.0,"oblique":0.0,"style":"Standard","textgen":"0","alignh":"2","alignv":"0","interlin":-1.0,"Name":"140"},"geometry":{"type":"Point","coordinates":[52.434108216383926,29.830459035341207]}},{"type":"Feature","properties":{"fid":855.0,"handle":"7847","block":"-1","etype":"25","space":"0","layer":"pelak","olinetype":"bylayer","linetype":null,"color":"255,0,0,255","ocolor":"1","color24":"-1","transparen":"0","lweight":"-1","linewidth":0.0,"ltscale":1.0,"visible":"1","thickness":0.0,"ext":"(3:0,0,1)","height":1.5,"text":"141","angle":334.26374,"widthscale":1.0,"oblique":0.0,"style":"Standard","textgen":"0","alignh":"2","alignv":"0","interlin":-1.0,"Name":"141"},"geometry":{"type":"Point","coordinates":[52.434181195469165,29.830371822459004]}},{"type":"Feature","properties":{"fid":856.0,"handle":"7848","block":"-1","etype":"25","space":"0","layer":"pelak","olinetype":"bylayer","linetype":null,"color":"255,0,0,255","ocolor":"1","color24":"-1","transparen":"0","lweight":"-1","linewidth":0.0,"ltscale":1.0,"visible":"1","thickness":0.0,"ext":"(3:0,0,1)","height":1.5,"text":"441","angle":334.26374,"widthscale":1.0,"oblique":0.0,"style":"Standard","textgen":"0","alignh":"2","alignv":"0","interlin":-1.0,"Name":"144"},"geometry":{"type":"Point","coordinates":[52.433523057152364,29.830435228415119]}},{"type":"Feature","properties":{"fid":857.0,"handle":"7849","block":"-1","etype":"25","space":"0","layer":"pelak","olinetype":"bylayer","linetype":null,"color":"255,0,0,255","ocolor":"1","color24":"-1","transparen":"0","lweight":"-1","linewidth":0.0,"ltscale":1.0,"visible":"1","thickness":0.0,"ext":"(3:0,0,1)","height":1.5,"text":"541","angle":334.26374,"widthscale":1.0,"oblique":0.0,"style":"Standard","textgen":"0","alignh":"2","alignv":"0","interlin":-1.0,"Name":"145"},"geometry":{"type":"Point","coordinates":[52.433609805669562,29.830397851741637]}},{"type":"Feature","properties":{"fid":858.0,"handle":"7850","block":"-1","etype":"25","space":"0","layer":"pelak","olinetype":"bylayer","linetype":null,"color":"255,0,0,255","ocolor":"1","color24":"-1","transparen":"0","lweight":"-1","linewidth":0.0,"ltscale":1.0,"visible":"1","thickness":0.0,"ext":"(3:0,0,1)","height":1.5,"text":"641","angle":334.26374,"widthscale":1.0,"oblique":0.0,"style":"Standard","textgen":"0","alignh":"2","alignv":"0","interlin":-1.0,"Name":"146"},"geometry":{"type":"Point","coordinates":[52.433700684989546,29.830356322101672]}},{"type":"Feature","properties":{"fid":859.0,"handle":"7851","block":"-1","etype":"25","space":"0","layer":"pelak","olinetype":"bylayer","linetype":null,"color":"255,0,0,255","ocolor":"1","color24":"-1","transparen":"0","lweight":"-1","linewidth":0.0,"ltscale":1.0,"visible":"1","thickness":0.0,"ext":"(3:0,0,1)","height":1.5,"text":"741","angle":334.26374,"widthscale":1.0,"oblique":0.0,"style":"Standard","textgen":"0","alignh":"2","alignv":"0","interlin":-1.0,"Name":"147"},"geometry":{"type":"Point","coordinates":[52.433850894357192,29.830298031881895]}},{"type":"Feature","properties":{"fid":860.0,"handle":"7852","block":"-1","etype":"25","space":"0","layer":"pelak","olinetype":"bylayer","linetype":null,"color":"255,0,0,255","ocolor":"1","color24":"-1","transparen":"0","lweight":"-1","linewidth":0.0,"ltscale":1.0,"visible":"1","thickness":0.0,"ext":"(3:0,0,1)","height":1.5,"text":"841","angle":334.26374,"widthscale":1.0,"oblique":0.0,"style":"Standard","textgen":"0","alignh":"2","alignv":"0","interlin":-1.0,"Name":"148"},"geometry":{"type":"Point","coordinates":[52.433936265824059,29.830259270863774]}},{"type":"Feature","properties":{"fid":861.0,"handle":"7853","block":"-1","etype":"25","space":"0","layer":"pelak","olinetype":"bylayer","linetype":null,"color":"255,0,0,255","ocolor":"1","color24":"-1","transparen":"0","lweight":"-1","linewidth":0.0,"ltscale":1.0,"visible":"1","thickness":0.0,"ext":"(3:0,0,1)","height":1.5,"text":"941","angle":334.26374,"widthscale":1.0,"oblique":0.0,"style":"Standard","textgen":"0","alignh":"2","alignv":"0","interlin":-1.0,"Name":"149"},"geometry":{"type":"Point","coordinates":[52.434023014298063,29.830217741130927]}},{"type":"Feature","properties":{"fid":862.0,"handle":"7854","block":"-1","etype":"25","space":"0","layer":"pelak","olinetype":"bylayer","linetype":null,"color":"255,0,0,255","ocolor":"1","color24":"-1","transparen":"0","lweight":"-1","linewidth":0.0,"ltscale":1.0,"visible":"1","thickness":0.0,"ext":"(3:0,0,1)","height":1.5,"text":"051","angle":334.26374,"widthscale":1.0,"oblique":0.0,"style":"Standard","textgen":"0","alignh":"2","alignv":"0","interlin":-1.0,"Name":"150"},"geometry":{"type":"Point","coordinates":[52.434113893663373,29.830173442737969]}},{"type":"Feature","properties":{"fid":863.0,"handle":"7855","block":"-1","etype":"25","space":"0","layer":"pelak","olinetype":"bylayer","linetype":null,"color":"255,0,0,255","ocolor":"1","color24":"-1","transparen":"0","lweight":"-1","linewidth":0.0,"ltscale":1.0,"visible":"1","thickness":0.0,"ext":"(3:0,0,1)","height":1.5,"text":"151","angle":334.26374,"widthscale":1.0,"oblique":0.0,"style":"Standard","textgen":"0","alignh":"2","alignv":"0","interlin":-1.0,"Name":"151"},"geometry":{"type":"Point","coordinates":[52.434239579615166,29.830082581227504]}},{"type":"Feature","properties":{"fid":864.0,"handle":"7856","block":"-1","etype":"25","space":"0","layer":"pelak","olinetype":"bylayer","linetype":null,"color":"255,0,0,255","ocolor":"1","color24":"-1","transparen":"0","lweight":"-1","linewidth":0.0,"ltscale":1.0,"visible":"1","thickness":0.0,"ext":"(3:0,0,1)","height":1.5,"text":"251","angle":334.26374,"widthscale":1.0,"oblique":0.0,"style":"Standard","textgen":"0","alignh":"2","alignv":"0","interlin":-1.0,"Name":"152"},"geometry":{"type":"Point","coordinates":[52.434330046942293,29.830058179166674]}},{"type":"Feature","properties":{"fid":865.0,"handle":"7857","block":"-1","etype":"25","space":"0","layer":"pelak","olinetype":"bylayer","linetype":null,"color":"255,0,0,255","ocolor":"1","color24":"-1","transparen":"0","lweight":"-1","linewidth":0.0,"ltscale":1.0,"visible":"1","thickness":0.0,"ext":"(3:0,0,1)","height":1.5,"text":"061","angle":334.26374,"widthscale":1.0,"oblique":0.0,"style":"Standard","textgen":"0","alignh":"2","alignv":"0","interlin":-1.0,"Name":"160"},"geometry":{"type":"Point","coordinates":[52.433504516205801,29.8301659549787]}},{"type":"Feature","properties":{"fid":866.0,"handle":"7858","block":"-1","etype":"25","space":"0","layer":"pelak","olinetype":"bylayer","linetype":null,"color":"255,0,0,255","ocolor":"1","color24":"-1","transparen":"0","lweight":"-1","linewidth":0.0,"ltscale":1.0,"visible":"1","thickness":0.0,"ext":"(3:0,0,1)","height":1.5,"text":"161","angle":334.26374,"widthscale":1.0,"oblique":0.0,"style":"Standard","textgen":"0","alignh":"2","alignv":"0","interlin":-1.0,"Name":"161"},"geometry":{"type":"Point","coordinates":[52.433586123206588,29.830102390241617]}},{"type":"Feature","properties":{"fid":867.0,"handle":"7859","block":"-1","etype":"25","space":"0","layer":"pelak","olinetype":"bylayer","linetype":null,"color":"255,0,0,255","ocolor":"1","color24":"-1","transparen":"0","lweight":"-1","linewidth":0.0,"ltscale":1.0,"visible":"1","thickness":0.0,"ext":"(3:0,0,1)","height":1.5,"text":"261","angle":334.26374,"widthscale":1.0,"oblique":0.0,"style":"Standard","textgen":"0","alignh":"2","alignv":"0","interlin":-1.0,"Name":"162"},"geometry":{"type":"Point","coordinates":[52.433703841716799,29.83006608334253]}},{"type":"Feature","properties":{"fid":868.0,"handle":"7860","block":"-1","etype":"25","space":"0","layer":"pelak","olinetype":"bylayer","linetype":null,"color":"255,0,0,255","ocolor":"1","color24":"-1","transparen":"0","lweight":"-1","linewidth":0.0,"ltscale":1.0,"visible":"1","thickness":0.0,"ext":"(3:0,0,1)","height":1.5,"text":"361","angle":334.26374,"widthscale":1.0,"oblique":0.0,"style":"Standard","textgen":"0","alignh":"2","alignv":"0","interlin":-1.0,"Name":"163"},"geometry":{"type":"Point","coordinates":[52.433790211240201,29.830020527616131]}},{"type":"Feature","properties":{"fid":869.0,"handle":"7861","block":"-1","etype":"25","space":"0","layer":"pelak","olinetype":"bylayer","linetype":null,"color":"255,0,0,255","ocolor":"1","color24":"-1","transparen":"0","lweight":"-1","linewidth":0.0,"ltscale":1.0,"visible":"1","thickness":0.0,"ext":"(3:0,0,1)","height":1.5,"text":"461","angle":334.26374,"widthscale":1.0,"oblique":0.0,"style":"Standard","textgen":"0","alignh":"2","alignv":"0","interlin":-1.0,"Name":"164"},"geometry":{"type":"Point","coordinates":[52.433884476050942,29.830006455814509]}},{"type":"Feature","properties":{"fid":870.0,"handle":"7862","block":"-1","etype":"25","space":"0","layer":"pelak","olinetype":"bylayer","linetype":null,"color":"255,0,0,255","ocolor":"1","color24":"-1","transparen":"0","lweight":"-1","linewidth":0.0,"ltscale":1.0,"visible":"1","thickness":0.0,"ext":"(3:0,0,1)","height":1.5,"text":"561","angle":334.26374,"widthscale":1.0,"oblique":0.0,"style":"Standard","textgen":"0","alignh":"2","alignv":"0","interlin":-1.0,"Name":"165"},"geometry":{"type":"Point","coordinates":[52.434007411340922,29.829950394142632]}},{"type":"Feature","properties":{"fid":871.0,"handle":"7863","block":"-1","etype":"25","space":"0","layer":"pelak","olinetype":"bylayer","linetype":null,"color":"255,0,0,255","ocolor":"1","color24":"-1","transparen":"0","lweight":"-1","linewidth":0.0,"ltscale":1.0,"visible":"1","thickness":0.0,"ext":"(3:0,0,1)","height":1.5,"text":"661","angle":334.26374,"widthscale":1.0,"oblique":0.0,"style":"Standard","textgen":"0","alignh":"2","alignv":"0","interlin":-1.0,"Name":"166"},"geometry":{"type":"Point","coordinates":[52.434098290689022,29.829906095764152]}},{"type":"Feature","properties":{"fid":872.0,"handle":"7864","block":"-1","etype":"25","space":"0","layer":"pelak","olinetype":"bylayer","linetype":null,"color":"255,0,0,255","ocolor":"1","color24":"-1","transparen":"0","lweight":"-1","linewidth":0.0,"ltscale":1.0,"visible":"1","thickness":0.0,"ext":"(3:0,0,1)","height":1.5,"text":"761","angle":334.26374,"widthscale":1.0,"oblique":0.0,"style":"Standard","textgen":"0","alignh":"2","alignv":"0","interlin":-1.0,"Name":"167"},"geometry":{"type":"Point","coordinates":[52.434187793057021,29.829861797324583]}},{"type":"Feature","properties":{"fid":873.0,"handle":"7865","block":"-1","etype":"25","space":"0","layer":"pelak","olinetype":"bylayer","linetype":null,"color":"255,0,0,255","ocolor":"1","color24":"-1","transparen":"0","lweight":"-1","linewidth":0.0,"ltscale":1.0,"visible":"1","thickness":0.0,"ext":"(3:0,0,1)","height":1.5,"text":"861","angle":334.26374,"widthscale":1.0,"oblique":0.0,"style":"Standard","textgen":"0","alignh":"2","alignv":"0","interlin":-1.0,"Name":"168"},"geometry":{"type":"Point","coordinates":[52.434324383665981,29.829830039920264]}},{"type":"Feature","properties":{"fid":1014.0,"handle":"8026","block":"-1","etype":"25","space":"0","layer":"pelak","olinetype":"bylayer","linetype":null,"color":"255,0,0,255","ocolor":"1","color24":"-1","transparen":"0","lweight":"-1","linewidth":0.0,"ltscale":1.0,"visible":"1","thickness":0.0,"ext":"(3:0,0,1)","height":1.5,"text":"961","angle":334.26374,"widthscale":1.0,"oblique":0.0,"style":"Standard","textgen":"0","alignh":"2","alignv":"0","interlin":-1.0,"Name":"169"},"geometry":{"type":"Point","coordinates":[52.434413077316137,29.82978621154076]}}]}