{
  "type": "FeatureCollection",
  "name": "_3",
  "crs": {
    "type": "name",
    "properties": { "name": "urn:ogc:def:crs:OGC:1.3:CRS84" }
  },
  "features": [
    {
      "type": "Feature",
      "properties": { "Text": "950" },
      "geometry": {
        "type": "Point",
        "coordinates": [52.506788389371735, 29.815608801249802]
      }
    },
    {
      "type": "Feature",
      "properties": { "Text": "1" },
      "geometry": {
        "type": "Point",
        "coordinates": [52.506804239484254, 29.815659176505175]
      }
    },
    {
      "type": "Feature",
      "properties": { "Text": "985" },
      "geometry": {
        "type": "Point",
        "coordinates": [52.506910619802753, 29.815827505914946]
      }
    },
    {
      "type": "Feature",
      "properties": { "Text": "2" },
      "geometry": {
        "type": "Point",
        "coordinates": [52.506926469915278, 29.815877881060125]
      }
    },
    {
      "type": "Feature",
      "properties": { "Text": "977" },
      "geometry": {
        "type": "Point",
        "coordinates": [52.506950917461573, 29.816037015583714]
      }
    },
    {
      "type": "Feature",
      "properties": { "Text": "3" },
      "geometry": {
        "type": "Point",
        "coordinates": [52.506966767574106, 29.816087390623331]
      }
    },
    {
      "type": "Feature",
      "properties": { "Text": "979" },
      "geometry": {
        "type": "Point",
        "coordinates": [52.50699696542457, 29.816234888523791]
      }
    },
    {
      "type": "Feature",
      "properties": { "Text": "4" },
      "geometry": {
        "type": "Point",
        "coordinates": [52.507012815537102, 29.816285263463708]
      }
    },
    {
      "type": "Feature",
      "properties": { "Text": "979" },
      "geometry": {
        "type": "Point",
        "coordinates": [52.507008656970015, 29.8164369471708]
      }
    },
    {
      "type": "Feature",
      "properties": { "Text": "5" },
      "geometry": {
        "type": "Point",
        "coordinates": [52.507024507082541, 29.816487322008914]
      }
    },
    {
      "type": "Feature",
      "properties": { "Text": "978" },
      "geometry": {
        "type": "Point",
        "coordinates": [52.507015098884466, 29.816627109510751]
      }
    },
    {
      "type": "Feature",
      "properties": { "Text": "6" },
      "geometry": {
        "type": "Point",
        "coordinates": [52.507030948996992, 29.816677484253049]
      }
    },
    {
      "type": "Feature",
      "properties": { "Text": "978" },
      "geometry": {
        "type": "Point",
        "coordinates": [52.506998187175029, 29.816848974748392]
      }
    },
    {
      "type": "Feature",
      "properties": { "Text": "7" },
      "geometry": {
        "type": "Point",
        "coordinates": [52.507014037287561, 29.8168993493789]
      }
    },
    {
      "type": "Feature",
      "properties": { "Text": "978" },
      "geometry": {
        "type": "Point",
        "coordinates": [52.506957059913169, 29.817051772292295]
      }
    },
    {
      "type": "Feature",
      "properties": { "Text": "8" },
      "geometry": {
        "type": "Point",
        "coordinates": [52.506972910025702, 29.817102146820613]
      }
    },
    {
      "type": "Feature",
      "properties": { "Text": "983" },
      "geometry": {
        "type": "Point",
        "coordinates": [52.506957048181704, 29.817305059191295]
      }
    },
    {
      "type": "Feature",
      "properties": { "Text": "9" },
      "geometry": {
        "type": "Point",
        "coordinates": [52.506972898294222, 29.817355433591988]
      }
    },
    {
      "type": "Feature",
      "properties": { "Text": "979" },
      "geometry": {
        "type": "Point",
        "coordinates": [52.506988587420317, 29.817512222578625]
      }
    },
    {
      "type": "Feature",
      "properties": { "Text": "10" },
      "geometry": {
        "type": "Point",
        "coordinates": [52.507004437532835, 29.817562596874939]
      }
    },
    {
      "type": "Feature",
      "properties": { "Text": "976" },
      "geometry": {
        "type": "Point",
        "coordinates": [52.507013452145749, 29.817698794933122]
      }
    },
    {
      "type": "Feature",
      "properties": { "Text": "11" },
      "geometry": {
        "type": "Point",
        "coordinates": [52.507029302258275, 29.817749169135418]
      }
    },
    {
      "type": "Feature",
      "properties": { "Text": "976" },
      "geometry": {
        "type": "Point",
        "coordinates": [52.506963075607139, 29.817891265339]
      }
    },
    {
      "type": "Feature",
      "properties": { "Text": "12" },
      "geometry": {
        "type": "Point",
        "coordinates": [52.506978925719658, 29.817941639444314]
      }
    },
    {
      "type": "Feature",
      "properties": { "Text": "974" },
      "geometry": {
        "type": "Point",
        "coordinates": [52.506833823295842, 29.818073189988358]
      }
    },
    {
      "type": "Feature",
      "properties": { "Text": "13" },
      "geometry": {
        "type": "Point",
        "coordinates": [52.506849673408361, 29.818123564002004]
      }
    },
    {
      "type": "Feature",
      "properties": { "Text": "971" },
      "geometry": {
        "type": "Point",
        "coordinates": [52.506679633422785, 29.818231636033939]
      }
    },
    {
      "type": "Feature",
      "properties": { "Text": "14" },
      "geometry": {
        "type": "Point",
        "coordinates": [52.506695483535317, 29.818282009967746]
      }
    },
    {
      "type": "Feature",
      "properties": { "Text": "980" },
      "geometry": {
        "type": "Point",
        "coordinates": [52.506481629814203, 29.818341653649114]
      }
    },
    {
      "type": "Feature",
      "properties": { "Text": "15" },
      "geometry": {
        "type": "Point",
        "coordinates": [52.506497479926736, 29.818392027527484]
      }
    },
    {
      "type": "Feature",
      "properties": { "Text": "978" },
      "geometry": {
        "type": "Point",
        "coordinates": [52.506217337148783, 29.818473891281968]
      }
    },
    {
      "type": "Feature",
      "properties": { "Text": "16" },
      "geometry": {
        "type": "Point",
        "coordinates": [52.506233187261316, 29.818524265093703]
      }
    },
    {
      "type": "Feature",
      "properties": { "Text": "980" },
      "geometry": {
        "type": "Point",
        "coordinates": [52.505989990792443, 29.818493667415055]
      }
    },
    {
      "type": "Feature",
      "properties": { "Text": "17" },
      "geometry": {
        "type": "Point",
        "coordinates": [52.506005840904969, 29.818544041216828]
      }
    },
    {
      "type": "Feature",
      "properties": { "Text": "978" },
      "geometry": {
        "type": "Point",
        "coordinates": [52.505763128185208, 29.818496549579173]
      }
    },
    {
      "type": "Feature",
      "properties": { "Text": "18" },
      "geometry": {
        "type": "Point",
        "coordinates": [52.505778978297741, 29.81854692337949]
      }
    },
    {
      "type": "Feature",
      "properties": { "Text": "980" },
      "geometry": {
        "type": "Point",
        "coordinates": [52.505543863508208, 29.818483186485345]
      }
    },
    {
      "type": "Feature",
      "properties": { "Text": "18" },
      "geometry": {
        "type": "Point",
        "coordinates": [52.505559713620741, 29.818533560292394]
      }
    },
    {
      "type": "Feature",
      "properties": { "Text": "982" },
      "geometry": {
        "type": "Point",
        "coordinates": [52.505320959471128, 29.818456493255329]
      }
    },
    {
      "type": "Feature",
      "properties": { "Text": "20" },
      "geometry": {
        "type": "Point",
        "coordinates": [52.50533680958366, 29.818506867075833]
      }
    },
    {
      "type": "Feature",
      "properties": { "Text": "975" },
      "geometry": {
        "type": "Point",
        "coordinates": [52.505092662873231, 29.818406809760543]
      }
    },
    {
      "type": "Feature",
      "properties": { "Text": "21" },
      "geometry": {
        "type": "Point",
        "coordinates": [52.50510851298575, 29.818457183606075]
      }
    },
    {
      "type": "Feature",
      "properties": { "Text": "978" },
      "geometry": {
        "type": "Point",
        "coordinates": [52.504879721789329, 29.818307012142753]
      }
    },
    {
      "type": "Feature",
      "properties": { "Text": "22" },
      "geometry": {
        "type": "Point",
        "coordinates": [52.504895571901855, 29.818357386038585]
      }
    },
    {
      "type": "Feature",
      "properties": { "Text": "978" },
      "geometry": {
        "type": "Point",
        "coordinates": [52.504703537578031, 29.818191033664231]
      }
    },
    {
      "type": "Feature",
      "properties": { "Text": "23" },
      "geometry": {
        "type": "Point",
        "coordinates": [52.504719387690564, 29.818241407618494]
      }
    },
    {
      "type": "Feature",
      "properties": { "Text": "979" },
      "geometry": {
        "type": "Point",
        "coordinates": [52.504547015804221, 29.818047924410543]
      }
    },
    {
      "type": "Feature",
      "properties": { "Text": "24" },
      "geometry": {
        "type": "Point",
        "coordinates": [52.504562865916753, 29.818098298436922]
      }
    },
    {
      "type": "Feature",
      "properties": { "Text": "978" },
      "geometry": {
        "type": "Point",
        "coordinates": [52.504426378822316, 29.817893516311354]
      }
    },
    {
      "type": "Feature",
      "properties": { "Text": "25" },
      "geometry": {
        "type": "Point",
        "coordinates": [52.504442228934849, 29.817943890415538]
      }
    },
    {
      "type": "Feature",
      "properties": { "Text": "979" },
      "geometry": {
        "type": "Point",
        "coordinates": [52.504310324934984, 29.817720652630019]
      }
    },
    {
      "type": "Feature",
      "properties": { "Text": "26" },
      "geometry": {
        "type": "Point",
        "coordinates": [52.504326175047503, 29.817771026821305]
      }
    },
    {
      "type": "Feature",
      "properties": { "Text": "980" },
      "geometry": {
        "type": "Point",
        "coordinates": [52.504231329747348, 29.817556468152002]
      }
    },
    {
      "type": "Feature",
      "properties": { "Text": "27" },
      "geometry": {
        "type": "Point",
        "coordinates": [52.504247179859881, 29.81760684242602]
      }
    },
    {
      "type": "Feature",
      "properties": { "Text": "980" },
      "geometry": {
        "type": "Point",
        "coordinates": [52.504145959204763, 29.817384687930655]
      }
    },
    {
      "type": "Feature",
      "properties": { "Text": "28" },
      "geometry": {
        "type": "Point",
        "coordinates": [52.504161809317289, 29.817435062291228]
      }
    },
    {
      "type": "Feature",
      "properties": { "Text": "1037" },
      "geometry": {
        "type": "Point",
        "coordinates": [52.504065170796736, 29.817178371129156]
      }
    },
    {
      "type": "Feature",
      "properties": { "Text": "29" },
      "geometry": {
        "type": "Point",
        "coordinates": [52.504081020909268, 29.817228745593685]
      }
    },
    {
      "type": "Feature",
      "properties": { "Text": "1026" },
      "geometry": {
        "type": "Point",
        "coordinates": [52.503891242444439, 29.816959678122451]
      }
    },
    {
      "type": "Feature",
      "properties": { "Text": "30" },
      "geometry": {
        "type": "Point",
        "coordinates": [52.503907092556965, 29.817010052697171]
      }
    },
    {
      "type": "Feature",
      "properties": { "Text": "286" },
      "geometry": {
        "type": "Point",
        "coordinates": [52.504601412508407, 29.817257515047743]
      }
    },
    {
      "type": "Feature",
      "properties": { "Text": "316" },
      "geometry": {
        "type": "Point",
        "coordinates": [52.504726664811834, 29.8173554419126]
      }
    },
    {
      "type": "Feature",
      "properties": { "Text": "186" },
      "geometry": {
        "type": "Point",
        "coordinates": [52.504922407472499, 29.81751069468789]
      }
    },
    {
      "type": "Feature",
      "properties": { "Text": "187" },
      "geometry": {
        "type": "Point",
        "coordinates": [52.50503822099833, 29.817561091254625]
      }
    },
    {
      "type": "Feature",
      "properties": { "Text": "190" },
      "geometry": {
        "type": "Point",
        "coordinates": [52.505135901907316, 29.81761893269136]
      }
    },
    {
      "type": "Feature",
      "properties": { "Text": "189" },
      "geometry": {
        "type": "Point",
        "coordinates": [52.505242399692044, 29.81767374256459]
      }
    },
    {
      "type": "Feature",
      "properties": { "Text": "188" },
      "geometry": {
        "type": "Point",
        "coordinates": [52.505359386936732, 29.817708288086969]
      }
    },
    {
      "type": "Feature",
      "properties": { "Text": "192" },
      "geometry": {
        "type": "Point",
        "coordinates": [52.505462953268278, 29.817766488570538]
      }
    },
    {
      "type": "Feature",
      "properties": { "Text": "191" },
      "geometry": {
        "type": "Point",
        "coordinates": [52.50557789170184, 29.817821929032458]
      }
    },
    {
      "type": "Feature",
      "properties": { "Text": "194" },
      "geometry": {
        "type": "Point",
        "coordinates": [52.505684697680628, 29.817875062211087]
      }
    },
    {
      "type": "Feature",
      "properties": { "Text": "193" },
      "geometry": {
        "type": "Point",
        "coordinates": [52.505793241715566, 29.817928167773644]
      }
    },
    {
      "type": "Feature",
      "properties": { "Text": "195" },
      "geometry": {
        "type": "Point",
        "coordinates": [52.505893225728101, 29.817985677255507]
      }
    },
    {
      "type": "Feature",
      "properties": { "Text": "196" },
      "geometry": {
        "type": "Point",
        "coordinates": [52.506059316264526, 29.818038949888717]
      }
    },
    {
      "type": "Feature",
      "properties": { "Text": "197" },
      "geometry": {
        "type": "Point",
        "coordinates": [52.505737641115978, 29.818079941054972]
      }
    },
    {
      "type": "Feature",
      "properties": { "Text": "198" },
      "geometry": {
        "type": "Point",
        "coordinates": [52.505570472974611, 29.818050290819954]
      }
    },
    {
      "type": "Feature",
      "properties": { "Text": "199" },
      "geometry": {
        "type": "Point",
        "coordinates": [52.50545907823647, 29.818007045671482]
      }
    },
    {
      "type": "Feature",
      "properties": { "Text": "200" },
      "geometry": {
        "type": "Point",
        "coordinates": [52.505351083222529, 29.817954237001498]
      }
    },
    {
      "type": "Feature",
      "properties": { "Text": "201" },
      "geometry": {
        "type": "Point",
        "coordinates": [52.505232658333135, 29.81790359469797]
      }
    },
    {
      "type": "Feature",
      "properties": { "Text": "202" },
      "geometry": {
        "type": "Point",
        "coordinates": [52.505133570415346, 29.817840918749102]
      }
    },
    {
      "type": "Feature",
      "properties": { "Text": "203" },
      "geometry": {
        "type": "Point",
        "coordinates": [52.505030746680234, 29.81777619488453]
      }
    },
    {
      "type": "Feature",
      "properties": { "Text": "204" },
      "geometry": {
        "type": "Point",
        "coordinates": [52.504935988767663, 29.817710372496393]
      }
    },
    {
      "type": "Feature",
      "properties": { "Text": "205" },
      "geometry": {
        "type": "Point",
        "coordinates": [52.504836593421274, 29.817644259039511]
      }
    },
    {
      "type": "Feature",
      "properties": { "Text": "288" },
      "geometry": {
        "type": "Point",
        "coordinates": [52.504841675912587, 29.817408705421943]
      }
    },
    {
      "type": "Feature",
      "properties": { "Text": "288" },
      "geometry": {
        "type": "Point",
        "coordinates": [52.504958321799144, 29.817464070290132]
      }
    },
    {
      "type": "Feature",
      "properties": { "Text": "288" },
      "geometry": {
        "type": "Point",
        "coordinates": [52.505059352329162, 29.817515201557054]
      }
    },
    {
      "type": "Feature",
      "properties": { "Text": "288" },
      "geometry": {
        "type": "Point",
        "coordinates": [52.505173220252921, 29.817566716959494]
      }
    },
    {
      "type": "Feature",
      "properties": { "Text": "288" },
      "geometry": {
        "type": "Point",
        "coordinates": [52.505282416232397, 29.817623204624724]
      }
    },
    {
      "type": "Feature",
      "properties": { "Text": "288" },
      "geometry": {
        "type": "Point",
        "coordinates": [52.505392382992774, 29.817660374480841]
      }
    },
    {
      "type": "Feature",
      "properties": { "Text": "288" },
      "geometry": {
        "type": "Point",
        "coordinates": [52.505498691049283, 29.817715516340783]
      }
    },
    {
      "type": "Feature",
      "properties": { "Text": "288" },
      "geometry": {
        "type": "Point",
        "coordinates": [52.505606505552791, 29.817770851078279]
      }
    },
    {
      "type": "Feature",
      "properties": { "Text": "288" },
      "geometry": {
        "type": "Point",
        "coordinates": [52.505717815398171, 29.81782563395857]
      }
    },
    {
      "type": "Feature",
      "properties": { "Text": "288" },
      "geometry": {
        "type": "Point",
        "coordinates": [52.505825013304921, 29.817880371974002]
      }
    },
    {
      "type": "Feature",
      "properties": { "Text": "288" },
      "geometry": {
        "type": "Point",
        "coordinates": [52.505934607937846, 29.817936010554313]
      }
    },
    {
      "type": "Feature",
      "properties": { "Text": "407" },
      "geometry": {
        "type": "Point",
        "coordinates": [52.506041714198034, 29.817986466447373]
      }
    },
    {
      "type": "Feature",
      "properties": { "Text": "219" },
      "geometry": {
        "type": "Point",
        "coordinates": [52.505712770080152, 29.818032745647439]
      }
    },
    {
      "type": "Feature",
      "properties": { "Text": "207" },
      "geometry": {
        "type": "Point",
        "coordinates": [52.505592682820755, 29.818003395290781]
      }
    },
    {
      "type": "Feature",
      "properties": { "Text": "255" },
      "geometry": {
        "type": "Point",
        "coordinates": [52.505497582041663, 29.817958219525824]
      }
    },
    {
      "type": "Feature",
      "properties": { "Text": "258" },
      "geometry": {
        "type": "Point",
        "coordinates": [52.505378623946406, 29.81789977686822]
      }
    },
    {
      "type": "Feature",
      "properties": { "Text": "295" },
      "geometry": {
        "type": "Point",
        "coordinates": [52.50527962662278, 29.817850358531842]
      }
    },
    {
      "type": "Feature",
      "properties": { "Text": "285" },
      "geometry": {
        "type": "Point",
        "coordinates": [52.505166780931077, 29.817788523549144]
      }
    },
    {
      "type": "Feature",
      "properties": { "Text": "255" },
      "geometry": {
        "type": "Point",
        "coordinates": [52.505063491707794, 29.817727491873047]
      }
    },
    {
      "type": "Feature",
      "properties": { "Text": "208" },
      "geometry": {
        "type": "Point",
        "coordinates": [52.50494844586224, 29.817667625597913]
      }
    },
    {
      "type": "Feature",
      "properties": { "Text": "231" },
      "geometry": {
        "type": "Point",
        "coordinates": [52.504823854076008, 29.81759966704853]
      }
    },
    {
      "type": "Feature",
      "properties": { "Text": "185" },
      "geometry": {
        "type": "Point",
        "coordinates": [52.504826302025855, 29.817454853336763]
      }
    },
    {
      "type": "Feature",
      "properties": { "Text": "184" },
      "geometry": {
        "type": "Point",
        "coordinates": [52.504711558116952, 29.817406098590219]
      }
    },
    {
      "type": "Feature",
      "properties": { "Text": "183" },
      "geometry": {
        "type": "Point",
        "coordinates": [52.504610141601248, 29.817313773110964]
      }
    },
    {
      "type": "Feature",
      "properties": { "Text": "266" },
      "geometry": {
        "type": "Point",
        "coordinates": [52.504581885007021, 29.816898114794768]
      }
    },
    {
      "type": "Feature",
      "properties": { "Text": "288" },
      "geometry": {
        "type": "Point",
        "coordinates": [52.504692124310054, 29.816951535755258]
      }
    },
    {
      "type": "Feature",
      "properties": { "Text": "288" },
      "geometry": {
        "type": "Point",
        "coordinates": [52.504804616920396, 29.817012396661376]
      }
    },
    {
      "type": "Feature",
      "properties": { "Text": "288" },
      "geometry": {
        "type": "Point",
        "coordinates": [52.50490933642174, 29.817061627657033]
      }
    },
    {
      "type": "Feature",
      "properties": { "Text": "288" },
      "geometry": {
        "type": "Point",
        "coordinates": [52.505021065299353, 29.817115452409883]
      }
    },
    {
      "type": "Feature",
      "properties": { "Text": "288" },
      "geometry": {
        "type": "Point",
        "coordinates": [52.505128280375402, 29.817159294601922]
      }
    },
    {
      "type": "Feature",
      "properties": { "Text": "288" },
      "geometry": {
        "type": "Point",
        "coordinates": [52.505244012016398, 29.817215622104953]
      }
    },
    {
      "type": "Feature",
      "properties": { "Text": "288" },
      "geometry": {
        "type": "Point",
        "coordinates": [52.505340526542113, 29.817269006165461]
      }
    },
    {
      "type": "Feature",
      "properties": { "Text": "288" },
      "geometry": {
        "type": "Point",
        "coordinates": [52.505452657372764, 29.817318545510012]
      }
    },
    {
      "type": "Feature",
      "properties": { "Text": "288" },
      "geometry": {
        "type": "Point",
        "coordinates": [52.505564909992394, 29.817368237830081]
      }
    },
    {
      "type": "Feature",
      "properties": { "Text": "288" },
      "geometry": {
        "type": "Point",
        "coordinates": [52.505674238522211, 29.817423475919377]
      }
    },
    {
      "type": "Feature",
      "properties": { "Text": "288" },
      "geometry": {
        "type": "Point",
        "coordinates": [52.505789880520744, 29.817472627404079]
      }
    },
    {
      "type": "Feature",
      "properties": { "Text": "286" },
      "geometry": {
        "type": "Point",
        "coordinates": [52.505886430632906, 29.817532258928793]
      }
    },
    {
      "type": "Feature",
      "properties": { "Text": "259" },
      "geometry": {
        "type": "Point",
        "coordinates": [52.505950725798698, 29.817644010873604]
      }
    },
    {
      "type": "Feature",
      "properties": { "Text": "282" },
      "geometry": {
        "type": "Point",
        "coordinates": [52.504706634501787, 29.816719077081117]
      }
    },
    {
      "type": "Feature",
      "properties": { "Text": "303" },
      "geometry": {
        "type": "Point",
        "coordinates": [52.505874762283796, 29.817328186065296]
      }
    },
    {
      "type": "Feature",
      "properties": { "Text": "288" },
      "geometry": {
        "type": "Point",
        "coordinates": [52.504812923463959, 29.81676994135665]
      }
    },
    {
      "type": "Feature",
      "properties": { "Text": "288" },
      "geometry": {
        "type": "Point",
        "coordinates": [52.504919668088903, 29.816819038475426]
      }
    },
    {
      "type": "Feature",
      "properties": { "Text": "288" },
      "geometry": {
        "type": "Point",
        "coordinates": [52.505042172803542, 29.816871460318939]
      }
    },
    {
      "type": "Feature",
      "properties": { "Text": "288" },
      "geometry": {
        "type": "Point",
        "coordinates": [52.505144106145409, 29.816918054138508]
      }
    },
    {
      "type": "Feature",
      "properties": { "Text": "288" },
      "geometry": {
        "type": "Point",
        "coordinates": [52.505254213783644, 29.816969959920858]
      }
    },
    {
      "type": "Feature",
      "properties": { "Text": "288" },
      "geometry": {
        "type": "Point",
        "coordinates": [52.505356984308186, 29.817026278268546]
      }
    },
    {
      "type": "Feature",
      "properties": { "Text": "288" },
      "geometry": {
        "type": "Point",
        "coordinates": [52.505468845500204, 29.817077684326922]
      }
    },
    {
      "type": "Feature",
      "properties": { "Text": "288" },
      "geometry": {
        "type": "Point",
        "coordinates": [52.505578219584741, 29.817133896212987]
      }
    },
    {
      "type": "Feature",
      "properties": { "Text": "288" },
      "geometry": {
        "type": "Point",
        "coordinates": [52.505679232019446, 29.817185232692285]
      }
    },
    {
      "type": "Feature",
      "properties": { "Text": "288" },
      "geometry": {
        "type": "Point",
        "coordinates": [52.505786939891898, 29.81724075564081]
      }
    },
    {
      "type": "Feature",
      "properties": { "Text": "409" },
      "geometry": {
        "type": "Point",
        "coordinates": [52.50646292986432, 29.817821292806016]
      }
    },
    {
      "type": "Feature",
      "properties": { "Text": "318" },
      "geometry": {
        "type": "Point",
        "coordinates": [52.506566626144291, 29.817673881520353]
      }
    },
    {
      "type": "Feature",
      "properties": { "Text": "351" },
      "geometry": {
        "type": "Point",
        "coordinates": [52.506355780622812, 29.817731343484372]
      }
    },
    {
      "type": "Feature",
      "properties": { "Text": "355" },
      "geometry": {
        "type": "Point",
        "coordinates": [52.506301266854287, 29.817604060636956]
      }
    },
    {
      "type": "Feature",
      "properties": { "Text": "305" },
      "geometry": {
        "type": "Point",
        "coordinates": [52.506508169399105, 29.817541312056928]
      }
    },
    {
      "type": "Feature",
      "properties": { "Text": "378" },
      "geometry": {
        "type": "Point",
        "coordinates": [52.506462705840271, 29.817445535628035]
      }
    },
    {
      "type": "Feature",
      "properties": { "Text": "351" },
      "geometry": {
        "type": "Point",
        "coordinates": [52.506217091033548, 29.817483336819581]
      }
    },
    {
      "type": "Feature",
      "properties": { "Text": "275" },
      "geometry": {
        "type": "Point",
        "coordinates": [52.506434357167933, 29.817336717077886]
      }
    },
    {
      "type": "Feature",
      "properties": { "Text": "336" },
      "geometry": {
        "type": "Point",
        "coordinates": [52.506181449241367, 29.817358089753295]
      }
    },
    {
      "type": "Feature",
      "properties": { "Text": "318" },
      "geometry": {
        "type": "Point",
        "coordinates": [52.506175405106951, 29.817237852116836]
      }
    },
    {
      "type": "Feature",
      "properties": { "Text": "291" },
      "geometry": {
        "type": "Point",
        "coordinates": [52.506429566629976, 29.817234509486148]
      }
    },
    {
      "type": "Feature",
      "properties": { "Text": "263" },
      "geometry": {
        "type": "Point",
        "coordinates": [52.506428424131329, 29.817141023471674]
      }
    },
    {
      "type": "Feature",
      "properties": { "Text": "338" },
      "geometry": {
        "type": "Point",
        "coordinates": [52.506185746362988, 29.817113345204277]
      }
    },
    {
      "type": "Feature",
      "properties": { "Text": "291" },
      "geometry": {
        "type": "Point",
        "coordinates": [52.506439727811006, 29.817020506087783]
      }
    },
    {
      "type": "Feature",
      "properties": { "Text": "300" },
      "geometry": {
        "type": "Point",
        "coordinates": [52.506200601950646, 29.816996954098908]
      }
    },
    {
      "type": "Feature",
      "properties": { "Text": "300" },
      "geometry": {
        "type": "Point",
        "coordinates": [52.506216660949363, 29.816895914451489]
      }
    },
    {
      "type": "Feature",
      "properties": { "Text": "292" },
      "geometry": {
        "type": "Point",
        "coordinates": [52.506462776113352, 29.816922033206538]
      }
    },
    {
      "type": "Feature",
      "properties": { "Text": "278" },
      "geometry": {
        "type": "Point",
        "coordinates": [52.506502873544008, 29.816807549361833]
      }
    },
    {
      "type": "Feature",
      "properties": { "Text": "292" },
      "geometry": {
        "type": "Point",
        "coordinates": [52.506254862718109, 29.816773940126595]
      }
    },
    {
      "type": "Feature",
      "properties": { "Text": "297" },
      "geometry": {
        "type": "Point",
        "coordinates": [52.506270070394912, 29.816673666067871]
      }
    },
    {
      "type": "Feature",
      "properties": { "Text": "300" },
      "geometry": {
        "type": "Point",
        "coordinates": [52.506509904634086, 29.81669010880476]
      }
    },
    {
      "type": "Feature",
      "properties": { "Text": "298" },
      "geometry": {
        "type": "Point",
        "coordinates": [52.506510667894005, 29.816564890124738]
      }
    },
    {
      "type": "Feature",
      "properties": { "Text": "296" },
      "geometry": {
        "type": "Point",
        "coordinates": [52.506278158956633, 29.816566379737949]
      }
    },
    {
      "type": "Feature",
      "properties": { "Text": "285" },
      "geometry": {
        "type": "Point",
        "coordinates": [52.506256727070671, 29.816456918462805]
      }
    },
    {
      "type": "Feature",
      "properties": { "Text": "305" },
      "geometry": {
        "type": "Point",
        "coordinates": [52.506504575486638, 29.816442396011048]
      }
    },
    {
      "type": "Feature",
      "properties": { "Text": "280" },
      "geometry": {
        "type": "Point",
        "coordinates": [52.506497071364535, 29.816335384749468]
      }
    },
    {
      "type": "Feature",
      "properties": { "Text": "283" },
      "geometry": {
        "type": "Point",
        "coordinates": [52.506264081234811, 29.816354932544083]
      }
    },
    {
      "type": "Feature",
      "properties": { "Text": "280" },
      "geometry": {
        "type": "Point",
        "coordinates": [52.506238489396132, 29.816253811177617]
      }
    },
    {
      "type": "Feature",
      "properties": { "Text": "283" },
      "geometry": {
        "type": "Point",
        "coordinates": [52.506488586012203, 29.816222706233422]
      }
    },
    {
      "type": "Feature",
      "properties": { "Text": "292" },
      "geometry": {
        "type": "Point",
        "coordinates": [52.506477567159806, 29.816114233895014]
      }
    },
    {
      "type": "Feature",
      "properties": { "Text": "271" },
      "geometry": {
        "type": "Point",
        "coordinates": [52.506249284076183, 29.816151004257847]
      }
    },
    {
      "type": "Feature",
      "properties": { "Text": "271" },
      "geometry": {
        "type": "Point",
        "coordinates": [52.506227167133581, 29.816050384755791]
      }
    },
    {
      "type": "Feature",
      "properties": { "Text": "292" },
      "geometry": {
        "type": "Point",
        "coordinates": [52.506456092319361, 29.816003074560623]
      }
    },
    {
      "type": "Feature",
      "properties": { "Text": "292" },
      "geometry": {
        "type": "Point",
        "coordinates": [52.506428442412137, 29.815887570662351]
      }
    },
    {
      "type": "Feature",
      "properties": { "Text": "271" },
      "geometry": {
        "type": "Point",
        "coordinates": [52.506204240363168, 29.815952855303475]
      }
    },
    {
      "type": "Feature",
      "properties": { "Text": "271" },
      "geometry": {
        "type": "Point",
        "coordinates": [52.50617249400009, 29.815849353393308]
      }
    },
    {
      "type": "Feature",
      "properties": { "Text": "293" },
      "geometry": {
        "type": "Point",
        "coordinates": [52.506387973868797, 29.815781952878616]
      }
    },
    {
      "type": "Feature",
      "properties": { "Text": "293" },
      "geometry": {
        "type": "Point",
        "coordinates": [52.506343076082878, 29.815671988942658]
      }
    },
    {
      "type": "Feature",
      "properties": { "Text": "271" },
      "geometry": {
        "type": "Point",
        "coordinates": [52.506133074053039, 29.815752087060357]
      }
    },
    {
      "type": "Feature",
      "properties": { "Text": "242" },
      "geometry": {
        "type": "Point",
        "coordinates": [52.506090485126428, 29.815669845111561]
      }
    },
    {
      "type": "Feature",
      "properties": { "Text": "322" },
      "geometry": {
        "type": "Point",
        "coordinates": [52.506283395260787, 29.815561442234596]
      }
    },
    {
      "type": "Feature",
      "properties": { "Text": "312" },
      "geometry": {
        "type": "Point",
        "coordinates": [52.506214995570851, 29.815446719682654]
      }
    },
    {
      "type": "Feature",
      "properties": { "Text": "267" },
      "geometry": {
        "type": "Point",
        "coordinates": [52.506039883798067, 29.815575894928998]
      }
    },
    {
      "type": "Feature",
      "properties": { "Text": "273" },
      "geometry": {
        "type": "Point",
        "coordinates": [52.505970489504762, 29.815495785379586]
      }
    },
    {
      "type": "Feature",
      "properties": { "Text": "319" },
      "geometry": {
        "type": "Point",
        "coordinates": [52.50613146984211, 29.815356085204062]
      }
    },
    {
      "type": "Feature",
      "properties": { "Text": "307" },
      "geometry": {
        "type": "Point",
        "coordinates": [52.505875956805596, 29.815421716764252]
      }
    },
    {
      "type": "Feature",
      "properties": { "Text": "351" },
      "geometry": {
        "type": "Point",
        "coordinates": [52.506021929781099, 29.815268943284391]
      }
    },
    {
      "type": "Feature",
      "properties": { "Text": "326" },
      "geometry": {
        "type": "Point",
        "coordinates": [52.505917690010286, 29.815184707458595]
      }
    },
    {
      "type": "Feature",
      "properties": { "Text": "341" },
      "geometry": {
        "type": "Point",
        "coordinates": [52.505774447927351, 29.815343453938716]
      }
    },
    {
      "type": "Feature",
      "properties": { "Text": "423" },
      "geometry": {
        "type": "Point",
        "coordinates": [52.505650826392305, 29.815283772684804]
      }
    },
    {
      "type": "Feature",
      "properties": { "Text": "419" },
      "geometry": {
        "type": "Point",
        "coordinates": [52.505762472332101, 29.815108236620144]
      }
    },
    {
      "type": "Feature",
      "properties": { "Text": "282" },
      "geometry": {
        "type": "Point",
        "coordinates": [52.504888957308047, 29.816425989579432]
      }
    },
    {
      "type": "Feature",
      "properties": { "Text": "288" },
      "geometry": {
        "type": "Point",
        "coordinates": [52.505003415930638, 29.816473548914836]
      }
    },
    {
      "type": "Feature",
      "properties": { "Text": "288" },
      "geometry": {
        "type": "Point",
        "coordinates": [52.505114030904416, 29.816527675423245]
      }
    },
    {
      "type": "Feature",
      "properties": { "Text": "288" },
      "geometry": {
        "type": "Point",
        "coordinates": [52.505229476258279, 29.816579182788381]
      }
    },
    {
      "type": "Feature",
      "properties": { "Text": "288" },
      "geometry": {
        "type": "Point",
        "coordinates": [52.505338064793548, 29.816629953490345]
      }
    },
    {
      "type": "Feature",
      "properties": { "Text": "288" },
      "geometry": {
        "type": "Point",
        "coordinates": [52.505441895442694, 29.816686730504937]
      }
    },
    {
      "type": "Feature",
      "properties": { "Text": "288" },
      "geometry": {
        "type": "Point",
        "coordinates": [52.505551502125741, 29.816730998467381]
      }
    },
    {
      "type": "Feature",
      "properties": { "Text": "288" },
      "geometry": {
        "type": "Point",
        "coordinates": [52.505658299901704, 29.816789421817575]
      }
    },
    {
      "type": "Feature",
      "properties": { "Text": "288" },
      "geometry": {
        "type": "Point",
        "coordinates": [52.505770796252101, 29.816840129454818]
      }
    },
    {
      "type": "Feature",
      "properties": { "Text": "288" },
      "geometry": {
        "type": "Point",
        "coordinates": [52.50588804193454, 29.816656114459995]
      }
    },
    {
      "type": "Feature",
      "properties": { "Text": "288" },
      "geometry": {
        "type": "Point",
        "coordinates": [52.505776625743039, 29.816611111312849]
      }
    },
    {
      "type": "Feature",
      "properties": { "Text": "288" },
      "geometry": {
        "type": "Point",
        "coordinates": [52.505660203417172, 29.81655961971672]
      }
    },
    {
      "type": "Feature",
      "properties": { "Text": "288" },
      "geometry": {
        "type": "Point",
        "coordinates": [52.505555359585479, 29.816501164739822]
      }
    },
    {
      "type": "Feature",
      "properties": { "Text": "288" },
      "geometry": {
        "type": "Point",
        "coordinates": [52.505437604711602, 29.81645224773839]
      }
    },
    {
      "type": "Feature",
      "properties": { "Text": "288" },
      "geometry": {
        "type": "Point",
        "coordinates": [52.505336420830162, 29.816399672051986]
      }
    },
    {
      "type": "Feature",
      "properties": { "Text": "288" },
      "geometry": {
        "type": "Point",
        "coordinates": [52.505227451569233, 29.816348576923513]
      }
    },
    {
      "type": "Feature",
      "properties": { "Text": "288" },
      "geometry": {
        "type": "Point",
        "coordinates": [52.505121608042572, 29.816297431410632]
      }
    },
    {
      "type": "Feature",
      "properties": { "Text": "282" },
      "geometry": {
        "type": "Point",
        "coordinates": [52.504998705387287, 29.816253451537111]
      }
    },
    {
      "type": "Feature",
      "properties": { "Text": "239" },
      "geometry": {
        "type": "Point",
        "coordinates": [52.505951967187137, 29.816755939441386]
      }
    },
    {
      "type": "Feature",
      "properties": { "Text": "449" },
      "geometry": {
        "type": "Point",
        "coordinates": [52.505881002223141, 29.816928369635903]
      }
    },
    {
      "type": "Feature",
      "properties": { "Text": "282" },
      "geometry": {
        "type": "Point",
        "coordinates": [52.505200981545329, 29.815946966159554]
      }
    },
    {
      "type": "Feature",
      "properties": { "Text": "288" },
      "geometry": {
        "type": "Point",
        "coordinates": [52.505310005315565, 29.816001965572436]
      }
    },
    {
      "type": "Feature",
      "properties": { "Text": "288" },
      "geometry": {
        "type": "Point",
        "coordinates": [52.505415844233049, 29.816058129129285]
      }
    },
    {
      "type": "Feature",
      "properties": { "Text": "288" },
      "geometry": {
        "type": "Point",
        "coordinates": [52.505533772969947, 29.816104217679978]
      }
    },
    {
      "type": "Feature",
      "properties": { "Text": "288" },
      "geometry": {
        "type": "Point",
        "coordinates": [52.505639647638255, 29.81616204989032]
      }
    },
    {
      "type": "Feature",
      "properties": { "Text": "288" },
      "geometry": {
        "type": "Point",
        "coordinates": [52.505744908444946, 29.816212315943279]
      }
    },
    {
      "type": "Feature",
      "properties": { "Text": "288" },
      "geometry": {
        "type": "Point",
        "coordinates": [52.50585569068145, 29.816259496890623]
      }
    },
    {
      "type": "Feature",
      "properties": { "Text": "356" },
      "geometry": {
        "type": "Point",
        "coordinates": [52.505946652097798, 29.816340382830315]
      }
    },
    {
      "type": "Feature",
      "properties": { "Text": "213" },
      "geometry": {
        "type": "Point",
        "coordinates": [52.50593146375958, 29.816140622586946]
      }
    },
    {
      "type": "Feature",
      "properties": { "Text": "239" },
      "geometry": {
        "type": "Point",
        "coordinates": [52.505849902030633, 29.81604901287789]
      }
    },
    {
      "type": "Feature",
      "properties": { "Text": "234" },
      "geometry": {
        "type": "Point",
        "coordinates": [52.505305111087331, 29.815797524926708]
      }
    },
    {
      "type": "Feature",
      "properties": { "Text": "240" },
      "geometry": {
        "type": "Point",
        "coordinates": [52.505740456198865, 29.816010481325364]
      }
    },
    {
      "type": "Feature",
      "properties": { "Text": "240" },
      "geometry": {
        "type": "Point",
        "coordinates": [52.505627813077126, 29.815957884178587]
      }
    },
    {
      "type": "Feature",
      "properties": { "Text": "240" },
      "geometry": {
        "type": "Point",
        "coordinates": [52.505518355126945, 29.815905052291424]
      }
    },
    {
      "type": "Feature",
      "properties": { "Text": "240" },
      "geometry": {
        "type": "Point",
        "coordinates": [52.505412328132287, 29.815850603644584]
      }
    },
    {
      "type": "Feature",
      "properties": { "Text": "314" },
      "geometry": {
        "type": "Point",
        "coordinates": [52.504211025005745, 29.816786269517038]
      }
    },
    {
      "type": "Feature",
      "properties": { "Text": "218" },
      "geometry": {
        "type": "Point",
        "coordinates": [52.504043981928035, 29.816702049155044]
      }
    },
    {
      "type": "Feature",
      "properties": { "Text": "281" },
      "geometry": {
        "type": "Point",
        "coordinates": [52.50405792505407, 29.816588053038704]
      }
    },
    {
      "type": "Feature",
      "properties": { "Text": "317" },
      "geometry": {
        "type": "Point",
        "coordinates": [52.505527479106007, 29.814949782725442]
      }
    },
    {
      "type": "Feature",
      "properties": { "Text": "328" },
      "geometry": {
        "type": "Point",
        "coordinates": [52.505423901589872, 29.814890456765283]
      }
    },
    {
      "type": "Feature",
      "properties": { "Text": "333" },
      "geometry": {
        "type": "Point",
        "coordinates": [52.505330042442573, 29.814847233645796]
      }
    },
    {
      "type": "Feature",
      "properties": { "Text": "333" },
      "geometry": {
        "type": "Point",
        "coordinates": [52.505215517075342, 29.814789381759372]
      }
    },
    {
      "type": "Feature",
      "properties": { "Text": "288" },
      "geometry": {
        "type": "Point",
        "coordinates": [52.504274455109346, 29.816689116562753]
      }
    },
    {
      "type": "Feature",
      "properties": { "Text": "288" },
      "geometry": {
        "type": "Point",
        "coordinates": [52.50433139068835, 29.81659599063082]
      }
    },
    {
      "type": "Feature",
      "properties": { "Text": "288" },
      "geometry": {
        "type": "Point",
        "coordinates": [52.504118442827298, 29.816496822304014]
      }
    },
    {
      "type": "Feature",
      "properties": { "Text": "288" },
      "geometry": {
        "type": "Point",
        "coordinates": [52.504189453533151, 29.816406970430727]
      }
    },
    {
      "type": "Feature",
      "properties": { "Text": "288" },
      "geometry": {
        "type": "Point",
        "coordinates": [52.504392155071983, 29.81650197637428]
      }
    },
    {
      "type": "Feature",
      "properties": { "Text": "288" },
      "geometry": {
        "type": "Point",
        "coordinates": [52.504455707316623, 29.8164123696085]
      }
    },
    {
      "type": "Feature",
      "properties": { "Text": "288" },
      "geometry": {
        "type": "Point",
        "coordinates": [52.504521487066228, 29.816320632993431]
      }
    },
    {
      "type": "Feature",
      "properties": { "Text": "288" },
      "geometry": {
        "type": "Point",
        "coordinates": [52.50457794441445, 29.816222835723821]
      }
    },
    {
      "type": "Feature",
      "properties": { "Text": "288" },
      "geometry": {
        "type": "Point",
        "coordinates": [52.5046372426389, 29.816128859526312]
      }
    },
    {
      "type": "Feature",
      "properties": { "Text": "288" },
      "geometry": {
        "type": "Point",
        "coordinates": [52.504694340643184, 29.816036126813373]
      }
    },
    {
      "type": "Feature",
      "properties": { "Text": "288" },
      "geometry": {
        "type": "Point",
        "coordinates": [52.504761581396963, 29.815939274953863]
      }
    },
    {
      "type": "Feature",
      "properties": { "Text": "288" },
      "geometry": {
        "type": "Point",
        "coordinates": [52.50482308422756, 29.815853391697818]
      }
    },
    {
      "type": "Feature",
      "properties": { "Text": "288" },
      "geometry": {
        "type": "Point",
        "coordinates": [52.50488381161766, 29.815752008677723]
      }
    },
    {
      "type": "Feature",
      "properties": { "Text": "288" },
      "geometry": {
        "type": "Point",
        "coordinates": [52.504936677440625, 29.815659118314294]
      }
    },
    {
      "type": "Feature",
      "properties": { "Text": "288" },
      "geometry": {
        "type": "Point",
        "coordinates": [52.504993637253065, 29.815559928181223]
      }
    },
    {
      "type": "Feature",
      "properties": { "Text": "288" },
      "geometry": {
        "type": "Point",
        "coordinates": [52.505054998953895, 29.815464070396253]
      }
    },
    {
      "type": "Feature",
      "properties": { "Text": "288" },
      "geometry": {
        "type": "Point",
        "coordinates": [52.505119043792249, 29.815372609282651]
      }
    },
    {
      "type": "Feature",
      "properties": { "Text": "288" },
      "geometry": {
        "type": "Point",
        "coordinates": [52.505179343160918, 29.815277266776427]
      }
    },
    {
      "type": "Feature",
      "properties": { "Text": "288" },
      "geometry": {
        "type": "Point",
        "coordinates": [52.505239610656275, 29.815182044480565]
      }
    },
    {
      "type": "Feature",
      "properties": { "Text": "288" },
      "geometry": {
        "type": "Point",
        "coordinates": [52.505300974074657, 29.815087705010182]
      }
    },
    {
      "type": "Feature",
      "properties": { "Text": "288" },
      "geometry": {
        "type": "Point",
        "coordinates": [52.505085171534553, 29.814984585972255]
      }
    },
    {
      "type": "Feature",
      "properties": { "Text": "288" },
      "geometry": {
        "type": "Point",
        "coordinates": [52.505033766343487, 29.815084303255354]
      }
    },
    {
      "type": "Feature",
      "properties": { "Text": "288" },
      "geometry": {
        "type": "Point",
        "coordinates": [52.504962976527302, 29.815175858945171]
      }
    },
    {
      "type": "Feature",
      "properties": { "Text": "288" },
      "geometry": {
        "type": "Point",
        "coordinates": [52.504903457018678, 29.815274904259052]
      }
    },
    {
      "type": "Feature",
      "properties": { "Text": "288" },
      "geometry": {
        "type": "Point",
        "coordinates": [52.504831044081342, 29.815368142179352]
      }
    },
    {
      "type": "Feature",
      "properties": { "Text": "288" },
      "geometry": {
        "type": "Point",
        "coordinates": [52.504776365794008, 29.815462683687542]
      }
    },
    {
      "type": "Feature",
      "properties": { "Text": "288" },
      "geometry": {
        "type": "Point",
        "coordinates": [52.504711344830973, 29.815551153798737]
      }
    },
    {
      "type": "Feature",
      "properties": { "Text": "288" },
      "geometry": {
        "type": "Point",
        "coordinates": [52.504656191323228, 29.815648484788085]
      }
    },
    {
      "type": "Feature",
      "properties": { "Text": "288" },
      "geometry": {
        "type": "Point",
        "coordinates": [52.504588041405782, 29.815742625580583]
      }
    },
    {
      "type": "Feature",
      "properties": { "Text": "288" },
      "geometry": {
        "type": "Point",
        "coordinates": [52.504530598858459, 29.815835008115684]
      }
    },
    {
      "type": "Feature",
      "properties": { "Text": "288" },
      "geometry": {
        "type": "Point",
        "coordinates": [52.504468961739001, 29.815932195846674]
      }
    },
    {
      "type": "Feature",
      "properties": { "Text": "288" },
      "geometry": {
        "type": "Point",
        "coordinates": [52.504412624467292, 29.81602640985253]
      }
    },
    {
      "type": "Feature",
      "properties": { "Text": "288" },
      "geometry": {
        "type": "Point",
        "coordinates": [52.504347121621151, 29.816117596376685]
      }
    },
    {
      "type": "Feature",
      "properties": { "Text": "288" },
      "geometry": {
        "type": "Point",
        "coordinates": [52.504282820351285, 29.816213808772993]
      }
    },
    {
      "type": "Feature",
      "properties": { "Text": "288" },
      "geometry": {
        "type": "Point",
        "coordinates": [52.504220645977782, 29.816309983094289]
      }
    },
    {
      "type": "Feature",
      "properties": { "Text": "366" },
      "geometry": {
        "type": "Point",
        "coordinates": [52.504280379414155, 29.815502476565189]
      }
    },
    {
      "type": "Feature",
      "properties": { "Text": "366" },
      "geometry": {
        "type": "Point",
        "coordinates": [52.504335708498232, 29.815409874185349]
      }
    },
    {
      "type": "Feature",
      "properties": { "Text": "366" },
      "geometry": {
        "type": "Point",
        "coordinates": [52.504394783627696, 29.815309855820367]
      }
    },
    {
      "type": "Feature",
      "properties": { "Text": "366" },
      "geometry": {
        "type": "Point",
        "coordinates": [52.504468908238309, 29.81521823798634]
      }
    },
    {
      "type": "Feature",
      "properties": { "Text": "366" },
      "geometry": {
        "type": "Point",
        "coordinates": [52.504531484293992, 29.815127752275984]
      }
    },
    {
      "type": "Feature",
      "properties": { "Text": "366" },
      "geometry": {
        "type": "Point",
        "coordinates": [52.504590076792155, 29.815031127908377]
      }
    },
    {
      "type": "Feature",
      "properties": { "Text": "366" },
      "geometry": {
        "type": "Point",
        "coordinates": [52.504650944595504, 29.814937333557651]
      }
    },
    {
      "type": "Feature",
      "properties": { "Text": "371" },
      "geometry": {
        "type": "Point",
        "coordinates": [52.504707994085187, 29.814846005028482]
      }
    },
    {
      "type": "Feature",
      "properties": { "Text": "404" },
      "geometry": {
        "type": "Point",
        "coordinates": [52.504757250828497, 29.814751957401555]
      }
    },
    {
      "type": "Feature",
      "properties": { "Text": "282" },
      "geometry": {
        "type": "Point",
        "coordinates": [52.504765547614987, 29.81454815846055]
      }
    },
    {
      "type": "Feature",
      "properties": { "Text": "287" },
      "geometry": {
        "type": "Point",
        "coordinates": [52.504883192949855, 29.814612180908615]
      }
    },
    {
      "type": "Feature",
      "properties": { "Text": "276" },
      "geometry": {
        "type": "Point",
        "coordinates": [52.504997849722585, 29.814664962772557]
      }
    },
    {
      "type": "Feature",
      "properties": { "Text": "294" },
      "geometry": {
        "type": "Point",
        "coordinates": [52.505113953793867, 29.814315289649855]
      }
    },
    {
      "type": "Feature",
      "properties": { "Text": "293" },
      "geometry": {
        "type": "Point",
        "coordinates": [52.505011651412254, 29.814259544020722]
      }
    },
    {
      "type": "Feature",
      "properties": { "Text": "293" },
      "geometry": {
        "type": "Point",
        "coordinates": [52.505140001371942, 29.814080283846913]
      }
    },
    {
      "type": "Feature",
      "properties": { "Text": "294" },
      "geometry": {
        "type": "Point",
        "coordinates": [52.505248625801762, 29.81413101621774]
      }
    },
    {
      "type": "Feature",
      "properties": { "Text": "294" },
      "geometry": {
        "type": "Point",
        "coordinates": [52.505224507461492, 29.814367773370211]
      }
    },
    {
      "type": "Feature",
      "properties": { "Text": "294" },
      "geometry": {
        "type": "Point",
        "coordinates": [52.505334152603751, 29.814423972383775]
      }
    },
    {
      "type": "Feature",
      "properties": { "Text": "294" },
      "geometry": {
        "type": "Point",
        "coordinates": [52.505442877621832, 29.814479402867782]
      }
    },
    {
      "type": "Feature",
      "properties": { "Text": "294" },
      "geometry": {
        "type": "Point",
        "coordinates": [52.505547955586792, 29.814533325448384]
      }
    },
    {
      "type": "Feature",
      "properties": { "Text": "294" },
      "geometry": {
        "type": "Point",
        "coordinates": [52.505649582595495, 29.814590770769854]
      }
    },
    {
      "type": "Feature",
      "properties": { "Text": "294" },
      "geometry": {
        "type": "Point",
        "coordinates": [52.50575563099725, 29.814647810926594]
      }
    },
    {
      "type": "Feature",
      "properties": { "Text": "294" },
      "geometry": {
        "type": "Point",
        "coordinates": [52.505891632087661, 29.814457623786325]
      }
    },
    {
      "type": "Feature",
      "properties": { "Text": "294" },
      "geometry": {
        "type": "Point",
        "coordinates": [52.505773937034398, 29.814408373366035]
      }
    },
    {
      "type": "Feature",
      "properties": { "Text": "294" },
      "geometry": {
        "type": "Point",
        "coordinates": [52.50566879199846, 29.814351318531134]
      }
    },
    {
      "type": "Feature",
      "properties": { "Text": "294" },
      "geometry": {
        "type": "Point",
        "coordinates": [52.505566370188262, 29.814299444411969]
      }
    },
    {
      "type": "Feature",
      "properties": { "Text": "294" },
      "geometry": {
        "type": "Point",
        "coordinates": [52.505462078279209, 29.814240025810392]
      }
    },
    {
      "type": "Feature",
      "properties": { "Text": "294" },
      "geometry": {
        "type": "Point",
        "coordinates": [52.505351647081056, 29.814189322591385]
      }
    },
    {
      "type": "Feature",
      "properties": { "Text": "1" },
      "geometry": {
        "type": "Point",
        "coordinates": [52.505116961700537, 29.814149187831603]
      }
    },
    {
      "type": "Feature",
      "properties": { "Text": "2" },
      "geometry": {
        "type": "Point",
        "coordinates": [52.505213312840951, 29.814200298116056]
      }
    },
    {
      "type": "Feature",
      "properties": { "Text": "3" },
      "geometry": {
        "type": "Point",
        "coordinates": [52.505320737150655, 29.8142501312661]
      }
    },
    {
      "type": "Feature",
      "properties": { "Text": "4" },
      "geometry": {
        "type": "Point",
        "coordinates": [52.505427326472571, 29.814306927061342]
      }
    },
    {
      "type": "Feature",
      "properties": { "Text": "5" },
      "geometry": {
        "type": "Point",
        "coordinates": [52.505535347032598, 29.814364918840564]
      }
    },
    {
      "type": "Feature",
      "properties": { "Text": "6" },
      "geometry": {
        "type": "Point",
        "coordinates": [52.505631402082969, 29.814421884290073]
      }
    },
    {
      "type": "Feature",
      "properties": { "Text": "7" },
      "geometry": {
        "type": "Point",
        "coordinates": [52.505751386245656, 29.814480902225537]
      }
    },
    {
      "type": "Feature",
      "properties": { "Text": "8" },
      "geometry": {
        "type": "Point",
        "coordinates": [52.505855205683012, 29.814539571022024]
      }
    },
    {
      "type": "Feature",
      "properties": { "Text": "9" },
      "geometry": {
        "type": "Point",
        "coordinates": [52.505762251443265, 29.814702630633494]
      }
    },
    {
      "type": "Feature",
      "properties": { "Text": "10" },
      "geometry": {
        "type": "Point",
        "coordinates": [52.505646003008785, 29.81465939985091]
      }
    },
    {
      "type": "Feature",
      "properties": { "Text": "11" },
      "geometry": {
        "type": "Point",
        "coordinates": [52.505530960474069, 29.814601521374549]
      }
    },
    {
      "type": "Feature",
      "properties": { "Text": "12" },
      "geometry": {
        "type": "Point",
        "coordinates": [52.505424397233398, 29.81454594439942]
      }
    },
    {
      "type": "Feature",
      "properties": { "Text": "13" },
      "geometry": {
        "type": "Point",
        "coordinates": [52.505312085582609, 29.814484364845136]
      }
    },
    {
      "type": "Feature",
      "properties": { "Text": "14" },
      "geometry": {
        "type": "Point",
        "coordinates": [52.505205522339736, 29.814428787701647]
      }
    },
    {
      "type": "Feature",
      "properties": { "Text": "15" },
      "geometry": {
        "type": "Point",
        "coordinates": [52.505104655346685, 29.814376775875811]
      }
    },
    {
      "type": "Feature",
      "properties": { "Text": "16" },
      "geometry": {
        "type": "Point",
        "coordinates": [52.504989508730674, 29.814314022867826]
      }
    },
    {
      "type": "Feature",
      "properties": { "Text": "19" },
      "geometry": {
        "type": "Point",
        "coordinates": [52.504763146527374, 29.814605617550892]
      }
    },
    {
      "type": "Feature",
      "properties": { "Text": "18" },
      "geometry": {
        "type": "Point",
        "coordinates": [52.504873832025424, 29.814667265720619]
      }
    },
    {
      "type": "Feature",
      "properties": { "Text": "17" },
      "geometry": {
        "type": "Point",
        "coordinates": [52.504979061034575, 29.81471692850857]
      }
    },
    {
      "type": "Feature",
      "properties": { "Text": "20" },
      "geometry": {
        "type": "Point",
        "coordinates": [52.504840630948166, 29.814805143009163]
      }
    },
    {
      "type": "Feature",
      "properties": { "Text": "21" },
      "geometry": {
        "type": "Point",
        "coordinates": [52.504784576775954, 29.814904818077842]
      }
    },
    {
      "type": "Feature",
      "properties": { "Text": "22" },
      "geometry": {
        "type": "Point",
        "coordinates": [52.504726990222402, 29.814990716459803]
      }
    },
    {
      "type": "Feature",
      "properties": { "Text": "23" },
      "geometry": {
        "type": "Point",
        "coordinates": [52.50467227252701, 29.815094338287224]
      }
    },
    {
      "type": "Feature",
      "properties": { "Text": "24" },
      "geometry": {
        "type": "Point",
        "coordinates": [52.504605645320645, 29.81518282129004]
      }
    },
    {
      "type": "Feature",
      "properties": { "Text": "25" },
      "geometry": {
        "type": "Point",
        "coordinates": [52.504543079261296, 29.815282122750325]
      }
    },
    {
      "type": "Feature",
      "properties": { "Text": "26" },
      "geometry": {
        "type": "Point",
        "coordinates": [52.504484181380761, 29.815371765110214]
      }
    },
    {
      "type": "Feature",
      "properties": { "Text": "27" },
      "geometry": {
        "type": "Point",
        "coordinates": [52.504421967714471, 29.8154569603056]
      }
    },
    {
      "type": "Feature",
      "properties": { "Text": "28" },
      "geometry": {
        "type": "Point",
        "coordinates": [52.504359252351371, 29.815548247986939]
      }
    },
    {
      "type": "Feature",
      "properties": { "Text": "29" },
      "geometry": {
        "type": "Point",
        "coordinates": [52.505184709586644, 29.814853464977851]
      }
    },
    {
      "type": "Feature",
      "properties": { "Text": "30" },
      "geometry": {
        "type": "Point",
        "coordinates": [52.505291319958026, 29.814907111077346]
      }
    },
    {
      "type": "Feature",
      "properties": { "Text": "31" },
      "geometry": {
        "type": "Point",
        "coordinates": [52.505398278270071, 29.814950222286456]
      }
    },
    {
      "type": "Feature",
      "properties": { "Text": "32" },
      "geometry": {
        "type": "Point",
        "coordinates": [52.505506373500239, 29.815003844411354]
      }
    },
    {
      "type": "Feature",
      "properties": { "Text": "33" },
      "geometry": {
        "type": "Point",
        "coordinates": [52.505140367332828, 29.815041859416922]
      }
    },
    {
      "type": "Feature",
      "properties": { "Text": "34" },
      "geometry": {
        "type": "Point",
        "coordinates": [52.505355645905425, 29.815146337504746]
      }
    },
    {
      "type": "Feature",
      "properties": { "Text": "36" },
      "geometry": {
        "type": "Point",
        "coordinates": [52.505291332438318, 29.815233971054248]
      }
    },
    {
      "type": "Feature",
      "properties": { "Text": "35" },
      "geometry": {
        "type": "Point",
        "coordinates": [52.505075167479809, 29.815138786299912]
      }
    },
    {
      "type": "Feature",
      "properties": { "Text": "37" },
      "geometry": {
        "type": "Point",
        "coordinates": [52.50502299744609, 29.815232940214798]
      }
    },
    {
      "type": "Feature",
      "properties": { "Text": "38" },
      "geometry": {
        "type": "Point",
        "coordinates": [52.505237085176574, 29.8153426479461]
      }
    },
    {
      "type": "Feature",
      "properties": { "Text": "39" },
      "geometry": {
        "type": "Point",
        "coordinates": [52.50495818999692, 29.815332916993778]
      }
    },
    {
      "type": "Feature",
      "properties": { "Text": "40" },
      "geometry": {
        "type": "Point",
        "coordinates": [52.505167237601036, 29.815430286179311]
      }
    },
    {
      "type": "Feature",
      "properties": { "Text": "41" },
      "geometry": {
        "type": "Point",
        "coordinates": [52.504888236032251, 29.815414189020796]
      }
    },
    {
      "type": "Feature",
      "properties": { "Text": "42" },
      "geometry": {
        "type": "Point",
        "coordinates": [52.505104607655923, 29.815519029903893]
      }
    },
    {
      "type": "Feature",
      "properties": { "Text": "43" },
      "geometry": {
        "type": "Point",
        "coordinates": [52.504837981076243, 29.815522137946374]
      }
    },
    {
      "type": "Feature",
      "properties": { "Text": "44" },
      "geometry": {
        "type": "Point",
        "coordinates": [52.505047824409907, 29.815619494127642]
      }
    },
    {
      "type": "Feature",
      "properties": { "Text": "45" },
      "geometry": {
        "type": "Point",
        "coordinates": [52.504779315756174, 29.81561018302882]
      }
    },
    {
      "type": "Feature",
      "properties": { "Text": "46" },
      "geometry": {
        "type": "Point",
        "coordinates": [52.504982881749989, 29.815711780117777]
      }
    },
    {
      "type": "Feature",
      "properties": { "Text": "47" },
      "geometry": {
        "type": "Point",
        "coordinates": [52.504714395943651, 29.815702426634687]
      }
    },
    {
      "type": "Feature",
      "properties": { "Text": "48" },
      "geometry": {
        "type": "Point",
        "coordinates": [52.504930178465685, 29.815816936385531]
      }
    },
    {
      "type": "Feature",
      "properties": { "Text": "49" },
      "geometry": {
        "type": "Point",
        "coordinates": [52.50464700583079, 29.815792056198248]
      }
    },
    {
      "type": "Feature",
      "properties": { "Text": "50" },
      "geometry": {
        "type": "Point",
        "coordinates": [52.504886012460354, 29.81591309144472]
      }
    },
    {
      "type": "Feature",
      "properties": { "Text": "51" },
      "geometry": {
        "type": "Point",
        "coordinates": [52.504583718474599, 29.81588484279467]
      }
    },
    {
      "type": "Feature",
      "properties": { "Text": "52" },
      "geometry": {
        "type": "Point",
        "coordinates": [52.504801770128168, 29.815993795977853]
      }
    },
    {
      "type": "Feature",
      "properties": { "Text": "53" },
      "geometry": {
        "type": "Point",
        "coordinates": [52.504521523813224, 29.81598261955774]
      }
    },
    {
      "type": "Feature",
      "properties": { "Text": "54" },
      "geometry": {
        "type": "Point",
        "coordinates": [52.504738206695748, 29.816084607503864]
      }
    },
    {
      "type": "Feature",
      "properties": { "Text": "55" },
      "geometry": {
        "type": "Point",
        "coordinates": [52.504474572949142, 29.816082319851986]
      }
    },
    {
      "type": "Feature",
      "properties": { "Text": "56" },
      "geometry": {
        "type": "Point",
        "coordinates": [52.504691939478718, 29.81619122556825]
      }
    },
    {
      "type": "Feature",
      "properties": { "Text": "57" },
      "geometry": {
        "type": "Point",
        "coordinates": [52.504405058606594, 29.816175042068426]
      }
    },
    {
      "type": "Feature",
      "properties": { "Text": "58" },
      "geometry": {
        "type": "Point",
        "coordinates": [52.504625273514954, 29.816277409144607]
      }
    },
    {
      "type": "Feature",
      "properties": { "Text": "59" },
      "geometry": {
        "type": "Point",
        "coordinates": [52.504341540325989, 29.816268110076418]
      }
    },
    {
      "type": "Feature",
      "properties": { "Text": "60" },
      "geometry": {
        "type": "Point",
        "coordinates": [52.504559267385275, 29.816371368751835]
      }
    },
    {
      "type": "Feature",
      "properties": { "Text": "61" },
      "geometry": {
        "type": "Point",
        "coordinates": [52.50427457149604, 29.816363818986201]
      }
    },
    {
      "type": "Feature",
      "properties": { "Text": "62" },
      "geometry": {
        "type": "Point",
        "coordinates": [52.504502280105967, 29.816466486070972]
      }
    },
    {
      "type": "Feature",
      "properties": { "Text": "63" },
      "geometry": {
        "type": "Point",
        "coordinates": [52.504242236375795, 29.81646590770368]
      }
    },
    {
      "type": "Feature",
      "properties": { "Text": "64" },
      "geometry": {
        "type": "Point",
        "coordinates": [52.504441810313509, 29.816562545061899]
      }
    },
    {
      "type": "Feature",
      "properties": { "Text": "65" },
      "geometry": {
        "type": "Point",
        "coordinates": [52.504162920987994, 29.816552778294888]
      }
    },
    {
      "type": "Feature",
      "properties": { "Text": "66" },
      "geometry": {
        "type": "Point",
        "coordinates": [52.504378108565298, 29.816654311853245]
      }
    },
    {
      "type": "Feature",
      "properties": { "Text": "67" },
      "geometry": {
        "type": "Point",
        "coordinates": [52.504110353238701, 29.816643888520588]
      }
    },
    {
      "type": "Feature",
      "properties": { "Text": "68" },
      "geometry": {
        "type": "Point",
        "coordinates": [52.50432164959841, 29.816751611231108]
      }
    },
    {
      "type": "Feature",
      "properties": { "Text": "69" },
      "geometry": {
        "type": "Point",
        "coordinates": [52.504089275919554, 29.816758822510486]
      }
    },
    {
      "type": "Feature",
      "properties": { "Text": "70" },
      "geometry": {
        "type": "Point",
        "coordinates": [52.504244656738784, 29.816846104438493]
      }
    },
    {
      "type": "Feature",
      "properties": { "Text": "71" },
      "geometry": {
        "type": "Point",
        "coordinates": [52.505770840424525, 29.815167025443753]
      }
    },
    {
      "type": "Feature",
      "properties": { "Text": "72" },
      "geometry": {
        "type": "Point",
        "coordinates": [52.505919478375169, 29.815238116728988]
      }
    },
    {
      "type": "Feature",
      "properties": { "Text": "73" },
      "geometry": {
        "type": "Point",
        "coordinates": [52.506021927863081, 29.8153210082294]
      }
    },
    {
      "type": "Feature",
      "properties": { "Text": "74" },
      "geometry": {
        "type": "Point",
        "coordinates": [52.506125314386537, 29.815413721539784]
      }
    },
    {
      "type": "Feature",
      "properties": { "Text": "75" },
      "geometry": {
        "type": "Point",
        "coordinates": [52.506199488100989, 29.815499208975883]
      }
    },
    {
      "type": "Feature",
      "properties": { "Text": "76" },
      "geometry": {
        "type": "Point",
        "coordinates": [52.506268486349427, 29.815616250911237]
      }
    },
    {
      "type": "Feature",
      "properties": { "Text": "77" },
      "geometry": {
        "type": "Point",
        "coordinates": [52.506328216670049, 29.815724469860285]
      }
    },
    {
      "type": "Feature",
      "properties": { "Text": "78" },
      "geometry": {
        "type": "Point",
        "coordinates": [52.506367149175333, 29.815834791435829]
      }
    },
    {
      "type": "Feature",
      "properties": { "Text": "79" },
      "geometry": {
        "type": "Point",
        "coordinates": [52.506405200842821, 29.815941123046553]
      }
    },
    {
      "type": "Feature",
      "properties": { "Text": "80" },
      "geometry": {
        "type": "Point",
        "coordinates": [52.506437684533381, 29.81605973755477]
      }
    },
    {
      "type": "Feature",
      "properties": { "Text": "81" },
      "geometry": {
        "type": "Point",
        "coordinates": [52.50646733853786, 29.816163724236649]
      }
    },
    {
      "type": "Feature",
      "properties": { "Text": "82" },
      "geometry": {
        "type": "Point",
        "coordinates": [52.506487177778347, 29.816274634674169]
      }
    },
    {
      "type": "Feature",
      "properties": { "Text": "83" },
      "geometry": {
        "type": "Point",
        "coordinates": [52.506492874925399, 29.816385491092735]
      }
    },
    {
      "type": "Feature",
      "properties": { "Text": "84" },
      "geometry": {
        "type": "Point",
        "coordinates": [52.506494535635653, 29.816501134487531]
      }
    },
    {
      "type": "Feature",
      "properties": { "Text": "85" },
      "geometry": {
        "type": "Point",
        "coordinates": [52.506503787585302, 29.816622739998831]
      }
    },
    {
      "type": "Feature",
      "properties": { "Text": "86" },
      "geometry": {
        "type": "Point",
        "coordinates": [52.506498905281923, 29.816744332856405]
      }
    },
    {
      "type": "Feature",
      "properties": { "Text": "87" },
      "geometry": {
        "type": "Point",
        "coordinates": [52.506506279719986, 29.816855882231206]
      }
    },
    {
      "type": "Feature",
      "properties": { "Text": "88" },
      "geometry": {
        "type": "Point",
        "coordinates": [52.506488738694358, 29.816969551900524]
      }
    },
    {
      "type": "Feature",
      "properties": { "Text": "89" },
      "geometry": {
        "type": "Point",
        "coordinates": [52.506454299584284, 29.817069672602784]
      }
    },
    {
      "type": "Feature",
      "properties": { "Text": "90" },
      "geometry": {
        "type": "Point",
        "coordinates": [52.506455015868752, 29.817180888897411]
      }
    },
    {
      "type": "Feature",
      "properties": { "Text": "91" },
      "geometry": {
        "type": "Point",
        "coordinates": [52.506446403264491, 29.817283329638862]
      }
    },
    {
      "type": "Feature",
      "properties": { "Text": "92" },
      "geometry": {
        "type": "Point",
        "coordinates": [52.506455194292798, 29.817384214112607]
      }
    },
    {
      "type": "Feature",
      "properties": { "Text": "93" },
      "geometry": {
        "type": "Point",
        "coordinates": [52.506444996442596, 29.81749053627362]
      }
    },
    {
      "type": "Feature",
      "properties": { "Text": "94" },
      "geometry": {
        "type": "Point",
        "coordinates": [52.506508717496096, 29.817593455403976]
      }
    },
    {
      "type": "Feature",
      "properties": { "Text": "95" },
      "geometry": {
        "type": "Point",
        "coordinates": [52.506587379431714, 29.817734833897056]
      }
    },
    {
      "type": "Feature",
      "properties": { "Text": "96" },
      "geometry": {
        "type": "Point",
        "coordinates": [52.506465032879817, 29.817884607868216]
      }
    },
    {
      "type": "Feature",
      "properties": { "Text": "97" },
      "geometry": {
        "type": "Point",
        "coordinates": [52.506360538204774, 29.81777894694801]
      }
    },
    {
      "type": "Feature",
      "properties": { "Text": "98" },
      "geometry": {
        "type": "Point",
        "coordinates": [52.506304064831184, 29.817664587469551]
      }
    },
    {
      "type": "Feature",
      "properties": { "Text": "99" },
      "geometry": {
        "type": "Point",
        "coordinates": [52.506243212764424, 29.817542085064002]
      }
    },
    {
      "type": "Feature",
      "properties": { "Text": "100" },
      "geometry": {
        "type": "Point",
        "coordinates": [52.506206356826333, 29.817412280135731]
      }
    },
    {
      "type": "Feature",
      "properties": { "Text": "101" },
      "geometry": {
        "type": "Point",
        "coordinates": [52.506179715899997, 29.81729563162412]
      }
    },
    {
      "type": "Feature",
      "properties": { "Text": "102" },
      "geometry": {
        "type": "Point",
        "coordinates": [52.506196821234973, 29.817163229825553]
      }
    },
    {
      "type": "Feature",
      "properties": { "Text": "103" },
      "geometry": {
        "type": "Point",
        "coordinates": [52.506210911073133, 29.817044851089769]
      }
    },
    {
      "type": "Feature",
      "properties": { "Text": "104" },
      "geometry": {
        "type": "Point",
        "coordinates": [52.506231156239132, 29.816940383545827]
      }
    },
    {
      "type": "Feature",
      "properties": { "Text": "105" },
      "geometry": {
        "type": "Point",
        "coordinates": [52.506279404470227, 29.816825776907073]
      }
    },
    {
      "type": "Feature",
      "properties": { "Text": "106" },
      "geometry": {
        "type": "Point",
        "coordinates": [52.506298804156231, 29.816719895681956]
      }
    },
    {
      "type": "Feature",
      "properties": { "Text": "107" },
      "geometry": {
        "type": "Point",
        "coordinates": [52.506306555073216, 29.816616027402681]
      }
    },
    {
      "type": "Feature",
      "properties": { "Text": "108" },
      "geometry": {
        "type": "Point",
        "coordinates": [52.506286079086635, 29.816512258148261]
      }
    },
    {
      "type": "Feature",
      "properties": { "Text": "109" },
      "geometry": {
        "type": "Point",
        "coordinates": [52.50627805875245, 29.816409364137986]
      }
    },
    {
      "type": "Feature",
      "properties": { "Text": "110" },
      "geometry": {
        "type": "Point",
        "coordinates": [52.506264988296898, 29.816302655965718]
      }
    },
    {
      "type": "Feature",
      "properties": { "Text": "111" },
      "geometry": {
        "type": "Point",
        "coordinates": [52.506263563871642, 29.816197265540907]
      }
    },
    {
      "type": "Feature",
      "properties": { "Text": "112" },
      "geometry": {
        "type": "Point",
        "coordinates": [52.506237307640504, 29.81609805595885]
      }
    },
    {
      "type": "Feature",
      "properties": { "Text": "113" },
      "geometry": {
        "type": "Point",
        "coordinates": [52.506201068249396, 29.815997057062326]
      }
    },
    {
      "type": "Feature",
      "properties": { "Text": "114" },
      "geometry": {
        "type": "Point",
        "coordinates": [52.506169729562238, 29.815894934231014]
      }
    },
    {
      "type": "Feature",
      "properties": { "Text": "115" },
      "geometry": {
        "type": "Point",
        "coordinates": [52.506128674401673, 29.815801937603279]
      }
    },
    {
      "type": "Feature",
      "properties": { "Text": "116" },
      "geometry": {
        "type": "Point",
        "coordinates": [52.506081744616374, 29.815708123497753]
      }
    },
    {
      "type": "Feature",
      "properties": { "Text": "117" },
      "geometry": {
        "type": "Point",
        "coordinates": [52.50602922279576, 29.815624558385274]
      }
    },
    {
      "type": "Feature",
      "properties": { "Text": "118" },
      "geometry": {
        "type": "Point",
        "coordinates": [52.505956902425943, 29.815546474176863]
      }
    },
    {
      "type": "Feature",
      "properties": { "Text": "119" },
      "geometry": {
        "type": "Point",
        "coordinates": [52.505876337289678, 29.815474842905207]
      }
    },
    {
      "type": "Feature",
      "properties": { "Text": "120" },
      "geometry": {
        "type": "Point",
        "coordinates": [52.505774034542732, 29.815397797026211]
      }
    },
    {
      "type": "Feature",
      "properties": { "Text": "121" },
      "geometry": {
        "type": "Point",
        "coordinates": [52.505642445853532, 29.815346603765018]
      }
    },
    {
      "type": "Feature",
      "properties": { "Text": "122" },
      "geometry": {
        "type": "Point",
        "coordinates": [52.505270374382597, 29.815860078221284]
      }
    },
    {
      "type": "Feature",
      "properties": { "Text": "123" },
      "geometry": {
        "type": "Point",
        "coordinates": [52.505386358498015, 29.81589935965367]
      }
    },
    {
      "type": "Feature",
      "properties": { "Text": "124" },
      "geometry": {
        "type": "Point",
        "coordinates": [52.505493241540385, 29.815952446587154]
      }
    },
    {
      "type": "Feature",
      "properties": { "Text": "125" },
      "geometry": {
        "type": "Point",
        "coordinates": [52.505599373848213, 29.81600177359104]
      }
    },
    {
      "type": "Feature",
      "properties": { "Text": "126" },
      "geometry": {
        "type": "Point",
        "coordinates": [52.505711689330376, 29.816059373678215]
      }
    },
    {
      "type": "Feature",
      "properties": { "Text": "127" },
      "geometry": {
        "type": "Point",
        "coordinates": [52.505823495048489, 29.816101163423387]
      }
    },
    {
      "type": "Feature",
      "properties": { "Text": "128" },
      "geometry": {
        "type": "Point",
        "coordinates": [52.505915048081327, 29.816191893982317]
      }
    },
    {
      "type": "Feature",
      "properties": { "Text": "129" },
      "geometry": {
        "type": "Point",
        "coordinates": [52.505953530330906, 29.816400548488865]
      }
    },
    {
      "type": "Feature",
      "properties": { "Text": "130" },
      "geometry": {
        "type": "Point",
        "coordinates": [52.50582238145774, 29.816326637281218]
      }
    },
    {
      "type": "Feature",
      "properties": { "Text": "131" },
      "geometry": {
        "type": "Point",
        "coordinates": [52.5057263058102, 29.816271232939279]
      }
    },
    {
      "type": "Feature",
      "properties": { "Text": "132" },
      "geometry": {
        "type": "Point",
        "coordinates": [52.505609507362358, 29.81621331985604]
      }
    },
    {
      "type": "Feature",
      "properties": { "Text": "133" },
      "geometry": {
        "type": "Point",
        "coordinates": [52.505512881951688, 29.816161328976737]
      }
    },
    {
      "type": "Feature",
      "properties": { "Text": "134" },
      "geometry": {
        "type": "Point",
        "coordinates": [52.505396020576661, 29.816109119219497]
      }
    },
    {
      "type": "Feature",
      "properties": { "Text": "135" },
      "geometry": {
        "type": "Point",
        "coordinates": [52.505279892176731, 29.816052798974905]
      }
    },
    {
      "type": "Feature",
      "properties": { "Text": "136" },
      "geometry": {
        "type": "Point",
        "coordinates": [52.505185622181102, 29.815996777833359]
      }
    },
    {
      "type": "Feature",
      "properties": { "Text": "137" },
      "geometry": {
        "type": "Point",
        "coordinates": [52.504960354597436, 29.816318563255834]
      }
    },
    {
      "type": "Feature",
      "properties": { "Text": "138" },
      "geometry": {
        "type": "Point",
        "coordinates": [52.505064312226999, 29.816363927532922]
      }
    },
    {
      "type": "Feature",
      "properties": { "Text": "139" },
      "geometry": {
        "type": "Point",
        "coordinates": [52.505189488600557, 29.816407772822753]
      }
    },
    {
      "type": "Feature",
      "properties": { "Text": "140" },
      "geometry": {
        "type": "Point",
        "coordinates": [52.505294172479083, 29.816469013111476]
      }
    },
    {
      "type": "Feature",
      "properties": { "Text": "141" },
      "geometry": {
        "type": "Point",
        "coordinates": [52.505393246759567, 29.816526239872339]
      }
    },
    {
      "type": "Feature",
      "properties": { "Text": "142" },
      "geometry": {
        "type": "Point",
        "coordinates": [52.505508855418654, 29.816575943747793]
      }
    },
    {
      "type": "Feature",
      "properties": { "Text": "143" },
      "geometry": {
        "type": "Point",
        "coordinates": [52.505612648080806, 29.816632410405944]
      }
    },
    {
      "type": "Feature",
      "properties": { "Text": "144" },
      "geometry": {
        "type": "Point",
        "coordinates": [52.505714775379232, 29.816684799946266]
      }
    },
    {
      "type": "Feature",
      "properties": { "Text": "145" },
      "geometry": {
        "type": "Point",
        "coordinates": [52.505835907745492, 29.816740303219802]
      }
    },
    {
      "type": "Feature",
      "properties": { "Text": "146" },
      "geometry": {
        "type": "Point",
        "coordinates": [52.505926459309357, 29.816810378800312]
      }
    },
    {
      "type": "Feature",
      "properties": { "Text": "147" },
      "geometry": {
        "type": "Point",
        "coordinates": [52.505851988258598, 29.816987744977485]
      }
    },
    {
      "type": "Feature",
      "properties": { "Text": "148" },
      "geometry": {
        "type": "Point",
        "coordinates": [52.505705460789869, 29.816924453621549]
      }
    },
    {
      "type": "Feature",
      "properties": { "Text": "149" },
      "geometry": {
        "type": "Point",
        "coordinates": [52.505604597136511, 29.816871368512363]
      }
    },
    {
      "type": "Feature",
      "properties": { "Text": "150" },
      "geometry": {
        "type": "Point",
        "coordinates": [52.505491067169189, 29.816816299067764]
      }
    },
    {
      "type": "Feature",
      "properties": { "Text": "151" },
      "geometry": {
        "type": "Point",
        "coordinates": [52.505383706654456, 29.816754565022478]
      }
    },
    {
      "type": "Feature",
      "properties": { "Text": "152" },
      "geometry": {
        "type": "Point",
        "coordinates": [52.505280389432819, 29.816704801970193]
      }
    },
    {
      "type": "Feature",
      "properties": { "Text": "153" },
      "geometry": {
        "type": "Point",
        "coordinates": [52.505169383430761, 29.81664969177071]
      }
    },
    {
      "type": "Feature",
      "properties": { "Text": "154" },
      "geometry": {
        "type": "Point",
        "coordinates": [52.505063137705321, 29.816595150183304]
      }
    },
    {
      "type": "Feature",
      "properties": { "Text": "155" },
      "geometry": {
        "type": "Point",
        "coordinates": [52.504962367693985, 29.816546440259874]
      }
    },
    {
      "type": "Feature",
      "properties": { "Text": "156" },
      "geometry": {
        "type": "Point",
        "coordinates": [52.504847575910112, 29.816491390965222]
      }
    },
    {
      "type": "Feature",
      "properties": { "Text": "157" },
      "geometry": {
        "type": "Point",
        "coordinates": [52.5046569403031, 29.816785920295921]
      }
    },
    {
      "type": "Feature",
      "properties": { "Text": "158" },
      "geometry": {
        "type": "Point",
        "coordinates": [52.504768566290245, 29.816841802466456]
      }
    },
    {
      "type": "Feature",
      "properties": { "Text": "159" },
      "geometry": {
        "type": "Point",
        "coordinates": [52.504861776138817, 29.816898728362641]
      }
    },
    {
      "type": "Feature",
      "properties": { "Text": "160" },
      "geometry": {
        "type": "Point",
        "coordinates": [52.504974109146133, 29.816952120620105]
      }
    },
    {
      "type": "Feature",
      "properties": { "Text": "161" },
      "geometry": {
        "type": "Point",
        "coordinates": [52.50508539053201, 29.817001194147078]
      }
    },
    {
      "type": "Feature",
      "properties": { "Text": "162" },
      "geometry": {
        "type": "Point",
        "coordinates": [52.505198492752612, 29.817061236324282]
      }
    },
    {
      "type": "Feature",
      "properties": { "Text": "163" },
      "geometry": {
        "type": "Point",
        "coordinates": [52.505302172040075, 29.817118258884086]
      }
    },
    {
      "type": "Feature",
      "properties": { "Text": "164" },
      "geometry": {
        "type": "Point",
        "coordinates": [52.505414363842696, 29.817172816631839]
      }
    },
    {
      "type": "Feature",
      "properties": { "Text": "165" },
      "geometry": {
        "type": "Point",
        "coordinates": [52.505530316479259, 29.817209053001211]
      }
    },
    {
      "type": "Feature",
      "properties": { "Text": "166" },
      "geometry": {
        "type": "Point",
        "coordinates": [52.505636973620064, 29.817264387258778]
      }
    },
    {
      "type": "Feature",
      "properties": { "Text": "167" },
      "geometry": {
        "type": "Point",
        "coordinates": [52.505750662718881, 29.817314796568702]
      }
    },
    {
      "type": "Feature",
      "properties": { "Text": "168" },
      "geometry": {
        "type": "Point",
        "coordinates": [52.505862341176709, 29.81738242268451]
      }
    },
    {
      "type": "Feature",
      "properties": { "Text": "169" },
      "geometry": {
        "type": "Point",
        "coordinates": [52.505959403080809, 29.817692763537487]
      }
    },
    {
      "type": "Feature",
      "properties": { "Text": "170" },
      "geometry": {
        "type": "Point",
        "coordinates": [52.505845756720184, 29.817607297435117]
      }
    },
    {
      "type": "Feature",
      "properties": { "Text": "171" },
      "geometry": {
        "type": "Point",
        "coordinates": [52.505750858393405, 29.817545587528805]
      }
    },
    {
      "type": "Feature",
      "properties": { "Text": "172" },
      "geometry": {
        "type": "Point",
        "coordinates": [52.505631294559066, 29.817488814494261]
      }
    },
    {
      "type": "Feature",
      "properties": { "Text": "173" },
      "geometry": {
        "type": "Point",
        "coordinates": [52.505523977009048, 29.817439677403673]
      }
    },
    {
      "type": "Feature",
      "properties": { "Text": "174" },
      "geometry": {
        "type": "Point",
        "coordinates": [52.505411829325261, 29.817387181207131]
      }
    },
    {
      "type": "Feature",
      "properties": { "Text": "175" },
      "geometry": {
        "type": "Point",
        "coordinates": [52.505308978704115, 29.817332933535106]
      }
    },
    {
      "type": "Feature",
      "properties": { "Text": "176" },
      "geometry": {
        "type": "Point",
        "coordinates": [52.5051904153527, 29.817277103741105]
      }
    },
    {
      "type": "Feature",
      "properties": { "Text": "177" },
      "geometry": {
        "type": "Point",
        "coordinates": [52.505085387864582, 29.817223805355429]
      }
    },
    {
      "type": "Feature",
      "properties": { "Text": "178" },
      "geometry": {
        "type": "Point",
        "coordinates": [52.504980958744909, 29.817170152519019]
      }
    },
    {
      "type": "Feature",
      "properties": { "Text": "179" },
      "geometry": {
        "type": "Point",
        "coordinates": [52.50486318832651, 29.817114309859374]
      }
    },
    {
      "type": "Feature",
      "properties": { "Text": "180" },
      "geometry": {
        "type": "Point",
        "coordinates": [52.504767057420203, 29.817069116662552]
      }
    },
    {
      "type": "Feature",
      "properties": { "Text": "181" },
      "geometry": {
        "type": "Point",
        "coordinates": [52.504648309272099, 29.817012997778985]
      }
    },
    {
      "type": "Feature",
      "properties": { "Text": "182" },
      "geometry": {
        "type": "Point",
        "coordinates": [52.504555084716834, 29.816955384790685]
      }
    }
  ]
}
